{"type": "FeatureCollection", "features": [{"type": "Feature", "id": 88, "geometry": {"type": "LineString", "coordinates": [[-95.3920474252921, 29.7926143349801], [-95.3920684054385, 29.7935527640312]]}, "properties": {"OBJECTID": 88, "Id": 0, "BLOCK": "1200", "STREET": "OXFORD", "TIME": "7AM-5PM", "DAYS": "MON-FRI", "zip": "77008", "APP_": "2130715108", "Type": "Existing", "CHKD": "OK", "AREA": null, "Shape__Length": 341.3140422990707}}, {"type": "Feature", "id": 89, "geometry": {"type": "LineString", "coordinates": [[-95.3920684054385, 29.7935527640312], [-95.3920700006461, 29.793580919182], [-95.3920793637485, 29.7944645547805]]}, "properties": {"OBJECTID": 89, "Id": 0, "BLOCK": "1200", "STREET": "OXFORD", "TIME": "7AM-5PM", "DAYS": "MON-FRI", "zip": "77008", "APP_": "2130715108", "Type": "Existing", "CHKD": "OK", "AREA": null, "Shape__Length": 331.58875512084927}}, {"type": "Feature", "id": 171, "geometry": {"type": "LineString", "coordinates": [[-95.3931851360674, 29.7944506667254], [-95.3920793637485, 29.7944645547805]]}, "properties": {"OBJECTID": 171, "Id": null, "BLOCK": "400", "STREET": "E 13TH (SOUTH SIDE)", "TIME": "7AM-9PM", "DAYS": "MON-SAT", "zip": "77008", "APP_": "08261015166", "Type": "Existing", "CHKD": "OK", "AREA": null, "Shape__Length": 350.75685909419576}}, {"type": "Feature", "id": 172, "geometry": {"type": "LineString", "coordinates": [[-95.3942861821707, 29.7944397132463], [-95.3931851360674, 29.7944506667254]]}, "properties": {"OBJECTID": 172, "Id": null, "BLOCK": "500", "STREET": "E 13TH (SOUTH SIDE)", "TIME": "7AM-9PM", "DAYS": "MON-SAT", "zip": "77008", "APP_": "08261015166", "Type": "Existing", "CHKD": "OK", "AREA": null, "Shape__Length": 349.24423180130754}}, {"type": "Feature", "id": 302, "geometry": {"type": "LineString", "coordinates": [[-95.3931405321357, 29.7926123640267], [-95.3931747235272, 29.7936106509742], [-95.3931851238838, 29.794450660079]]}, "properties": {"OBJECTID": 302, "Id": null, "BLOCK": "1200", "STREET": "COLUMBIA", "TIME": "7AM-4PM", "DAYS": "MON-FRI", "zip": "77008", "APP_": "030618-15-300", "Type": "Existing", "CHKD": "OK", "AREA": null, "Shape__Length": 668.655528413805}}, {"type": "Feature", "id": 365, "geometry": {"type": "LineString", "coordinates": [[-95.4079739423974, 29.7905506984737], [-95.408010291699, 29.7923895244946]]}, "properties": {"OBJECTID": 365, "Id": null, "BLOCK": "1100", "STREET": "ALEXANDER", "TIME": "5PM-12AM", "DAYS": "WED-SUN", "zip": "77008", "APP_": "062422-15-365", "Type": "Existing", "CHKD": "OK", "AREA": null, "Shape__Length": 668.7674714662585}}, {"type": "Feature", "id": 371, "geometry": {"type": "LineString", "coordinates": [[-95.4061529513214, 29.7905655867102], [-95.4061978541891, 29.7924187410118]]}, "properties": {"OBJECTID": 371, "Id": null, "BLOCK": "1100", "STREET": "HERKIMER (EAST SIDE)", "TIME": "4PM-10PM", "DAYS": "WED-SUN", "zip": "77008", "APP_": "06012023-15-374", "Type": "Existing", "CHKD": "OK", "AREA": null, "Shape__Length": 674.0288918660538}}, {"type": "Feature", "id": 376, "geometry": {"type": "LineString", "coordinates": [[-95.3942495223319, 29.7926050823018], [-95.3931405321357, 29.7926123640267]]}, "properties": {"OBJECTID": 376, "Id": null, "BLOCK": "400", "STREET": "E 12TH", "TIME": "7AM-4PM", "DAYS": "MON-FRI", "zip": "77008", "APP_": "08122024-15-83", "Type": "Existing", "CHKD": "OK", "AREA": null, "Shape__Length": 351.7574640838073}}, {"type": "Feature", "id": 385, "geometry": {"type": "LineString", "coordinates": [[-95.394249522332, 29.7926050823017], [-95.3942861699872, 29.7944397065999]]}, "properties": {"OBJECTID": 385, "Id": null, "BLOCK": "1200", "STREET": "Arlington", "TIME": "7AM-7PM", "DAYS": "MON-FRI", "zip": "77008", "APP_": "09012025-15-390", "Type": "Proposed", "CHKD": "PROPOSED ADDED ON 3/3/2026", "AREA": null, "Shape__Length": 667.2418259372146}}]}