{"type": "FeatureCollection", "features": [{"type": "Feature", "id": 1, "geometry": {"type": "LineString", "coordinates": [[-95.3735414889884, 29.7412492325214], [-95.3726840361451, 29.7407365198141]]}, "properties": {"OBJECTID": 1, "Id": 0, "BLOCK": "1300", "STREET": "ANITA (SOUTH SIDE)", "TIME": "8AM-6PM", "DAYS": "MON-FRI", "zip": "77004", "APP_": " ", "Type": "Existing", "CHKD": "OK", "AREA": null, "Shape__Length": 329.8479773960089}}, {"type": "Feature", "id": 2, "geometry": {"type": "LineString", "coordinates": [[-95.3660494166311, 29.7267604647897], [-95.3643550079759, 29.7257155818518]]}, "properties": {"OBJECTID": 2, "Id": 0, "BLOCK": "2800-2900", "STREET": "CLEBURN", "TIME": "9AM-8PM", "DAYS": "MON-FRI", "zip": "77004", "APP_": " ", "Type": "Existing", "CHKD": "OK", "AREA": null, "Shape__Length": 658.4607261971018}}, {"type": "Feature", "id": 26, "geometry": {"type": "LineString", "coordinates": [[-95.3787574571591, 29.7491048700604], [-95.3792341926093, 29.7485086464347]]}, "properties": {"OBJECTID": 26, "Id": 0, "BLOCK": "2500", "STREET": "BAGBY", "TIME": "6PM-4AM", "DAYS": "MON-SUN", "zip": "77006", "APP_": "03280762110", "Type": "Existing", "CHKD": "OK", "AREA": null, "Shape__Length": 264.3662810907803}}, {"type": "Feature", "id": 29, "geometry": {"type": "LineString", "coordinates": [[-95.3800848389266, 29.7490192718898], [-95.3792341926093, 29.7485086464347]]}, "properties": {"OBJECTID": 29, "Id": 0, "BLOCK": "300", "STREET": "MC GOWEN", "TIME": "9PM-2AM", "DAYS": "MON-SUN", "zip": "77006", "APP_": " ", "Type": "Existing", "CHKD": "OK", "AREA": null, "Shape__Length": 327.6209664465902}}, {"type": "Feature", "id": 82, "geometry": {"type": "LineString", "coordinates": [[-95.3648496733611, 29.7251062444578], [-95.3653312457976, 29.7244810916845]]}, "properties": {"OBJECTID": 82, "Id": 0, "BLOCK": "4200", "STREET": "ENNIS", "TIME": "9AM-8PM", "DAYS": "MON-FRI", "zip": "77004", "APP_": " ", "Type": "Existing", "CHKD": "OK", "AREA": null, "Shape__Length": 273.9319108418537}}, {"type": "Feature", "id": 85, "geometry": {"type": "LineString", "coordinates": [[-95.3685233122946, 29.723634581168], [-95.3668305317901, 29.722607776863]]}, "properties": {"OBJECTID": 85, "Id": 0, "BLOCK": "2800-2900", "STREET": "RUTH", "TIME": "9AM-8PM", "DAYS": "MON-FRI", "zip": "77004", "APP_": "3210767109", "Type": "Existing", "CHKD": "OK", "AREA": null, "Shape__Length": 654.2782400998744}}, {"type": "Feature", "id": 86, "geometry": {"type": "LineString", "coordinates": [[-95.3680541076086, 29.7242423652543], [-95.3663495959925, 29.7232200348208]]}, "properties": {"OBJECTID": 86, "Id": 0, "BLOCK": "2800-2900", "STREET": "ROSEWOOD", "TIME": "9AM-8PM", "DAYS": "MON-FRI", "zip": "77004", "APP_": "4040767111", "Type": "Existing", "CHKD": "OK", "AREA": null, "Shape__Length": 656.4139028463464}}, {"type": "Feature", "id": 87, "geometry": {"type": "LineString", "coordinates": [[-95.3665642423253, 29.7261271480244], [-95.3648496743943, 29.7251062444859]]}, "properties": {"OBJECTID": 87, "Id": 0, "BLOCK": "2800-2900", "STREET": "EAGLE", "TIME": "9AM-8PM", "DAYS": "MON-FRI", "zip": "77004", "APP_": "260767107", "Type": "Existing", "CHKD": "OK", "AREA": null, "Shape__Length": 658.7462405339819}}, {"type": "Feature", "id": 115, "geometry": {"type": "LineString", "coordinates": [[-95.3670463355196, 29.725515263847], [-95.3653312458298, 29.7244810907828]]}, "properties": {"OBJECTID": 115, "Id": null, "BLOCK": "2800-2900", "STREET": "BARBEE", "TIME": "9AM-8PM", "DAYS": "MON-FRI", "zip": "77004", "APP_": "04010867127", "Type": "Existing", "CHKD": "OK", "AREA": null, "Shape__Length": 661.6163990278052}}, {"type": "Feature", "id": 140, "geometry": {"type": "LineString", "coordinates": [[-95.3655603295193, 29.7273888976593], [-95.3638575951728, 29.7263717567959]]}, "properties": {"OBJECTID": 140, "Id": null, "BLOCK": "2800-2900", "STREET": "ISABELLA ST", "TIME": "9AM-8PM", "DAYS": "MON-FRI", "zip": "77004", "APP_": "11200883135", "Type": "Existing", "CHKD": "OK", "AREA": null, "Shape__Length": 654.8678474419515}}, {"type": "Feature", "id": 175, "geometry": {"type": "LineString", "coordinates": [[-95.3645491165428, 29.7184772489592], [-95.3619888254208, 29.7177087122249]]}, "properties": {"OBJECTID": 175, "Id": null, "BLOCK": "3300", "STREET": "ARBOR  (SOUTH SIDE)", "TIME": "9AM-8PM", "DAYS": "MON-FRI", "zip": "77004", "APP_": "092909-83-150", "Type": "Existing", "CHKD": "OK", "AREA": "TIERWESTER CIVIC CLUB", "Shape__Length": 859.371330859735}}, {"type": "Feature", "id": 176, "geometry": {"type": "LineString", "coordinates": [[-95.3570218329587, 29.7157972361611], [-95.355764082121, 29.7153986834391]]}, "properties": {"OBJECTID": 176, "Id": null, "BLOCK": "3600", "STREET": "ROSEDALE (NORTH SIDE)", "TIME": "9AM-8PM", "DAYS": "MON-FRI", "zip": "77004", "APP_": "092909-83-150", "Type": "Existing", "CHKD": "OK", "AREA": "TIERWESTER CIVIC CLUB", "Shape__Length": 424.72343364432675}}, {"type": "Feature", "id": 177, "geometry": {"type": "LineString", "coordinates": [[-95.355764082121, 29.7153986834391], [-95.3544458442888, 29.7150244947125]]}, "properties": {"OBJECTID": 177, "Id": null, "BLOCK": "3700", "STREET": "ROSEDALE (NORTH SIDE)", "TIME": "9AM-8PM", "DAYS": "MON-FRI", "zip": "77004", "APP_": "092909-83-150", "Type": "Existing", "CHKD": "OK", "AREA": "TIERWESTER CIVIC CLUB", "Shape__Length": 440.00081744616426}}, {"type": "Feature", "id": 178, "geometry": {"type": "LineString", "coordinates": [[-95.3642613537387, 29.7192138856661], [-95.3641411965061, 29.7191655785527], [-95.3616927432831, 29.7184354810421]]}, "properties": {"OBJECTID": 178, "Id": null, "BLOCK": "3300", "STREET": "WENTWORTH (SOUTH SIDE)", "TIME": "9AM-8PM", "DAYS": "MON-FRI", "zip": "77004", "APP_": "092909-83-150", "Type": "Existing", "CHKD": "OK", "AREA": "TIERWESTER CIVIC CLUB", "Shape__Length": 863.2430250375548}}, {"type": "Feature", "id": 179, "geometry": {"type": "LineString", "coordinates": [[-95.3616927432831, 29.7184354810421], [-95.3591217692637, 29.7176586343638]]}, "properties": {"OBJECTID": 179, "Id": null, "BLOCK": "3400", "STREET": "WENTWORTH (SOUTH SIDE)", "TIME": "7AM-4PM", "DAYS": "MON-FRI", "zip": "77004", "APP_": "062810-83-165", "Type": "Existing", "CHKD": "OK", "AREA": "", "Shape__Length": 863.5626741782202}}, {"type": "Feature", "id": 180, "geometry": {"type": "LineString", "coordinates": [[-95.355764082121, 29.7153986834391], [-95.3559711873312, 29.714827728235]]}, "properties": {"OBJECTID": 180, "Id": null, "BLOCK": "4900", "STREET": "ROSEDALE CIRCLE", "TIME": "9AM-8PM", "DAYS": "MON-FRI", "zip": "77004", "APP_": "092909-83-150", "Type": "Existing", "CHKD": "OK", "AREA": "TIERWESTER CIVIC CLUB", "Shape__Length": 217.7760894969828}}, {"type": "Feature", "id": 181, "geometry": {"type": "LineString", "coordinates": [[-95.3467854024651, 29.7152812608439], [-95.3431181385246, 29.7141627234389]]}, "properties": {"OBJECTID": 181, "Id": null, "BLOCK": "4300", "STREET": "FIESTA ", "TIME": "7AM-7PM", "DAYS": "MON-FRI", "zip": "77004", "APP_": "072310-83-163", "Type": "Existing", "CHKD": "OK", "AREA": "UNIVERSITY OAKS", "Shape__Length": 1233.0768919418867}}, {"type": "Feature", "id": 182, "geometry": {"type": "LineString", "coordinates": [[-95.3425057091107, 29.7157161519142], [-95.3428156754904, 29.7149516242686]]}, "properties": {"OBJECTID": 182, "Id": null, "BLOCK": "4500", "STREET": "UNIVERSITY OAKS BLVD", "TIME": "7AM-7PM", "DAYS": "MON-FRI", "zip": "77004", "APP_": "072310-83-163", "Type": "Existing", "CHKD": "OK", "AREA": "UNIVERSITY OAKS", "Shape__Length": 294.9027980648241}}, {"type": "Feature", "id": 183, "geometry": {"type": "LineString", "coordinates": [[-95.3431181385246, 29.7141627234389], [-95.3435177781087, 29.7131689252372]]}, "properties": {"OBJECTID": 183, "Id": null, "BLOCK": "4715", "STREET": "UNIVERSITY OAKS BLVD", "TIME": "7AM-7PM", "DAYS": "MON-FRI", "zip": "77004", "APP_": "072310-83-163", "Type": "Existing", "CHKD": "OK", "AREA": "UNIVERSITY OAKS", "Shape__Length": 382.9941120090675}}, {"type": "Feature", "id": 184, "geometry": {"type": "LineString", "coordinates": [[-95.3428156754904, 29.7149516242686], [-95.3431181385246, 29.7141627234389]]}, "properties": {"OBJECTID": 184, "Id": null, "BLOCK": "4600", "STREET": "UNIVERSITY OAKS BLVD", "TIME": "7AM-7PM", "DAYS": "MON-FRI", "zip": "77004", "APP_": "072310-83-163", "Type": "Existing", "CHKD": "OK", "AREA": "UNIVERSITY OAKS", "Shape__Length": 302.5081264033263}}, {"type": "Feature", "id": 185, "geometry": {"type": "LineString", "coordinates": [[-95.3421881223294, 29.7165112477092], [-95.3425057091107, 29.7157161519142]]}, "properties": {"OBJECTID": 185, "Id": null, "BLOCK": "4400", "STREET": "UNIVERSITY OAKS BLVD", "TIME": "7AM-7PM", "DAYS": "MON-FRI", "zip": "77004", "APP_": "072310-83-163", "Type": "Existing", "CHKD": "OK", "AREA": "UNIVERSITY OAKS", "Shape__Length": 306.19158104730906}}, {"type": "Feature", "id": 186, "geometry": {"type": "LineString", "coordinates": [[-95.3464839241088, 29.716047234346], [-95.3453858907213, 29.7157153514572], [-95.3439509096169, 29.7152742933529], [-95.3428156754904, 29.7149516242686]]}, "properties": {"OBJECTID": 186, "Id": null, "BLOCK": "4300", "STREET": "HARVEST LN (UNIVERSITY OAKS)", "TIME": "7AM-7PM", "DAYS": "MON-FRI", "zip": "77004", "APP_": "072310-83-163", "Type": "Existing", "CHKD": "OK", "AREA": "UNIVERSITY OAKS", "Shape__Length": 1230.7030043027298}}, {"type": "Feature", "id": 187, "geometry": {"type": "LineString", "coordinates": [[-95.3461815407372, 29.7168384160462], [-95.3441840320767, 29.7162386397765], [-95.3425057091107, 29.7157161519142]]}, "properties": {"OBJECTID": 187, "Id": null, "BLOCK": "4300", "STREET": "VARSITY", "TIME": "7AM-7PM", "DAYS": "MON-FRI", "zip": "77004", "APP_": "072310-83-163", "Type": "Existing", "CHKD": "OK", "AREA": "UNIVERSITY OAKS", "Shape__Length": 1236.0940324309536}}, {"type": "Feature", "id": 188, "geometry": {"type": "LineString", "coordinates": [[-95.3471050849977, 29.7144956307292], [-95.347413793191, 29.7137166981317]]}, "properties": {"OBJECTID": 188, "Id": null, "BLOCK": "4800", "STREET": "ROCKWOOD", "TIME": "7AM-7PM", "DAYS": "MON-FRI", "zip": "77004", "APP_": "072310-83-163", "Type": "Existing", "CHKD": "OK", "AREA": "UNIVERSITY OAKS", "Shape__Length": 299.7153398315872}}, {"type": "Feature", "id": 189, "geometry": {"type": "LineString", "coordinates": [[-95.347413793191, 29.7137166981317], [-95.3476400991554, 29.7131552597158], [-95.3476691581707, 29.7130433394944], [-95.3476697587652, 29.7129188640821], [-95.3476412392833, 29.7128003249576], [-95.347594971244, 29.7126930764085], [-95.3475181989437, 29.7125765865435], [-95.3474439348692, 29.7124797902766], [-95.3472926162239, 29.7123102348859], [-95.3469978859228, 29.7120375122444]]}, "properties": {"OBJECTID": 189, "Id": null, "BLOCK": "4850", "STREET": "ROCKWOOD", "TIME": "7AM-7PM", "DAYS": "MON-FRI", "zip": "77004", "APP_": "072310-83-163", "Type": "Existing", "CHKD": "OK", "AREA": "UNIVERSITY OAKS", "Shape__Length": 694.8612189594731}}, {"type": "Feature", "id": 190, "geometry": {"type": "LineString", "coordinates": [[-95.3464839241088, 29.716047234346], [-95.3467854024651, 29.7152812608439]]}, "properties": {"OBJECTID": 190, "Id": null, "BLOCK": "4600", "STREET": "ROCKWOOD", "TIME": "7AM-7PM", "DAYS": "MON-FRI", "zip": "77004", "APP_": "072310-83-163", "Type": "Existing", "CHKD": "OK", "AREA": "UNIVERSITY OAKS", "Shape__Length": 294.5119816612354}}, {"type": "Feature", "id": 191, "geometry": {"type": "LineString", "coordinates": [[-95.3467854024651, 29.7152812608439], [-95.3471050849977, 29.7144956307292]]}, "properties": {"OBJECTID": 191, "Id": null, "BLOCK": "4700", "STREET": "ROCKWOOD", "TIME": "7AM-7PM", "DAYS": "MON-FRI", "zip": "77004", "APP_": "072310-83-163", "Type": "Existing", "CHKD": "OK", "AREA": "UNIVERSITY OAKS", "Shape__Length": 303.1659062945107}}, {"type": "Feature", "id": 192, "geometry": {"type": "LineString", "coordinates": [[-95.3458774086938, 29.7176214937753], [-95.3461815407372, 29.7168384160462]]}, "properties": {"OBJECTID": 192, "Id": null, "BLOCK": "4400", "STREET": "ROCKWOOD", "TIME": "7AM-7PM", "DAYS": "MON-FRI", "zip": "77004", "APP_": "072310-83-163", "Type": "Existing", "CHKD": "OK", "AREA": "UNIVERSITY OAKS", "Shape__Length": 300.6699511420615}}, {"type": "Feature", "id": 193, "geometry": {"type": "LineString", "coordinates": [[-95.3461815407372, 29.7168384160462], [-95.3464839241088, 29.716047234346]]}, "properties": {"OBJECTID": 193, "Id": null, "BLOCK": "4500", "STREET": "ROCKWOOD", "TIME": "7AM-7PM", "DAYS": "MON-FRI", "zip": "77004", "APP_": "072310-83-163", "Type": "Existing", "CHKD": "OK", "AREA": "UNIVERSITY OAKS", "Shape__Length": 303.2863288840637}}, {"type": "Feature", "id": 201, "geometry": {"type": "LineString", "coordinates": [[-95.3619888254208, 29.7177087122249], [-95.3594117664824, 29.7169339204203]]}, "properties": {"OBJECTID": 201, "Id": null, "BLOCK": "3400", "STREET": "ARBOR (SOUTH SIDE)", "TIME": "9AM-8PM", "DAYS": "MON-FRI", "zip": "77004", "APP_": "12011083168", "Type": "Existing", "CHKD": "OK", "AREA": "TIERWESTER CIVIC CLUB", "Shape__Length": 865.1499178906805}}, {"type": "Feature", "id": 204, "geometry": {"type": "LineString", "coordinates": [[-95.3801408831692, 29.7250137992333], [-95.378368613014, 29.7239429429036]]}, "properties": {"OBJECTID": 204, "Id": null, "BLOCK": "1800", "STREET": "PALM (SOUTH SIDE)", "TIME": "5PM-3AM", "DAYS": "WED-SUN", "zip": "77004", "APP_": "10151066167", "Type": "Existing", "CHKD": "OK", "AREA": null, "Shape__Length": 684.1326907723148}}, {"type": "Feature", "id": 205, "geometry": {"type": "LineString", "coordinates": [[-95.3806510284423, 29.7483052259772], [-95.3805590788572, 29.7482610026774], [-95.3797960982074, 29.7477946732228]]}, "properties": {"OBJECTID": 205, "Id": null, "BLOCK": "300", "STREET": "DENNIS (SOUTH SIDE)", "TIME": "9PM-2AM", "DAYS": "MON-SUN", "zip": "77006", "APP_": "02281162171", "Type": "Existing", "CHKD": "OK", "AREA": null, "Shape__Length": 328.900561166404}}, {"type": "Feature", "id": 212, "geometry": {"type": "LineString", "coordinates": [[-95.3739865874826, 29.7406814391306], [-95.3731356165273, 29.7401621183256]]}, "properties": {"OBJECTID": 212, "Id": null, "BLOCK": "1300", "STREET": "ROSALIE", "TIME": "7PM-7AM", "DAYS": "MON-SUN", "zip": "77004", "APP_": "120121-62-357", "Type": "Existing", "CHKD": "OK", "AREA": null, "Shape__Length": 329.52555591449016}}, {"type": "Feature", "id": 227, "geometry": {"type": "LineString", "coordinates": [[-95.3747601243256, 29.7221545058836], [-95.374710592269, 29.722127657487], [-95.3730473220492, 29.7211226469333]]}, "properties": {"OBJECTID": 227, "Id": null, "BLOCK": "2400-2500", "STREET": "WICHITA", "TIME": "5PM-2AM", "DAYS": "MON-SUN", "zip": "77004", "APP_": "071312-67-208", "Type": "Existing", "CHKD": "OK", "AREA": null, "Shape__Length": 660.5776609755222}}, {"type": "Feature", "id": 228, "geometry": {"type": "LineString", "coordinates": [[-95.372709196693, 29.7206464886771], [-95.3729670210237, 29.719825046306]]}, "properties": {"OBJECTID": 228, "Id": null, "BLOCK": "5100", "STREET": "LIVE OAK", "TIME": "5PM-2AM", "DAYS": "MON-SUN", "zip": "77004", "APP_": "012913-67-211 ", "Type": "Existing", "CHKD": "OK", "AREA": null, "Shape__Length": 309.7093005128564}}, {"type": "Feature", "id": 229, "geometry": {"type": "LineString", "coordinates": [[-95.3714762160503, 29.7263083559643], [-95.3700829483815, 29.7254761363669], [-95.3697586244432, 29.7252787140517]]}, "properties": {"OBJECTID": 229, "Id": null, "BLOCK": "2400-2500", "STREET": "ROSEWOOD", "TIME": "5PM-2AM", "DAYS": "MON-SUN", "zip": "77004", "APP_": "120512-67-209 ", "Type": "Existing", "CHKD": "OK", "AREA": null, "Shape__Length": 661.3361899882906}}, {"type": "Feature", "id": 261, "geometry": {"type": "LineString", "coordinates": [[-95.3721794729888, 29.7267198123549], [-95.3714762160503, 29.7263083559643]]}, "properties": {"OBJECTID": 261, "Id": null, "BLOCK": "2300", "STREET": "ROSEWOOD", "TIME": "5PM-2AM", "DAYS": "MON-SUN", "zip": "77004", "APP_": null, "Type": "Existing", "CHKD": "OK", "AREA": null, "Shape__Length": 268.7099059857573}}, {"type": "Feature", "id": 262, "geometry": {"type": "LineString", "coordinates": [[-95.372709196693, 29.7206464886771], [-95.3714742971849, 29.7199132364413]]}, "properties": {"OBJECTID": 262, "Id": null, "BLOCK": "2600-2700", "STREET": "WICHITA", "TIME": "5PM-2AM", "DAYS": "MON-SUN", "zip": "77004", "APP_": "012913-67-211 ", "Type": "Existing", "CHKD": "OK", "AREA": null, "Shape__Length": 474.05355651220873}}, {"type": "Feature", "id": 263, "geometry": {"type": "LineString", "coordinates": [[-95.3714742971849, 29.7199132364413], [-95.371370741541, 29.7199143035059], [-95.3706005355429, 29.719448624474]]}, "properties": {"OBJECTID": 263, "Id": null, "BLOCK": "2800", "STREET": "WICHITA", "TIME": "5PM-2AM", "DAYS": "MON-SUN", "zip": "77004", "APP_": "012913-67-211 ", "Type": "Existing", "CHKD": "OK", "AREA": null, "Shape__Length": 330.2577477934923}}, {"type": "Feature", "id": 265, "geometry": {"type": "LineString", "coordinates": [[-95.3617263141816, 29.7417851304641], [-95.3608282137653, 29.7412596191876]]}, "properties": {"OBJECTID": 265, "Id": null, "BLOCK": "2200", "STREET": "WEBSTER (SOUTH SIDE)", "TIME": "8PM-6AM", "DAYS": "FRI-SUN", "zip": "77003", "APP_": "041315-62-250", "Type": "Existing", "CHKD": "OK", "AREA": null, "Shape__Length": 343.1355594798331}}, {"type": "Feature", "id": 266, "geometry": {"type": "LineString", "coordinates": [[-95.3608282137653, 29.7412596191876], [-95.3600133124964, 29.7407605817887]]}, "properties": {"OBJECTID": 266, "Id": null, "BLOCK": "2300", "STREET": "WEBSTER", "TIME": "8PM-6AM", "DAYS": "FRI-SUN", "zip": "77003", "APP_": "041315-62-250", "Type": "Existing", "CHKD": "OK", "AREA": null, "Shape__Length": 315.91759522887025}}, {"type": "Feature", "id": 267, "geometry": {"type": "LineString", "coordinates": [[-95.3614264419398, 29.7405378244339], [-95.3606030156971, 29.7400347776051]]}, "properties": {"OBJECTID": 267, "Id": null, "BLOCK": "2300", "STREET": "HADLEY (NORTH SIDE)", "TIME": "8PM-6AM", "DAYS": "FRI-SUN", "zip": "77003", "APP_": "041315-62-250", "Type": "Existing", "CHKD": "OK", "AREA": null, "Shape__Length": 318.97123805025166}}, {"type": "Feature", "id": 268, "geometry": {"type": "LineString", "coordinates": [[-95.3608282137653, 29.7412596191876], [-95.3614264419398, 29.7405378244339]]}, "properties": {"OBJECTID": 268, "Id": null, "BLOCK": "2200", "STREET": "BASTROP (WEST SIDE)", "TIME": "8PM-6AM", "DAYS": "FRI-SUN", "zip": "77003", "APP_": "041315-62-250", "Type": "Existing", "CHKD": "OK", "AREA": null, "Shape__Length": 323.9281572749539}}, {"type": "Feature", "id": 270, "geometry": {"type": "LineString", "coordinates": [[-95.3441219146344, 29.7290454570362], [-95.3444082911343, 29.7283771053588]]}, "properties": {"OBJECTID": 270, "Id": null, "BLOCK": "2900", "STREET": "LEEK (WEST SIDE)", "TIME": "7AM-6PM", "DAYS": "MON-FRI", "zip": "77004", "APP_": "121515-67-255", "Type": "Existing", "CHKD": "OK", "AREA": null, "Shape__Length": 259.47345057072437}}, {"type": "Feature", "id": 271, "geometry": {"type": "LineString", "coordinates": [[-95.3438509217013, 29.7297194725387], [-95.3441219146344, 29.7290454570362]]}, "properties": {"OBJECTID": 271, "Id": null, "BLOCK": "2800", "STREET": "LEEK (WEST SIDE)", "TIME": "7AM-6PM", "DAYS": "MON-FRI", "zip": "77004", "APP_": "121515-67-255", "Type": "Existing", "CHKD": "OK", "AREA": null, "Shape__Length": 259.74611408129743}}, {"type": "Feature", "id": 289, "geometry": {"type": "LineString", "coordinates": [[-95.3709739635675, 29.7269468191941], [-95.3700509797311, 29.7263747206748], [-95.3692636664734, 29.7259046213163]]}, "properties": {"OBJECTID": 289, "Id": null, "BLOCK": "2400-2500", "STREET": "WHEELER", "TIME": "6PM-3AM", "DAYS": "MON-SUN", "zip": "77004", "APP_": "102516-67-278", "Type": "Existing", "CHKD": "OK", "AREA": null, "Shape__Length": 662.0507078085078}}, {"type": "Feature", "id": 296, "geometry": {"type": "LineString", "coordinates": [[-95.374714765999, 29.7253770047603], [-95.373018950565, 29.7243500884204]]}, "properties": {"OBJECTID": 296, "Id": null, "BLOCK": "2200-2300", "STREET": "WENTWORTH", "TIME": "6PM-3AM", "DAYS": "MON-SUN", "zip": "77004", "APP_": "032717-66-284", "Type": "Existing", "CHKD": "OK", "AREA": null, "Shape__Length": 655.0852592851942}}, {"type": "Feature", "id": 301, "geometry": {"type": "LineString", "coordinates": [[-95.3791416951552, 29.7262872901441], [-95.3778295297219, 29.7255139282549]]}, "properties": {"OBJECTID": 301, "Id": null, "BLOCK": "1800", "STREET": "ROSEDALE", "TIME": "5PM-3AM", "DAYS": "THUR-SUN", "zip": "77004", "APP_": "022318-66-299", "Type": "Existing", "CHKD": "OK", "AREA": null, "Shape__Length": 502.51875514145706}}, {"type": "Feature", "id": 306, "geometry": {"type": "LineString", "coordinates": [[-95.3735586049093, 29.7236804373999], [-95.3719044912802, 29.7226724884602], [-95.3718491605367, 29.7226800083593], [-95.371789140445, 29.7227135147092]]}, "properties": {"OBJECTID": 306, "Id": null, "BLOCK": "2400-2500", "STREET": "ARBOR", "TIME": "6PM-3AM", "DAYS": "MON-SUN", "zip": "77004", "APP_": "0501118-67-308", "Type": "Existing", "CHKD": "OK", "AREA": null, "Shape__Length": 680.6752231717101}}, {"type": "Feature", "id": 307, "geometry": {"type": "LineString", "coordinates": [[-95.3751984504786, 29.7246596861351], [-95.3735586049093, 29.7236804373999]]}, "properties": {"OBJECTID": 307, "Id": null, "BLOCK": "2200-2300", "STREET": "ARBOR", "TIME": "6PM-3AM", "DAYS": "MON-SUN", "zip": "77004", "APP_": "0501118-67-309", "Type": "Existing", "CHKD": "OK", "AREA": null, "Shape__Length": 630.6254701316535}}, {"type": "Feature", "id": 329, "geometry": {"type": "LineString", "coordinates": [[-95.3675428427515, 29.724883910913], [-95.3658374108426, 29.7238531661782]]}, "properties": {"OBJECTID": 329, "Id": null, "BLOCK": "2800-2900", "STREET": "WHEELER", "TIME": "9AM-8PM", "DAYS": "MON-FRI", "zip": "77004", "APP_": "101819-67-330 ", "Type": "Existing", "CHKD": "OK", "AREA": null, "Shape__Length": 658.3889398375409}}, {"type": "Feature", "id": 333, "geometry": {"type": "LineString", "coordinates": [[-95.3579915671327, 29.7417427414877], [-95.3571188435386, 29.7412163411883]]}, "properties": {"OBJECTID": 333, "Id": null, "BLOCK": "2500", "STREET": "PIERCE (SOUTH SIDE)", "TIME": "9PM-2AM", "DAYS": "FRI-SUN", "zip": "77003", "APP_": "111620-67-343", "Type": "Existing", "CHKD": "OK", "AREA": "EMANCIPATION TOWNHOMES", "Shape__Length": 336.6606043975321}}, {"type": "Feature", "id": 334, "geometry": {"type": "LineString", "coordinates": [[-95.3579915671327, 29.7417427414877], [-95.3585821064912, 29.7409947465494]]}, "properties": {"OBJECTID": 334, "Id": null, "BLOCK": "2000", "STREET": "ST CHARLES (EAST SIDE)", "TIME": "9PM-2AM", "DAYS": "FRI-SUN", "zip": "77003", "APP_": "111620-67-343", "Type": "Existing", "CHKD": "OK", "AREA": "EMANCIPATION TOWNHOMES", "Shape__Length": 330.30391251980865}}, {"type": "Feature", "id": 335, "geometry": {"type": "LineString", "coordinates": [[-95.3571188435386, 29.7412163411883], [-95.3577495233852, 29.7404376066016]]}, "properties": {"OBJECTID": 335, "Id": null, "BLOCK": "2000", "STREET": "LIVE OAK (WEST SIDE)", "TIME": "9PM-2AM", "DAYS": "FRI-SUN", "zip": "77003", "APP_": "111620-67-343", "Type": "Existing", "CHKD": "OK", "AREA": "EMANCIPATION TOWNHOMES", "Shape__Length": 346.7610769251639}}, {"type": "Feature", "id": 340, "geometry": {"type": "LineString", "coordinates": [[-95.3585821064912, 29.7409947465494], [-95.3578155872506, 29.7405231817048], [-95.3577726675683, 29.7404885021557], [-95.3577495233852, 29.7404376066016]]}, "properties": {"OBJECTID": 340, "Id": null, "BLOCK": "2500", "STREET": "GRAY", "TIME": "9PM-2AM", "DAYS": "FRI-SUN", "zip": "77003", "APP_": "083021-67-353", "Type": "Existing", "CHKD": "OK", "AREA": "EMANCIPATION TOWNHOMES", "Shape__Length": 336.08567429080205}}, {"type": "Feature", "id": 353, "geometry": {"type": "LineString", "coordinates": [[-95.3691655504767, 29.7451888165196], [-95.3693915557675, 29.7449058592527], [-95.3697014931124, 29.744489250023], [-95.3697920902409, 29.7443761378087]]}, "properties": {"OBJECTID": 353, "Id": null, "BLOCK": "2300", "STREET": "AUSTIN (WEST SIDE)", "TIME": "10PM-7AM", "DAYS": "MON-SUN", "zip": "77004", "APP_": "092921-62-355 ", "Type": "Existing", "CHKD": "OK", "AREA": null, "Shape__Length": 356.22216858727836}}, {"type": "Feature", "id": 378, "geometry": {"type": "LineString", "coordinates": [[-95.3719596167224, 29.7257019262387], [-95.3702402308769, 29.7246665646639]]}, "properties": {"OBJECTID": 378, "Id": null, "BLOCK": "2400-2500 ", "STREET": "RUTH", "TIME": "5PM-2AM", "DAYS": "MON-SUN", "zip": "77004", "APP_": "10212024-67-386", "Type": "Existing", "CHKD": "OK", "AREA": null, "Shape__Length": 662.9832423770131}}, {"type": "Feature", "id": 381, "geometry": {"type": "LineString", "coordinates": [[-95.3704636890669, 29.727574042484], [-95.3700177675, 29.727307898575], [-95.3687616201649, 29.7265382863193]]}, "properties": {"OBJECTID": 381, "Id": null, "BLOCK": "2400-2500", "STREET": "Barbee", "TIME": "6PM-6AM", "DAYS": "FRI-SUN", "zip": "77004", "APP_": "03202058-67-389", "Type": "Existing", "CHKD": "OK", "AREA": null, "Shape__Length": 658.5501871105249}}, {"type": "Feature", "id": 382, "geometry": {"type": "LineString", "coordinates": [[-95.3699867816762, 29.7281788222566], [-95.3682825276594, 29.7271558389474]]}, "properties": {"OBJECTID": 382, "Id": null, "BLOCK": "2400-2500", "STREET": "Eagle", "TIME": "6PM-6AM", "DAYS": "FRI-SUN", "zip": "77004", "APP_": "091225-67-388", "Type": "Proposed", "CHKD": "PROPOSED ADDED ON 10-30-25", "AREA": null, "Shape__Length": 656.4640532423181}}, {"type": "Feature", "id": 383, "geometry": {"type": "LineString", "coordinates": [[-95.3765706483345, 29.7175583563265], [-95.3761640897421, 29.7172868881956], [-95.3758285638783, 29.7170996774974], [-95.3750431071016, 29.716754542468]]}, "properties": {"OBJECTID": 383, "Id": null, "BLOCK": "2500", "STREET": "Binz", "TIME": "2PM-2AM", "DAYS": "MON-SUN", "zip": "77004", "APP_": "091025-83-389", "Type": "Denied", "CHKD": "PROPOSED ADDED ON 11-05-25", "AREA": null, "Shape__Length": 567.9924849189014}}]}