{"type": "FeatureCollection", "features": [{"type": "Feature", "id": 24, "geometry": {"type": "LineString", "coordinates": [[-95.3848052887003, 29.7454804083238], [-95.3859654208341, 29.7454502195407]]}, "properties": {"OBJECTID": 24, "Id": 0, "BLOCK": "300", "STREET": "AVONDALE (SOUTH SIDE)", "TIME": "5PM-6AM", "DAYS": "MON-SUN", "zip": "77006", "APP_": " ", "Type": "Existing", "CHKD": "OK", "AREA": null, "Shape__Length": 368.3022975173817}}, {"type": "Feature", "id": 25, "geometry": {"type": "LineString", "coordinates": [[-95.3859654208341, 29.7454502195407], [-95.3872570592546, 29.7454284937058]]}, "properties": {"OBJECTID": 25, "Id": 0, "BLOCK": "400", "STREET": "AVONDALE", "TIME": "5PM-6AM", "DAYS": "MON-SUN", "zip": "77006", "APP_": "062013-24-222", "Type": "Existing", "CHKD": "OK", "AREA": null, "Shape__Length": 409.945098363175}}, {"type": "Feature", "id": 26, "geometry": {"type": "LineString", "coordinates": [[-95.3787574571591, 29.7491048700604], [-95.3792341926093, 29.7485086464347]]}, "properties": {"OBJECTID": 26, "Id": 0, "BLOCK": "2500", "STREET": "BAGBY", "TIME": "6PM-4AM", "DAYS": "MON-SUN", "zip": "77006", "APP_": "03280762110", "Type": "Existing", "CHKD": "OK", "AREA": null, "Shape__Length": 264.3662810907803}}, {"type": "Feature", "id": 27, "geometry": {"type": "LineString", "coordinates": [[-95.3796150441068, 29.7496255538885], [-95.3800848389266, 29.7490192718898]]}, "properties": {"OBJECTID": 27, "Id": 0, "BLOCK": "2500", "STREET": "BALDWIN", "TIME": "9PM-2AM", "DAYS": "MON-SUN", "zip": "77006", "APP_": " ", "Type": "Existing", "CHKD": "OK", "AREA": null, "Shape__Length": 266.133797884133}}, {"type": "Feature", "id": 28, "geometry": {"type": "LineString", "coordinates": [[-95.3859366995945, 29.7434970887789], [-95.3872255216304, 29.7434653405422]]}, "properties": {"OBJECTID": 28, "Id": 0, "BLOCK": "400", "STREET": "LOVETT (NORTH SIDE)", "TIME": "12PM-12AM,6PM-12AM", "DAYS": "SUN, MON-SAT", "zip": "77006", "APP_": " ", "Type": "Existing", "CHKD": "OK", "AREA": null, "Shape__Length": 409.14601379349557}}, {"type": "Feature", "id": 29, "geometry": {"type": "LineString", "coordinates": [[-95.3800848389266, 29.7490192718898], [-95.3792341926093, 29.7485086464347]]}, "properties": {"OBJECTID": 29, "Id": 0, "BLOCK": "300", "STREET": "MC GOWEN", "TIME": "9PM-2AM", "DAYS": "MON-SUN", "zip": "77006", "APP_": " ", "Type": "Existing", "CHKD": "OK", "AREA": null, "Shape__Length": 327.6209664465902}}, {"type": "Feature", "id": 30, "geometry": {"type": "LineString", "coordinates": [[-95.3809313212244, 29.7495319509817], [-95.3800848389266, 29.7490192718898]]}, "properties": {"OBJECTID": 30, "Id": 0, "BLOCK": "400", "STREET": "MC GOWEN", "TIME": "9PM-2AM", "DAYS": "MON-SUN", "zip": "77006", "APP_": " ", "Type": "Existing", "CHKD": "OK", "AREA": null, "Shape__Length": 326.9573539203853}}, {"type": "Feature", "id": 31, "geometry": {"type": "LineString", "coordinates": [[-95.3977738427668, 29.7441790352788], [-95.398754936368, 29.7437167980388]]}, "properties": {"OBJECTID": 31, "Id": 0, "BLOCK": "1700", "STREET": "MISSOURI", "TIME": "6PM-12AM", "DAYS": "MON-SUN", "zip": "77006", "APP_": " ", "Type": "Existing", "CHKD": "OK", "AREA": null, "Shape__Length": 353.8063074308938}}, {"type": "Feature", "id": 32, "geometry": {"type": "LineString", "coordinates": [[-95.398754936368, 29.7437167980388], [-95.3995806140514, 29.7433265114694]]}, "properties": {"OBJECTID": 32, "Id": 0, "BLOCK": "1800", "STREET": "MISSOURI", "TIME": "6PM-12AM, 9AM-12AM", "DAYS": "MON-FRI, SAT-SUN", "zip": "77006", "APP_": "021214-24-231", "Type": "Existing", "CHKD": "OK", "AREA": null, "Shape__Length": 297.9806369407104}}, {"type": "Feature", "id": 33, "geometry": {"type": "LineString", "coordinates": [[-95.3991664028186, 29.7443773539722], [-95.398754936368, 29.7437167980388]]}, "properties": {"OBJECTID": 33, "Id": 0, "BLOCK": "2600", "STREET": "RIDGEWOOD", "TIME": "6PM-12AM", "DAYS": "MON-SUN", "zip": "77006", "APP_": " ", "Type": "Existing", "CHKD": "OK", "AREA": null, "Shape__Length": 273.3950222791193}}, {"type": "Feature", "id": 34, "geometry": {"type": "LineString", "coordinates": [[-95.3830390110635, 29.7464329608668], [-95.3848188220908, 29.7463962362424]]}, "properties": {"OBJECTID": 34, "Id": 0, "BLOCK": "200", "STREET": "STRATFORD", "TIME": "5PM-6AM", "DAYS": "MON-SUN", "zip": "77006", "APP_": " ", "Type": "Existing", "CHKD": "OK", "AREA": null, "Shape__Length": 564.9307308195896}}, {"type": "Feature", "id": 35, "geometry": {"type": "LineString", "coordinates": [[-95.3859366995945, 29.7434970887789], [-95.3859409331952, 29.7424270795138]]}, "properties": {"OBJECTID": 35, "Id": 0, "BLOCK": "3300", "STREET": "TAFT(WEST SIDE)", "TIME": "12PM-12AM, 6PM-12AM", "DAYS": "SUN, MON-SAT", "zip": "77006", "APP_": " ", "Type": "Existing", "CHKD": "OK", "AREA": null, "Shape__Length": 389.0936344926299}}, {"type": "Feature", "id": 38, "geometry": {"type": "LineString", "coordinates": [[-95.3959197205597, 29.7539973924738], [-95.398039457126, 29.7539500280395]]}, "properties": {"OBJECTID": 38, "Id": 0, "BLOCK": "1300", "STREET": "WEST PIERCE", "TIME": "5PM-2AM", "DAYS": "MON-SUN", "zip": "77019", "APP_": " ", "Type": "Existing", "CHKD": "OK", "AREA": null, "Shape__Length": 672.8093244931641}}, {"type": "Feature", "id": 90, "geometry": {"type": "LineString", "coordinates": [[-95.3963705800611, 29.7440827373914], [-95.3963667517231, 29.744033130504], [-95.3963811877593, 29.743978125909], [-95.3973490266022, 29.7435172609629]]}, "properties": {"OBJECTID": 90, "Id": 0, "BLOCK": "1600", "STREET": "CALIFORNIA", "TIME": "5PM-5AM", "DAYS": "MON-SUN", "zip": "77006", "APP_": "1090823125", "Type": "Existing", "CHKD": "OK", "AREA": null, "Shape__Length": 388.4710906560824}}, {"type": "Feature", "id": 92, "geometry": {"type": "LineString", "coordinates": [[-95.393684522048, 29.7335936957622], [-95.3946648315236, 29.7335819985324]]}, "properties": {"OBJECTID": 92, "Id": 0, "BLOCK": "1200", "STREET": "BONNIE BRAE", "TIME": "4PM-7AM", "DAYS": "MON-SUN", "zip": "77006", "APP_": "1020824123", "Type": "Existing", "CHKD": "OK", "AREA": null, "Shape__Length": 311.14175550676316}}, {"type": "Feature", "id": 205, "geometry": {"type": "LineString", "coordinates": [[-95.3806510284423, 29.7483052259772], [-95.3805590788572, 29.7482610026774], [-95.3797960982074, 29.7477946732228]]}, "properties": {"OBJECTID": 205, "Id": null, "BLOCK": "300", "STREET": "DENNIS (SOUTH SIDE)", "TIME": "9PM-2AM", "DAYS": "MON-SUN", "zip": "77006", "APP_": "02281162171", "Type": "Existing", "CHKD": "OK", "AREA": null, "Shape__Length": 328.900561166404}}, {"type": "Feature", "id": 206, "geometry": {"type": "LineString", "coordinates": [[-95.3806510284423, 29.7483052259772], [-95.3810925090976, 29.7477439119926]]}, "properties": {"OBJECTID": 206, "Id": null, "BLOCK": "2700", "STREET": "BALDWIN (EAST SIDE)", "TIME": "9PM-2AM", "DAYS": "MON-SUN", "zip": "77006", "APP_": "02281162171", "Type": "Existing", "CHKD": "OK", "AREA": null, "Shape__Length": 247.56225914579463}}, {"type": "Feature", "id": 208, "geometry": {"type": "LineString", "coordinates": [[-95.3975445749341, 29.742017831161], [-95.3993607303191, 29.7420005635723]]}, "properties": {"OBJECTID": 208, "Id": null, "BLOCK": "1500", "STREET": "HAWTHORNE", "TIME": "11PM-6AM", "DAYS": "WED-SUN", "zip": "77006", "APP_": "042911-24-174", "Type": "Existing", "CHKD": "OK", "AREA": null, "Shape__Length": 576.3648069238146}}, {"type": "Feature", "id": 209, "geometry": {"type": "LineString", "coordinates": [[-95.3816791568996, 29.746472216881], [-95.3830390110316, 29.7464329617686]]}, "properties": {"OBJECTID": 209, "Id": null, "BLOCK": "100", "STREET": "STRATFORD (SOUTH SIDE)", "TIME": "5PM-6AM", "DAYS": "MON-SUN", "zip": "77006", "APP_": "080311-24-182", "Type": "Existing", "CHKD": "OK", "AREA": null, "Shape__Length": 431.74725994593774}}, {"type": "Feature", "id": 210, "geometry": {"type": "LineString", "coordinates": [[-95.4012865898945, 29.7437778227446], [-95.4020928456582, 29.743769648027]]}, "properties": {"OBJECTID": 210, "Id": null, "BLOCK": "1800", "STREET": "MISSOURI", "TIME": "5PM-5AM", "DAYS": "MON-SUN", "zip": "77006", "APP_": "081711-24-184", "Type": "Existing", "CHKD": "OK", "AREA": null, "Shape__Length": 255.86643199021333}}, {"type": "Feature", "id": 211, "geometry": {"type": "LineString", "coordinates": [[-95.4004609088496, 29.7437283393388], [-95.4011998670346, 29.7437332991365], [-95.4012865898945, 29.7437778227446]]}, "properties": {"OBJECTID": 211, "Id": null, "BLOCK": "1800", "STREET": "MISSOURI", "TIME": "5PM-5AM", "DAYS": "MON-SUN", "zip": "77006", "APP_": "081711-24-184", "Type": "Existing", "CHKD": "OK", "AREA": null, "Shape__Length": 266.4296885775617}}, {"type": "Feature", "id": 226, "geometry": {"type": "LineString", "coordinates": [[-95.3953146558273, 29.7456603251459], [-95.3948428101835, 29.7449129000709]]}, "properties": {"OBJECTID": 226, "Id": null, "BLOCK": "2600", "STREET": "COMMONWEALTH", "TIME": "9AM-9PM", "DAYS": "MON-SAT", "zip": "77006", "APP_": "042712-24-204", "Type": "Existing", "CHKD": "OK", "AREA": null, "Shape__Length": 310.30296134912294}}, {"type": "Feature", "id": 232, "geometry": {"type": "LineString", "coordinates": [[-95.3869206435187, 29.7334299786771], [-95.3869557607056, 29.7334077967431], [-95.3870004390777, 29.7334047953266], [-95.3878641045532, 29.7334058418705]]}, "properties": {"OBJECTID": 232, "Id": null, "BLOCK": "600", "STREET": "OAKLEY", "TIME": "11AM-11PM", "DAYS": "TUE-SUN", "zip": "77006", "APP_": "041713-24-218", "Type": "Existing", "CHKD": "OK", "AREA": null, "Shape__Length": 302.073799529768}}, {"type": "Feature", "id": 234, "geometry": {"type": "LineString", "coordinates": [[-95.3957611956472, 29.7412888914345], [-95.3975300653758, 29.7412693920377]]}, "properties": {"OBJECTID": 234, "Id": null, "BLOCK": "1400", "STREET": "HAROLD", "TIME": "11PM-6AM", "DAYS": "WED-SUN", "zip": "77006", "APP_": "061913-24-223", "Type": "Existing", "CHKD": "OK", "AREA": "WAMM CIVIC CLUB", "Shape__Length": 561.373982261615}}, {"type": "Feature", "id": 235, "geometry": {"type": "LineString", "coordinates": [[-95.3957717844031, 29.7423169027794], [-95.3957611956472, 29.7412888914345]]}, "properties": {"OBJECTID": 235, "Id": null, "BLOCK": "3400", "STREET": "YUPON", "TIME": "11PM-6AM", "DAYS": "WED-SUN", "zip": "77006", "APP_": "061913-24-223", "Type": "Existing", "CHKD": "OK", "AREA": "WAMM CIVIC CLUB", "Shape__Length": 373.8344430813026}}, {"type": "Feature", "id": 236, "geometry": {"type": "LineString", "coordinates": [[-95.394792920865, 29.7423248643693], [-95.3957717844031, 29.7423169027794]]}, "properties": {"OBJECTID": 236, "Id": null, "BLOCK": "1300", "STREET": "HAWTHORNE", "TIME": "11PM-6AM", "DAYS": "WED-SUN", "zip": "77006", "APP_": "061913-24-223", "Type": "Existing", "CHKD": "OK", "AREA": "WAMM CIVIC CLUB", "Shape__Length": 310.64070668130745}}, {"type": "Feature", "id": 237, "geometry": {"type": "LineString", "coordinates": [[-95.3957717844031, 29.7423169027794], [-95.397547804675, 29.7423075460175]]}, "properties": {"OBJECTID": 237, "Id": null, "BLOCK": "1400", "STREET": "HAWTHORNE", "TIME": "11PM-6AM", "DAYS": "WED-SUN", "zip": "77006", "APP_": "061913-24-223", "Type": "Existing", "CHKD": "OK", "AREA": "WAMM CIVIC CLUB", "Shape__Length": 563.6029030596561}}, {"type": "Feature", "id": 240, "geometry": {"type": "LineString", "coordinates": [[-95.3865025990663, 29.7482080650673], [-95.3864950096124, 29.7475134685728]]}, "properties": {"OBJECTID": 240, "Id": null, "BLOCK": "2400", "STREET": "MORGAN", "TIME": "11PM-5AM", "DAYS": "WED-SUN", "zip": "77006", "APP_": "082813-24-228", "Type": "Existing", "CHKD": "OK", "AREA": null, "Shape__Length": 252.5904421763876}}, {"type": "Feature", "id": 241, "geometry": {"type": "LineString", "coordinates": [[-95.3896758250836, 29.7494781002851], [-95.3898811715154, 29.7494725388494], [-95.3904652516216, 29.7494555052775]]}, "properties": {"OBJECTID": 241, "Id": null, "BLOCK": "800", "STREET": "WEST DREW (NORTH SIDE)", "TIME": "11PM-5AM", "DAYS": "WED-SUN", "zip": "77006", "APP_": "091213-24-226", "Type": "Existing", "CHKD": "OK", "AREA": null, "Shape__Length": 250.62962048776836}}, {"type": "Feature", "id": 242, "geometry": {"type": "LineString", "coordinates": [[-95.3878728114413, 29.7344791358871], [-95.3878704630182, 29.7343141369458], [-95.3878641045532, 29.7334058418705]]}, "properties": {"OBJECTID": 242, "Id": null, "BLOCK": "4300", "STREET": "GREELEY (WEST SIDE)", "TIME": "11AM-11PM", "DAYS": "TUE-SUN", "zip": "77006", "APP_": "011414-24-230", "Type": "Existing", "CHKD": "OK", "AREA": null, "Shape__Length": 390.2955904361409}}, {"type": "Feature", "id": 250, "geometry": {"type": "LineString", "coordinates": [[-95.3889124220044, 29.752581835907], [-95.389771481604, 29.752571420435], [-95.3897990948254, 29.7525728486884]]}, "properties": {"OBJECTID": 250, "Id": null, "BLOCK": "700", "STREET": "PEDEN", "TIME": "8AM-5PM", "DAYS": "MON-FRI", "zip": "77006", "APP_": "090414-24-240", "Type": "Existing", "CHKD": "OK", "AREA": null, "Shape__Length": 281.38533297370645}}, {"type": "Feature", "id": 251, "geometry": {"type": "LineString", "coordinates": [[-95.3897990948254, 29.7525728486884], [-95.3921349571072, 29.752529459086]]}, "properties": {"OBJECTID": 251, "Id": null, "BLOCK": "800-1000", "STREET": "PEDEN", "TIME": "8AM-5PM", "DAYS": "MON-FRI", "zip": "77006", "APP_": "090414-24-240", "Type": "Existing", "CHKD": "OK", "AREA": null, "Shape__Length": 741.3434130854384}}, {"type": "Feature", "id": 259, "geometry": {"type": "LineString", "coordinates": [[-95.3943507753439, 29.7472841448572], [-95.3945692847952, 29.7471975951738], [-95.3946427718495, 29.7471684913079]]}, "properties": {"OBJECTID": 259, "Id": null, "BLOCK": "1300", "STREET": "HYDE PARK", "TIME": "8AM-8PM", "DAYS": "MON-SUN", "zip": "77006", "APP_": "080814-24-237 ", "Type": "Existing", "CHKD": "OK", "AREA": null, "Shape__Length": 101.7537616324671}}, {"type": "Feature", "id": 260, "geometry": {"type": "LineString", "coordinates": [[-95.3935609258008, 29.7473355865079], [-95.3940079311367, 29.7473108970123], [-95.3943507753439, 29.7472841448572]]}, "properties": {"OBJECTID": 260, "Id": null, "BLOCK": "1300", "STREET": "HYDE PARK", "TIME": "8AM-8PM", "DAYS": "MON-SUN", "zip": "77006", "APP_": "080814-24-237 ", "Type": "Existing", "CHKD": "OK", "AREA": null, "Shape__Length": 251.3522004676735}}, {"type": "Feature", "id": 269, "geometry": {"type": "LineString", "coordinates": [[-95.3823592324752, 29.7493378407689], [-95.3815073133767, 29.7488176591261]]}, "properties": {"OBJECTID": 269, "Id": null, "BLOCK": "100", "STREET": "DENNIS (NORTH SIDE)", "TIME": "9AM-2AM", "DAYS": "THU-SUN", "zip": "77006", "APP_": "101315-62-253 ", "Type": "Existing", "CHKD": "OK", "AREA": null, "Shape__Length": 329.93300373886683}}, {"type": "Feature", "id": 284, "geometry": {"type": "LineString", "coordinates": [[-95.391137333216, 29.751976201128], [-95.3911595873202, 29.7519467905875], [-95.3911687158238, 29.7519088212984], [-95.3911718605451, 29.751793838063]]}, "properties": {"OBJECTID": 284, "Id": null, "BLOCK": "1700", "STREET": "GRANT", "TIME": "8AM-8PM", "DAYS": "MON-SUN", "zip": "77006", "APP_": "040116-24-265", "Type": "Existing", "CHKD": "OK ", "AREA": null, "Shape__Length": 68.74683744857359}}, {"type": "Feature", "id": 285, "geometry": {"type": "LineString", "coordinates": [[-95.3911718605451, 29.751793838063], [-95.3921293667503, 29.7517766580166]]}, "properties": {"OBJECTID": 285, "Id": null, "BLOCK": "1000", "STREET": "BOMAR", "TIME": "8AM-8PM", "DAYS": "MON-SUN", "zip": "77006", "APP_": "040116-24-265", "Type": "Existing", "CHKD": "OK", "AREA": null, "Shape__Length": 303.88584115488374}}, {"type": "Feature", "id": 290, "geometry": {"type": "LineString", "coordinates": [[-95.3991664028186, 29.7443773539722], [-95.3999947685275, 29.7439831355604]]}, "properties": {"OBJECTID": 290, "Id": null, "BLOCK": "1800", "STREET": "CHERRYHURST", "TIME": "10AM-10PM", "DAYS": "MON-SUN", "zip": "77006", "APP_": "110116-24-279", "Type": "Existing", "CHKD": "OK", "AREA": null, "Shape__Length": 299.4113594612318}}, {"type": "Feature", "id": 293, "geometry": {"type": "LineString", "coordinates": [[-95.3896902737286, 29.7501617424883], [-95.389683834515, 29.7501095005895], [-95.3896758129056, 29.7494780936382]]}, "properties": {"OBJECTID": 293, "Id": null, "BLOCK": "2100", "STREET": "CROCKER", "TIME": "11PM-5AM", "DAYS": "WED-SUN", "zip": "77006", "APP_": "032317-24-285", "Type": "Existing", "CHKD": "OK", "AREA": "EAST MONTROSE", "Shape__Length": 248.72183238366122}}, {"type": "Feature", "id": 294, "geometry": {"type": "LineString", "coordinates": [[-95.3904830063546, 29.7501533891955], [-95.3904736787786, 29.750079447115], [-95.3904595524123, 29.7495201341487], [-95.3904652394435, 29.7494554986307]]}, "properties": {"OBJECTID": 294, "Id": null, "BLOCK": "2100", "STREET": "CONVERSE", "TIME": "11PM-5AM", "DAYS": "WED-SUN", "zip": "77006", "APP_": "032317-24-285", "Type": "Existing", "CHKD": "OK", "AREA": "EAST MONTROSE", "Shape__Length": 254.05790565376537}}, {"type": "Feature", "id": 295, "geometry": {"type": "LineString", "coordinates": [[-95.3896902737286, 29.7501617424883], [-95.3897630078157, 29.7501516509063], [-95.3898572867109, 29.750147042181], [-95.3904830063546, 29.7501533891955]]}, "properties": {"OBJECTID": 295, "Id": null, "BLOCK": "800", "STREET": "WELCH", "TIME": "11PM-5AM", "DAYS": "WED-SUN", "zip": "77006", "APP_": "032317-24-285", "Type": "Existing", "CHKD": "OK", "AREA": "EAST MONTROSE", "Shape__Length": 251.89238666607656}}, {"type": "Feature", "id": 298, "geometry": {"type": "LineString", "coordinates": [[-95.3981721988285, 29.7448488587759], [-95.3991663906405, 29.7443773473263]]}, "properties": {"OBJECTID": 298, "Id": null, "BLOCK": "1700", "STREET": "CHERRYHURST (NORTH SIDE)", "TIME": "10AM-10PM", "DAYS": "MON-SUN", "zip": "77006", "APP_": "050917-24-288", "Type": "Existing", "CHKD": "OK", "AREA": null, "Shape__Length": 359.06548765376965}}, {"type": "Feature", "id": 304, "geometry": {"type": "LineString", "coordinates": [[-95.3889060513906, 29.7501792081006], [-95.3896902737286, 29.7501617424883]]}, "properties": {"OBJECTID": 304, "Id": null, "BLOCK": "700", "STREET": "WELCH", "TIME": "11PM-5AM", "DAYS": "WED-SUN", "zip": "77006", "APP_": "042618-24-306", "Type": "Existing", "CHKD": "OK", "AREA": null, "Shape__Length": 248.92273379911606}}, {"type": "Feature", "id": 305, "geometry": {"type": "LineString", "coordinates": [[-95.3896979123627, 29.7508404268624], [-95.3896956272892, 29.7502134731091], [-95.3896902737286, 29.7501617424883]]}, "properties": {"OBJECTID": 305, "Id": null, "BLOCK": "2000", "STREET": "CROCKER", "TIME": "11PM-5AM", "DAYS": "WED-SUN", "zip": "77006", "APP_": "042618-24-306", "Type": "Existing", "CHKD": "OK", "AREA": null, "Shape__Length": 246.870652517054}}, {"type": "Feature", "id": 332, "geometry": {"type": "LineString", "coordinates": [[-95.3904652394435, 29.7494554986307], [-95.3904540479687, 29.7487998167392]]}, "properties": {"OBJECTID": 332, "Id": null, "BLOCK": "2200", "STREET": "CONVERSE", "TIME": "11PM-5AM", "DAYS": "WED-SUN", "zip": "77006", "APP_": "101819-24-329 ", "Type": "Existing", "CHKD": "OK", "AREA": null, "Shape__Length": 238.4548136737629}}, {"type": "Feature", "id": 336, "geometry": {"type": "LineString", "coordinates": [[-95.3804052929829, 29.7520555667288], [-95.3812887649338, 29.7520524546813]]}, "properties": {"OBJECTID": 336, "Id": null, "BLOCK": "1300", "STREET": "WEST WEBSTER", "TIME": "4PM-4AM", "DAYS": "MON-SUN", "zip": "77019", "APP_": "011121-24-345", "Type": "Existing", "CHKD": "OK", "AREA": "SOUTH MIDTOWN", "Shape__Length": 280.33171717554035}}, {"type": "Feature", "id": 337, "geometry": {"type": "LineString", "coordinates": [[-95.3804124398164, 29.752683631688], [-95.3812884444947, 29.7526882097752]]}, "properties": {"OBJECTID": 337, "Id": null, "BLOCK": "1300", "STREET": "ONEIL (SOUTH SIDE)", "TIME": "4PM-4AM", "DAYS": "MON-SUN", "zip": "77019", "APP_": "011121-24-345", "Type": "Existing", "CHKD": "OK", "AREA": "SOUTH MIDTOWN", "Shape__Length": 277.9632995271728}}, {"type": "Feature", "id": 338, "geometry": {"type": "LineString", "coordinates": [[-95.3804124398164, 29.752683631688], [-95.3804052929829, 29.7520555667288]]}, "properties": {"OBJECTID": 338, "Id": null, "BLOCK": "1800", "STREET": "MATTHEWS", "TIME": "4PM-4AM", "DAYS": "MON-SUN", "zip": "77019", "APP_": "011121-24-345", "Type": "Existing", "CHKD": "OK", "AREA": "SOUTH MIDTOWN", "Shape__Length": 228.39737110302735}}, {"type": "Feature", "id": 339, "geometry": {"type": "LineString", "coordinates": [[-95.3812884444947, 29.7526882097752], [-95.3812887649338, 29.7520524546813]]}, "properties": {"OBJECTID": 339, "Id": null, "BLOCK": "1800", "STREET": "WILSON", "TIME": "4PM-4AM", "DAYS": "MON-SUN", "zip": "77019", "APP_": "011121-24-345", "Type": "Existing", "CHKD": "OK", "AREA": "SOUTH MIDTOWN", "Shape__Length": 231.18253398778705}}, {"type": "Feature", "id": 342, "geometry": {"type": "LineString", "coordinates": [[-95.3804226726847, 29.7539100125444], [-95.3804240568863, 29.7532902327531]]}, "properties": {"OBJECTID": 342, "Id": null, "BLOCK": "1600", "STREET": "MATTHEWS", "TIME": "4PM-4AM", "DAYS": "MON-SUN", "zip": "77019", "APP_": "081321-22-352", "Type": "Existing", "CHKD": "OK", "AREA": null, "Shape__Length": 225.37384488323534}}, {"type": "Feature", "id": 361, "geometry": {"type": "LineString", "coordinates": [[-95.3904781363809, 29.7508175167353], [-95.3904830063546, 29.7501533891955]]}, "properties": {"OBJECTID": 361, "Id": null, "BLOCK": "2000", "STREET": "CONVERSE", "TIME": "11PM-5AM", "DAYS": "WED-SUN", "zip": "77006", "APP_": "022822-24-362", "Type": "Existing", "CHKD": "OK", "AREA": null, "Shape__Length": 241.5045303698167}}, {"type": "Feature", "id": 363, "geometry": {"type": "LineString", "coordinates": [[-95.3873137760081, 29.7495301665433], [-95.3872992816325, 29.748864626153]]}, "properties": {"OBJECTID": 363, "Id": null, "BLOCK": "2200", "STREET": "WHITNEY", "TIME": "11PM-5 AM", "DAYS": "WED-SUN", "zip": "77006", "APP_": "113021-24-358", "Type": "Existing", "CHKD": "OK", "AREA": null, "Shape__Length": 242.05695958454126}}, {"type": "Feature", "id": 364, "geometry": {"type": "LineString", "coordinates": [[-95.3816724710614, 29.7455668126975], [-95.3830297901245, 29.7455280275185]]}, "properties": {"OBJECTID": 364, "Id": null, "BLOCK": "100", "STREET": "AVONDALE (SOUTH SIDE)", "TIME": "5PM-11PM", "DAYS": "MON-SUN", "zip": "77006", "APP_": "102121-24-360", "Type": "Existing", "CHKD": "OK", "AREA": null, "Shape__Length": 430.9414596357011}}, {"type": "Feature", "id": 366, "geometry": {"type": "LineString", "coordinates": [[-95.3812962623549, 29.753271848009], [-95.3812900430504, 29.7531829877309], [-95.3812931952342, 29.7527387375201], [-95.3812884566725, 29.7526882164228]]}, "properties": {"OBJECTID": 366, "Id": null, "BLOCK": "1700", "STREET": "WILSON (WEST SIDE)", "TIME": "4PM-4AM", "DAYS": "MON-SUN", "zip": "77019", "APP_": "041522-24-363", "Type": "Existing", "CHKD": "OK", "AREA": null, "Shape__Length": 212.3533642444291}}, {"type": "Feature", "id": 367, "geometry": {"type": "LineString", "coordinates": [[-95.3872570470772, 29.7454284870587], [-95.3880601582806, 29.7454090508331]]}, "properties": {"OBJECTID": 367, "Id": null, "BLOCK": "500", "STREET": "AVONDALE", "TIME": "5PM-6AM", "DAYS": "MON-SUN", "zip": "77006", "APP_": "080822-24-366", "Type": "Existing", "CHKD": "OK", "AREA": null, "Shape__Length": 254.94517752310145}}, {"type": "Feature", "id": 370, "geometry": {"type": "LineString", "coordinates": [[-95.404457713605, 29.733489706654], [-95.4062944681644, 29.7334696298924], [-95.4064771914948, 29.7334496370527], [-95.4066126248843, 29.7334609787886], [-95.4070398829613, 29.7334537556802]]}, "properties": {"OBJECTID": 370, "Id": null, "BLOCK": "1800", "STREET": "PORTSMOUTH", "TIME": "6AM-6PM", "DAYS": "MON-SUN", "zip": "77098", "APP_": "04202023-24-373", "Type": "Existing", "CHKD": "OK", "AREA": null, "Shape__Length": 820.205078821794}}, {"type": "Feature", "id": 372, "geometry": {"type": "LineString", "coordinates": [[-95.3921000083464, 29.7511050432114], [-95.3936724687173, 29.7510783658276]]}, "properties": {"OBJECTID": 372, "Id": null, "BLOCK": "1100", "STREET": "WILLARD", "TIME": "8AM-8PM", "DAYS": "MON-SAT", "zip": "77006", "APP_": "06272023-24-375", "Type": "Existing", "CHKD": "OK", "AREA": null, "Shape__Length": 499.04740826885757}}, {"type": "Feature", "id": 377, "geometry": {"type": "LineString", "coordinates": [[-95.4106716341275, 29.7359679821127], [-95.4110085928255, 29.7359607502777], [-95.4128427026506, 29.7359452552532], [-95.4128981866865, 29.7360250035747]]}, "properties": {"OBJECTID": 377, "Id": null, "BLOCK": "2100", "STREET": "WEST MAIN", "TIME": "11AM-11PM", "DAYS": "TUE-SUN", "zip": "77098", "APP_": "10212024-87-385", "Type": "Existing", "CHKD": "OK", "AREA": null, "Shape__Length": 722.9839133436484}}, {"type": "Feature", "id": 379, "geometry": {"type": "LineString", "coordinates": [[-95.3896569615102, 29.7467096487698], [-95.3896775359982, 29.7466204620291], [-95.3896764463581, 29.7461936398948], [-95.3896599989681, 29.7453746253773]]}, "properties": {"OBJECTID": 379, "Id": null, "BLOCK": "2600", "STREET": "Crocker", "TIME": "11AM-11PM", "DAYS": "MON-SUN", "zip": "77006", "APP_": "10212024-87-385-SN", "Type": "Existing", "CHKD": "OK", "AREA": null, "Shape__Length": 486.15649855448555}}, {"type": "Feature", "id": 384, "geometry": {"type": "LineString", "coordinates": [[-95.4128974431151, 29.7350897549784], [-95.4109095001937, 29.7351067940779]]}, "properties": {"OBJECTID": 384, "Id": null, "BLOCK": "2100", "STREET": "Colquitt", "TIME": "8AM-8PM", "DAYS": "MON-SUN", "zip": "77098", "APP_": "02252026-87-391", "Type": "Existing", "CHKD": "OK", "AREA": null, "Shape__Length": 630.9180307749932}}]}