{"type": "FeatureCollection", "features": [{"type": "Feature", "id": 118, "geometry": {"type": "LineString", "coordinates": [[-95.375596963752, 29.7669872917413], [-95.3767859824384, 29.7669863089498], [-95.3771824703539, 29.7669758981674]]}, "properties": {"OBJECTID": 118, "Id": null, "BLOCK": "1800", "STREET": "DECATUR ", "TIME": "11PM-5AM", "DAYS": "WED-SAT", "zip": "77007", "APP_": "04290922143", "Type": "Existing", "CHKD": "OK", "AREA": "OLD SIXTH WARD HISTORICAL DISTRICT", "Shape__Length": 503.0715491960939}}, {"type": "Feature", "id": 119, "geometry": {"type": "LineString", "coordinates": [[-95.3794058434829, 29.7662283132784], [-95.3805179969042, 29.7662120004115]]}, "properties": {"OBJECTID": 119, "Id": null, "BLOCK": "2100", "STREET": "KANE", "TIME": "11PM-5AM", "DAYS": "WED-SAT", "zip": "77007", "APP_": "04290922143", "Type": "Existing", "CHKD": "OK", "AREA": "OLD SIXTH WARD HISTORICAL DISTRICT", "Shape__Length": 352.8919162124959}}, {"type": "Feature", "id": 120, "geometry": {"type": "LineString", "coordinates": [[-95.3782721597478, 29.7662269214395], [-95.3794058434829, 29.7662283132784]]}, "properties": {"OBJECTID": 120, "Id": null, "BLOCK": "2000", "STREET": "KANE", "TIME": "11PM-5AM", "DAYS": "WED-SAT", "zip": "77007", "APP_": "04290922143", "Type": "Existing", "CHKD": "OK", "AREA": "OLD SIXTH WARD HISTORICAL DISTRICT", "Shape__Length": 359.6730983039512}}, {"type": "Feature", "id": 121, "geometry": {"type": "LineString", "coordinates": [[-95.3782890376593, 29.7676814798037], [-95.3793416043751, 29.7676857270956], [-95.3794179012801, 29.7676709331059]]}, "properties": {"OBJECTID": 121, "Id": null, "BLOCK": "2000", "STREET": "UNION (SOUTH SIDE)", "TIME": "11PM-5AM", "DAYS": "WED-SAT", "zip": "77007", "APP_": "04290922143", "Type": "Existing", "CHKD": "OK", "AREA": "OLD SIXTH WARD HISTORICAL DISTRICT", "Shape__Length": 358.73257233741964}}, {"type": "Feature", "id": 122, "geometry": {"type": "LineString", "coordinates": [[-95.3805179969042, 29.7662120004115], [-95.3805245434391, 29.7669484644765]]}, "properties": {"OBJECTID": 122, "Id": null, "BLOCK": "800", "STREET": "HEMPHILL (WEST SIDE)", "TIME": "11PM-5AM", "DAYS": "WED-SAT", "zip": "77007", "APP_": "04290922143", "Type": "Existing", "CHKD": "OK", "AREA": "OLD SIXTH WARD HISTORICAL DISTRICT", "Shape__Length": 267.8128923293953}}, {"type": "Feature", "id": 123, "geometry": {"type": "LineString", "coordinates": [[-95.3794058434829, 29.7662283132784], [-95.3794129843462, 29.7669577176975]]}, "properties": {"OBJECTID": 123, "Id": null, "BLOCK": "800", "STREET": "HENDERSON", "TIME": "11PM-5AM", "DAYS": "WED-SAT", "zip": "77007", "APP_": "04290922143", "Type": "Existing", "CHKD": "OK", "AREA": "OLD SIXTH WARD HISTORICAL DISTRICT", "Shape__Length": 265.24737336231425}}, {"type": "Feature", "id": 124, "geometry": {"type": "LineString", "coordinates": [[-95.3794129843462, 29.7669577176975], [-95.3805245434391, 29.7669484644765]]}, "properties": {"OBJECTID": 124, "Id": null, "BLOCK": "2100", "STREET": "DECATUR", "TIME": "11PM-5AM", "DAYS": "WED-SAT", "zip": "77007", "APP_": "04290922143", "Type": "Existing", "CHKD": "OK", "AREA": "OLD SIXTH WARD HISTORICAL DISTRICT", "Shape__Length": 352.6670183765743}}, {"type": "Feature", "id": 125, "geometry": {"type": "LineString", "coordinates": [[-95.3816449966131, 29.7676512732546], [-95.3827426621417, 29.7676407389791]]}, "properties": {"OBJECTID": 125, "Id": null, "BLOCK": "2300", "STREET": "UNION (SOUTH SIDE)", "TIME": "11PM-5AM", "DAYS": "WED-SAT", "zip": "77007", "APP_": "04290922143", "Type": "Existing", "CHKD": "OK", "AREA": "OLD SIXTH WARD HISTORICAL DISTRICT", "Shape__Length": 348.261825371319}}, {"type": "Feature", "id": 126, "geometry": {"type": "LineString", "coordinates": [[-95.3771384378239, 29.7662331212092], [-95.3782721597478, 29.7662269214395]]}, "properties": {"OBJECTID": 126, "Id": null, "BLOCK": "1900", "STREET": "KANE (NORTH SIDE)", "TIME": "11PM-5AM", "DAYS": "WED-SAT", "zip": "77007", "APP_": "04290922143", "Type": "Existing", "CHKD": "OK", "AREA": "OLD SIXTH WARD HISTORICAL DISTRICT", "Shape__Length": 359.69191483207334}}, {"type": "Feature", "id": 127, "geometry": {"type": "LineString", "coordinates": [[-95.3794129843462, 29.7669577176975], [-95.3794179012801, 29.7676709331059]]}, "properties": {"OBJECTID": 127, "Id": null, "BLOCK": "900", "STREET": "HENDERSON", "TIME": "11PM-5AM", "DAYS": "WED-SAT", "zip": "77007", "APP_": "04290922143", "Type": "Existing", "CHKD": "OK", "AREA": "OLD SIXTH WARD HISTORICAL DISTRICT", "Shape__Length": 259.35553543803445}}, {"type": "Feature", "id": 128, "geometry": {"type": "LineString", "coordinates": [[-95.3805264086886, 29.7676635478633], [-95.3816449966131, 29.7676512732546]]}, "properties": {"OBJECTID": 128, "Id": null, "BLOCK": "2200", "STREET": "UNION (SOUTH SIDE)", "TIME": "11PM-5AM", "DAYS": "WED-SAT", "zip": "77007", "APP_": "04290922143", "Type": "Existing", "CHKD": "OK", "AREA": "OLD SIXTH WARD HISTORICAL DISTRICT", "Shape__Length": 354.90653800464094}}, {"type": "Feature", "id": 129, "geometry": {"type": "LineString", "coordinates": [[-95.3782721597478, 29.7662269214395], [-95.3782769494307, 29.7669640092453]]}, "properties": {"OBJECTID": 129, "Id": null, "BLOCK": "800", "STREET": "WHITE", "TIME": "11PM-5AM", "DAYS": "WED-SAT", "zip": "77007", "APP_": "04290922143", "Type": "Existing", "CHKD": "OK", "AREA": "OLD SIXTH WARD HISTORICAL DISTRICT", "Shape__Length": 268.03596183916187}}, {"type": "Feature", "id": 130, "geometry": {"type": "LineString", "coordinates": [[-95.3794179012801, 29.7676709331059], [-95.3805264086886, 29.7676635478633]]}, "properties": {"OBJECTID": 130, "Id": null, "BLOCK": "2100", "STREET": "UNION (SOUTH SIDE)", "TIME": "11PM-5AM", "DAYS": "WED-SAT", "zip": "77007", "APP_": "04290922143", "Type": "Existing", "CHKD": "OK", "AREA": "OLD SIXTH WARD HISTORICAL DISTRICT", "Shape__Length": 351.6905872370689}}, {"type": "Feature", "id": 131, "geometry": {"type": "LineString", "coordinates": [[-95.3755959224988, 29.7662485056968], [-95.3771384378239, 29.7662331212092]]}, "properties": {"OBJECTID": 131, "Id": null, "BLOCK": "1800", "STREET": "KANE", "TIME": "11PM-5AM", "DAYS": "WED-SAT", "zip": "77007", "APP_": "04290922143", "Type": "Existing", "CHKD": "OK", "AREA": "OLD SIXTH WARD HISTORICAL DISTRICT", "Shape__Length": 489.41065087310136}}, {"type": "Feature", "id": 132, "geometry": {"type": "LineString", "coordinates": [[-95.3805245434391, 29.7669484644765], [-95.3816233518109, 29.7669331619534]]}, "properties": {"OBJECTID": 132, "Id": null, "BLOCK": "2200", "STREET": "DECATUR", "TIME": "11PM-5AM", "DAYS": "WED-SAT", "zip": "77007", "APP_": "04290922143", "Type": "Existing", "CHKD": "OK", "AREA": "OLD SIXTH WARD HISTORICAL DISTRICT", "Shape__Length": 348.65014908870995}}, {"type": "Feature", "id": 133, "geometry": {"type": "LineString", "coordinates": [[-95.3782769494307, 29.7669640092453], [-95.3794129843462, 29.7669577176975]]}, "properties": {"OBJECTID": 133, "Id": null, "BLOCK": "2000", "STREET": "DECATUR ", "TIME": "11PM-5AM", "DAYS": "WED-SAT", "zip": "77007", "APP_": "04290922143", "Type": "Existing", "CHKD": "OK", "AREA": "OLD SIXTH WARD HISTORICAL DISTRICT", "Shape__Length": 360.42334944315286}}, {"type": "Feature", "id": 134, "geometry": {"type": "LineString", "coordinates": [[-95.3771384378239, 29.7662331212092], [-95.3771824703539, 29.7669758981674]]}, "properties": {"OBJECTID": 134, "Id": null, "BLOCK": "800", "STREET": "SILVER ", "TIME": "11PM-5AM", "DAYS": "WED-SAT", "zip": "77007", "APP_": "04290922143", "Type": "Existing", "CHKD": "OK", "AREA": "OLD SIXTH WARD HISTORICAL DISTRICT", "Shape__Length": 270.4614544389555}}, {"type": "Feature", "id": 135, "geometry": {"type": "LineString", "coordinates": [[-95.3805179969042, 29.7662120004115], [-95.381243963273, 29.7662124814418], [-95.3815488522574, 29.7662007585448]]}, "properties": {"OBJECTID": 135, "Id": null, "BLOCK": "2200", "STREET": "KANE", "TIME": "11PM-5AM", "DAYS": "WED-SAT", "zip": "77007", "APP_": "04290922143", "Type": "Existing", "CHKD": "OK", "AREA": "OLD SIXTH WARD HISTORICAL DISTRICT", "Shape__Length": 327.14339601388605}}, {"type": "Feature", "id": 136, "geometry": {"type": "LineString", "coordinates": [[-95.3771824703539, 29.7669758981674], [-95.3771998743804, 29.7677917323891]]}, "properties": {"OBJECTID": 136, "Id": null, "BLOCK": "900", "STREET": "SILVER", "TIME": "11PM-5AM", "DAYS": "WED-SAT", "zip": "77007", "APP_": "04290922143", "Type": "Existing", "CHKD": "OK", "AREA": "OLD SIXTH WARD HISTORICAL DISTRICT", "Shape__Length": 296.71813025330096}}, {"type": "Feature", "id": 137, "geometry": {"type": "LineString", "coordinates": [[-95.3771824703539, 29.7669758981674], [-95.3782769494307, 29.7669640092453]]}, "properties": {"OBJECTID": 137, "Id": null, "BLOCK": "1900", "STREET": "DECATUR", "TIME": "11PM-5AM", "DAYS": "WED-SAT", "zip": "77007", "APP_": "04290922143", "Type": "Existing", "CHKD": "OK", "AREA": "OLD SIXTH WARD HISTORICAL DISTRICT", "Shape__Length": 347.25905016589076}}, {"type": "Feature", "id": 138, "geometry": {"type": "LineString", "coordinates": [[-95.3794179012801, 29.7676709331059], [-95.3794254808618, 29.7680299253929]]}, "properties": {"OBJECTID": 138, "Id": null, "BLOCK": "900", "STREET": "HENDERSON", "TIME": "11PM-5AM", "DAYS": "WED-SAT", "zip": "77007", "APP_": "04290922143", "Type": "Existing", "CHKD": "OK", "AREA": "OLD SIXTH WARD HISTORICAL DISTRICT", "Shape__Length": 130.56470783889944}}, {"type": "Feature", "id": 316, "geometry": {"type": "LineString", "coordinates": [[-95.3669840175527, 29.7862390784127], [-95.3666994317842, 29.7865444934835], [-95.3663951118508, 29.7868267730631], [-95.3663612619133, 29.7868835778135]]}, "properties": {"OBJECTID": 316, "Id": null, "BLOCK": "100", "STREET": "GLEN PARK", "TIME": "7PM-3AM", "DAYS": "MON-SUN", "zip": "77009", "APP_": "051117-51-283", "Type": "Existing", "CHKD": "OK", "AREA": "GLEN PARK", "Shape__Length": 307.30516513027266}}]}