{"type": "FeatureCollection", "features": [{"type": "Feature", "id": 26, "geometry": {"type": "LineString", "coordinates": [[-95.3787574571591, 29.7491048700604], [-95.3792341926093, 29.7485086464347]]}, "properties": {"OBJECTID": 26, "Id": 0, "BLOCK": "2500", "STREET": "BAGBY", "TIME": "6PM-4AM", "DAYS": "MON-SUN", "zip": "77006", "APP_": "03280762110", "Type": "Existing", "CHKD": "OK", "AREA": null, "Shape__Length": 264.3662810907803}}, {"type": "Feature", "id": 27, "geometry": {"type": "LineString", "coordinates": [[-95.3796150441068, 29.7496255538885], [-95.3800848389266, 29.7490192718898]]}, "properties": {"OBJECTID": 27, "Id": 0, "BLOCK": "2500", "STREET": "BALDWIN", "TIME": "9PM-2AM", "DAYS": "MON-SUN", "zip": "77006", "APP_": " ", "Type": "Existing", "CHKD": "OK", "AREA": null, "Shape__Length": 266.133797884133}}, {"type": "Feature", "id": 29, "geometry": {"type": "LineString", "coordinates": [[-95.3800848389266, 29.7490192718898], [-95.3792341926093, 29.7485086464347]]}, "properties": {"OBJECTID": 29, "Id": 0, "BLOCK": "300", "STREET": "MC GOWEN", "TIME": "9PM-2AM", "DAYS": "MON-SUN", "zip": "77006", "APP_": " ", "Type": "Existing", "CHKD": "OK", "AREA": null, "Shape__Length": 327.6209664465902}}, {"type": "Feature", "id": 30, "geometry": {"type": "LineString", "coordinates": [[-95.3809313212244, 29.7495319509817], [-95.3800848389266, 29.7490192718898]]}, "properties": {"OBJECTID": 30, "Id": 0, "BLOCK": "400", "STREET": "MC GOWEN", "TIME": "9PM-2AM", "DAYS": "MON-SUN", "zip": "77006", "APP_": " ", "Type": "Existing", "CHKD": "OK", "AREA": null, "Shape__Length": 326.9573539203853}}, {"type": "Feature", "id": 36, "geometry": {"type": "LineString", "coordinates": [[-95.3879807570286, 29.7589650810402], [-95.3891521174721, 29.7589381610959]]}, "properties": {"OBJECTID": 36, "Id": 0, "BLOCK": "1900", "STREET": "WEST MC KINNEY", "TIME": "5PM-2AM", "DAYS": "MON-SUN", "zip": "77019", "APP_": " ", "Type": "Existing", "CHKD": "OK", "AREA": null, "Shape__Length": 371.7814581995123}}, {"type": "Feature", "id": 37, "geometry": {"type": "LineString", "coordinates": [[-95.3857602096568, 29.7590077692991], [-95.3879807570286, 29.7589650810402]]}, "properties": {"OBJECTID": 37, "Id": 0, "BLOCK": "1900", "STREET": "WEST MC KINNEY", "TIME": "5PM-2AM", "DAYS": "MON-SUN", "zip": "77019", "APP_": " ", "Type": "Existing", "CHKD": "OK", "AREA": null, "Shape__Length": 704.7123114110336}}, {"type": "Feature", "id": 91, "geometry": {"type": "LineString", "coordinates": [[-95.3858160806843, 29.7583145082507], [-95.389100743162, 29.758256758696]]}, "properties": {"OBJECTID": 91, "Id": 0, "BLOCK": "1900", "STREET": "WEST LAMAR", "TIME": "6PM-8AM", "DAYS": "MON-SUN", "zip": "77019", "APP_": "12180724124", "Type": "Existing", "CHKD": "OK", "AREA": null, "Shape__Length": 1042.3853765152724}}, {"type": "Feature", "id": 94, "geometry": {"type": "LineString", "coordinates": [[-95.3760453561253, 29.7570810097061], [-95.376039758212, 29.7570333130881], [-95.3760340847801, 29.7564628056661]]}, "properties": {"OBJECTID": 94, "Id": 0, "BLOCK": "1100", "STREET": "CROSBY", "TIME": "4PM-4AM", "DAYS": "MON-SUN", "zip": "77019", "APP_": "052521-24-347", "Type": "Existing", "CHKD": "OK", "AREA": "CROSBY ST SQUARE TOWNHOMES", "Shape__Length": 224.89913549338826}}, {"type": "Feature", "id": 95, "geometry": {"type": "LineString", "coordinates": [[-95.3769404389159, 29.7570830458692], [-95.3778139795062, 29.7570744840479]]}, "properties": {"OBJECTID": 95, "Id": 0, "BLOCK": "900", "STREET": "SAULNIER", "TIME": "4PM-4AM", "DAYS": "MON-SUN", "zip": "77019", "APP_": "052521-24-347", "Type": "Existing", "CHKD": "OK", "AREA": "CROSBY ST SQUARE TOWNHOMES", "Shape__Length": 277.1820077638325}}, {"type": "Feature", "id": 96, "geometry": {"type": "LineString", "coordinates": [[-95.3760453561253, 29.7570810097061], [-95.3768838979261, 29.757078892965], [-95.3769404389159, 29.7570830458692]]}, "properties": {"OBJECTID": 96, "Id": 0, "BLOCK": "800", "STREET": "SAULNIER", "TIME": "4PM-4AM", "DAYS": "MON-SUN", "zip": "77019", "APP_": "052521-24-347", "Type": "Existing", "CHKD": "OK", "AREA": "CROSBY ST SQUARE TOWNHOMES", "Shape__Length": 284.06417619470943}}, {"type": "Feature", "id": 97, "geometry": {"type": "LineString", "coordinates": [[-95.3769177758557, 29.7551837674902], [-95.3778006425347, 29.7551773386232]]}, "properties": {"OBJECTID": 97, "Id": 0, "BLOCK": "900", "STREET": "RUTHVEN", "TIME": "4PM-4AM", "DAYS": "MON-SUN", "zip": "77019", "APP_": "052521-24-347", "Type": "Existing", "CHKD": "OK", "AREA": "CROSBY ST SQUARE TOWNHOMES", "Shape__Length": 280.13854953383947}}, {"type": "Feature", "id": 98, "geometry": {"type": "LineString", "coordinates": [[-95.3750821454248, 29.7551980855647], [-95.3758574795611, 29.7551977463119]]}, "properties": {"OBJECTID": 98, "Id": 0, "BLOCK": "700", "STREET": "RUTHVEN", "TIME": "4PM-4AM", "DAYS": "MON-SUN", "zip": "77019", "APP_": "052521-24-347", "Type": "Existing", "CHKD": "OK", "AREA": "CROSBY ST SQUARE TOWNHOMES", "Shape__Length": 246.00929322006456}}, {"type": "Feature", "id": 99, "geometry": {"type": "LineString", "coordinates": [[-95.3769172313724, 29.7558235777911], [-95.3769177758557, 29.7551837674902]]}, "properties": {"OBJECTID": 99, "Id": 0, "BLOCK": "1300", "STREET": "ARTHUR", "TIME": "4PM-4AM", "DAYS": "MON-SUN", "zip": "77019", "APP_": "052521-24-347", "Type": "Existing", "CHKD": "OK", "AREA": "CROSBY ST SQUARE TOWNHOMES", "Shape__Length": 232.65739219341265}}, {"type": "Feature", "id": 100, "geometry": {"type": "LineString", "coordinates": [[-95.3778139795062, 29.7570744840479], [-95.377805286706, 29.7564429979226]]}, "properties": {"OBJECTID": 100, "Id": 0, "BLOCK": "1100", "STREET": "BUCKNER", "TIME": "4PM-4AM", "DAYS": "MON-SUN", "zip": "77019", "APP_": "052521-24-347", "Type": "Existing", "CHKD": "OK", "AREA": "CROSBY ST SQUARE TOWNHOMES", "Shape__Length": 229.6470117635954}}, {"type": "Feature", "id": 101, "geometry": {"type": "LineString", "coordinates": [[-95.3769388377478, 29.7564507782249], [-95.3769305636445, 29.7564077870926], [-95.3769172313724, 29.7558235777911]]}, "properties": {"OBJECTID": 101, "Id": 0, "BLOCK": "1200", "STREET": "ARTHUR", "TIME": "4PM-4AM", "DAYS": "MON-SUN", "zip": "77019", "APP_": "052521-24-347", "Type": "Existing", "CHKD": "OK", "AREA": "CROSBY ST SQUARE TOWNHOMES", "Shape__Length": 228.33299748840108}}, {"type": "Feature", "id": 102, "geometry": {"type": "LineString", "coordinates": [[-95.3750841156318, 29.7558348698584], [-95.3756867461682, 29.7558386591634]]}, "properties": {"OBJECTID": 102, "Id": 0, "BLOCK": "700", "STREET": "ANDREWS", "TIME": "4PM-4AM", "DAYS": "MON-SUN", "zip": "77019", "APP_": "052521-24-347", "Type": "Existing", "CHKD": "OK", "AREA": "CROSBY ST SQUARE TOWNHOMES", "Shape__Length": 191.2151265377612}}, {"type": "Feature", "id": 103, "geometry": {"type": "LineString", "coordinates": [[-95.3758574795611, 29.7551977463119], [-95.3760233221751, 29.7551901172617]]}, "properties": {"OBJECTID": 103, "Id": 0, "BLOCK": "700", "STREET": "RUTHVEN", "TIME": "4PM-4AM", "DAYS": "MON-SUN", "zip": "77019", "APP_": "052521-24-347", "Type": "Existing", "CHKD": "OK", "AREA": "CROSBY ST SQUARE TOWNHOMES", "Shape__Length": 52.69402963974308}}, {"type": "Feature", "id": 104, "geometry": {"type": "LineString", "coordinates": [[-95.3769172313724, 29.7558235777911], [-95.3778054997004, 29.7558191263133]]}, "properties": {"OBJECTID": 104, "Id": 0, "BLOCK": "900", "STREET": "ANDREWS", "TIME": "4PM-4AM", "DAYS": "MON-SUN", "zip": "77019", "APP_": "052521-24-347", "Type": "Existing", "CHKD": "OK", "AREA": "CROSBY ST SQUARE TOWNHOMES", "Shape__Length": 281.8455874620885}}, {"type": "Feature", "id": 105, "geometry": {"type": "LineString", "coordinates": [[-95.3760341596149, 29.7558296740948], [-95.3760233221751, 29.7551901172617]]}, "properties": {"OBJECTID": 105, "Id": 0, "BLOCK": "1300", "STREET": "CROSBY", "TIME": "4PM-4AM", "DAYS": "MON-SUN", "zip": "77019", "APP_": "052521-24-347", "Type": "Existing", "CHKD": "OK", "AREA": "CROSBY ST SQUARE TOWNHOMES", "Shape__Length": 232.59057881108166}}, {"type": "Feature", "id": 106, "geometry": {"type": "LineString", "coordinates": [[-95.3760341596149, 29.7558296740948], [-95.3769172313724, 29.7558235777911]]}, "properties": {"OBJECTID": 106, "Id": 0, "BLOCK": "800", "STREET": "ANDREWS", "TIME": "4PM-4AM", "DAYS": "MON-SUN", "zip": "77019", "APP_": "052521-24-347", "Type": "Existing", "CHKD": "OK", "AREA": "CROSBY ST SQUARE TOWNHOMES", "Shape__Length": 280.20086081229067}}, {"type": "Feature", "id": 107, "geometry": {"type": "LineString", "coordinates": [[-95.3756867461682, 29.7558386591634], [-95.3760341596149, 29.7558296740948]]}, "properties": {"OBJECTID": 107, "Id": 0, "BLOCK": "700", "STREET": "ANDREWS", "TIME": "4PM-4AM", "DAYS": "MON-SUN", "zip": "77019", "APP_": "052521-24-347", "Type": "Existing", "CHKD": "OK", "AREA": "CROSBY ST SQUARE TOWNHOMES", "Shape__Length": 110.28010168053747}}, {"type": "Feature", "id": 108, "geometry": {"type": "LineString", "coordinates": [[-95.3769404389159, 29.7570830458692], [-95.3769338021699, 29.7570401486661], [-95.3769388377478, 29.7564507782249]]}, "properties": {"OBJECTID": 108, "Id": 0, "BLOCK": "1100", "STREET": "ARTHUR", "TIME": "4PM-4AM", "DAYS": "MON-SUN", "zip": "77019", "APP_": "052521-24-347", "Type": "Existing", "CHKD": "OK", "AREA": "CROSBY ST SQUARE TOWNHOMES", "Shape__Length": 230.06208309620553}}, {"type": "Feature", "id": 109, "geometry": {"type": "LineString", "coordinates": [[-95.377805286706, 29.7564429979226], [-95.3778054997004, 29.7558191263133]]}, "properties": {"OBJECTID": 109, "Id": 0, "BLOCK": "1200", "STREET": "BUCKNER", "TIME": "4PM-4AM", "DAYS": "MON-SUN", "zip": "77019", "APP_": "052521-24-347", "Type": "Existing", "CHKD": "OK", "AREA": "CROSBY ST SQUARE TOWNHOMES", "Shape__Length": 226.86151395036555}}, {"type": "Feature", "id": 110, "geometry": {"type": "LineString", "coordinates": [[-95.3760340847801, 29.7564628056661], [-95.3769388377478, 29.7564507782249]]}, "properties": {"OBJECTID": 110, "Id": 0, "BLOCK": "800", "STREET": "ROBIN", "TIME": "4PM-4AM", "DAYS": "MON-SUN", "zip": "77019", "APP_": "052521-24-347", "Type": "Existing", "CHKD": "OK", "AREA": "CROSBY ST SQUARE TOWNHOMES", "Shape__Length": 287.10291982968295}}, {"type": "Feature", "id": 111, "geometry": {"type": "LineString", "coordinates": [[-95.3760233221751, 29.7551901172617], [-95.3769177758557, 29.7551837674902]]}, "properties": {"OBJECTID": 111, "Id": 0, "BLOCK": "800", "STREET": "RUTHVEN", "TIME": "4PM-4AM", "DAYS": "MON-SUN", "zip": "77019", "APP_": "052521-24-347", "Type": "Existing", "CHKD": "OK", "AREA": "CROSBY ST SQUARE TOWNHOMES", "Shape__Length": 283.81466251082156}}, {"type": "Feature", "id": 112, "geometry": {"type": "LineString", "coordinates": [[-95.3760340847801, 29.7564628056661], [-95.3760341596149, 29.7558296740948]]}, "properties": {"OBJECTID": 112, "Id": 0, "BLOCK": "1200", "STREET": "CROSBY", "TIME": "4PM-4AM", "DAYS": "MON-SUN", "zip": "77019", "APP_": "052521-24-347", "Type": "Existing", "CHKD": "OK", "AREA": "CROSBY ST SQUARE TOWNHOMES", "Shape__Length": 230.22875165008423}}, {"type": "Feature", "id": 113, "geometry": {"type": "LineString", "coordinates": [[-95.3778054997004, 29.7558191263133], [-95.3778006425347, 29.7551773386232]]}, "properties": {"OBJECTID": 113, "Id": 0, "BLOCK": "1300", "STREET": "BUCKNER", "TIME": "4PM-4AM", "DAYS": "MON-SUN", "zip": "77019", "APP_": "052521-24-347", "Type": "Existing", "CHKD": "OK", "AREA": "CROSBY ST SQUARE TOWNHOMES", "Shape__Length": 233.38146390026378}}, {"type": "Feature", "id": 114, "geometry": {"type": "LineString", "coordinates": [[-95.3769388377478, 29.7564507782249], [-95.377805286706, 29.7564429979226]]}, "properties": {"OBJECTID": 114, "Id": 0, "BLOCK": "900", "STREET": "ROBIN", "TIME": "4PM-4AM", "DAYS": "MON-SUN", "zip": "77019", "APP_": "052521-24-347", "Type": "Existing", "CHKD": "OK", "AREA": "CROSBY ST SQUARE TOWNHOMES", "Shape__Length": 274.93068731990655}}, {"type": "Feature", "id": 118, "geometry": {"type": "LineString", "coordinates": [[-95.375596963752, 29.7669872917413], [-95.3767859824384, 29.7669863089498], [-95.3771824703539, 29.7669758981674]]}, "properties": {"OBJECTID": 118, "Id": null, "BLOCK": "1800", "STREET": "DECATUR ", "TIME": "11PM-5AM", "DAYS": "WED-SAT", "zip": "77007", "APP_": "04290922143", "Type": "Existing", "CHKD": "OK", "AREA": "OLD SIXTH WARD HISTORICAL DISTRICT", "Shape__Length": 503.0715491960939}}, {"type": "Feature", "id": 119, "geometry": {"type": "LineString", "coordinates": [[-95.3794058434829, 29.7662283132784], [-95.3805179969042, 29.7662120004115]]}, "properties": {"OBJECTID": 119, "Id": null, "BLOCK": "2100", "STREET": "KANE", "TIME": "11PM-5AM", "DAYS": "WED-SAT", "zip": "77007", "APP_": "04290922143", "Type": "Existing", "CHKD": "OK", "AREA": "OLD SIXTH WARD HISTORICAL DISTRICT", "Shape__Length": 352.8919162124959}}, {"type": "Feature", "id": 120, "geometry": {"type": "LineString", "coordinates": [[-95.3782721597478, 29.7662269214395], [-95.3794058434829, 29.7662283132784]]}, "properties": {"OBJECTID": 120, "Id": null, "BLOCK": "2000", "STREET": "KANE", "TIME": "11PM-5AM", "DAYS": "WED-SAT", "zip": "77007", "APP_": "04290922143", "Type": "Existing", "CHKD": "OK", "AREA": "OLD SIXTH WARD HISTORICAL DISTRICT", "Shape__Length": 359.6730983039512}}, {"type": "Feature", "id": 122, "geometry": {"type": "LineString", "coordinates": [[-95.3805179969042, 29.7662120004115], [-95.3805245434391, 29.7669484644765]]}, "properties": {"OBJECTID": 122, "Id": null, "BLOCK": "800", "STREET": "HEMPHILL (WEST SIDE)", "TIME": "11PM-5AM", "DAYS": "WED-SAT", "zip": "77007", "APP_": "04290922143", "Type": "Existing", "CHKD": "OK", "AREA": "OLD SIXTH WARD HISTORICAL DISTRICT", "Shape__Length": 267.8128923293953}}, {"type": "Feature", "id": 123, "geometry": {"type": "LineString", "coordinates": [[-95.3794058434829, 29.7662283132784], [-95.3794129843462, 29.7669577176975]]}, "properties": {"OBJECTID": 123, "Id": null, "BLOCK": "800", "STREET": "HENDERSON", "TIME": "11PM-5AM", "DAYS": "WED-SAT", "zip": "77007", "APP_": "04290922143", "Type": "Existing", "CHKD": "OK", "AREA": "OLD SIXTH WARD HISTORICAL DISTRICT", "Shape__Length": 265.24737336231425}}, {"type": "Feature", "id": 124, "geometry": {"type": "LineString", "coordinates": [[-95.3794129843462, 29.7669577176975], [-95.3805245434391, 29.7669484644765]]}, "properties": {"OBJECTID": 124, "Id": null, "BLOCK": "2100", "STREET": "DECATUR", "TIME": "11PM-5AM", "DAYS": "WED-SAT", "zip": "77007", "APP_": "04290922143", "Type": "Existing", "CHKD": "OK", "AREA": "OLD SIXTH WARD HISTORICAL DISTRICT", "Shape__Length": 352.6670183765743}}, {"type": "Feature", "id": 126, "geometry": {"type": "LineString", "coordinates": [[-95.3771384378239, 29.7662331212092], [-95.3782721597478, 29.7662269214395]]}, "properties": {"OBJECTID": 126, "Id": null, "BLOCK": "1900", "STREET": "KANE (NORTH SIDE)", "TIME": "11PM-5AM", "DAYS": "WED-SAT", "zip": "77007", "APP_": "04290922143", "Type": "Existing", "CHKD": "OK", "AREA": "OLD SIXTH WARD HISTORICAL DISTRICT", "Shape__Length": 359.69191483207334}}, {"type": "Feature", "id": 127, "geometry": {"type": "LineString", "coordinates": [[-95.3794129843462, 29.7669577176975], [-95.3794179012801, 29.7676709331059]]}, "properties": {"OBJECTID": 127, "Id": null, "BLOCK": "900", "STREET": "HENDERSON", "TIME": "11PM-5AM", "DAYS": "WED-SAT", "zip": "77007", "APP_": "04290922143", "Type": "Existing", "CHKD": "OK", "AREA": "OLD SIXTH WARD HISTORICAL DISTRICT", "Shape__Length": 259.35553543803445}}, {"type": "Feature", "id": 129, "geometry": {"type": "LineString", "coordinates": [[-95.3782721597478, 29.7662269214395], [-95.3782769494307, 29.7669640092453]]}, "properties": {"OBJECTID": 129, "Id": null, "BLOCK": "800", "STREET": "WHITE", "TIME": "11PM-5AM", "DAYS": "WED-SAT", "zip": "77007", "APP_": "04290922143", "Type": "Existing", "CHKD": "OK", "AREA": "OLD SIXTH WARD HISTORICAL DISTRICT", "Shape__Length": 268.03596183916187}}, {"type": "Feature", "id": 131, "geometry": {"type": "LineString", "coordinates": [[-95.3755959224988, 29.7662485056968], [-95.3771384378239, 29.7662331212092]]}, "properties": {"OBJECTID": 131, "Id": null, "BLOCK": "1800", "STREET": "KANE", "TIME": "11PM-5AM", "DAYS": "WED-SAT", "zip": "77007", "APP_": "04290922143", "Type": "Existing", "CHKD": "OK", "AREA": "OLD SIXTH WARD HISTORICAL DISTRICT", "Shape__Length": 489.41065087310136}}, {"type": "Feature", "id": 132, "geometry": {"type": "LineString", "coordinates": [[-95.3805245434391, 29.7669484644765], [-95.3816233518109, 29.7669331619534]]}, "properties": {"OBJECTID": 132, "Id": null, "BLOCK": "2200", "STREET": "DECATUR", "TIME": "11PM-5AM", "DAYS": "WED-SAT", "zip": "77007", "APP_": "04290922143", "Type": "Existing", "CHKD": "OK", "AREA": "OLD SIXTH WARD HISTORICAL DISTRICT", "Shape__Length": 348.65014908870995}}, {"type": "Feature", "id": 133, "geometry": {"type": "LineString", "coordinates": [[-95.3782769494307, 29.7669640092453], [-95.3794129843462, 29.7669577176975]]}, "properties": {"OBJECTID": 133, "Id": null, "BLOCK": "2000", "STREET": "DECATUR ", "TIME": "11PM-5AM", "DAYS": "WED-SAT", "zip": "77007", "APP_": "04290922143", "Type": "Existing", "CHKD": "OK", "AREA": "OLD SIXTH WARD HISTORICAL DISTRICT", "Shape__Length": 360.42334944315286}}, {"type": "Feature", "id": 134, "geometry": {"type": "LineString", "coordinates": [[-95.3771384378239, 29.7662331212092], [-95.3771824703539, 29.7669758981674]]}, "properties": {"OBJECTID": 134, "Id": null, "BLOCK": "800", "STREET": "SILVER ", "TIME": "11PM-5AM", "DAYS": "WED-SAT", "zip": "77007", "APP_": "04290922143", "Type": "Existing", "CHKD": "OK", "AREA": "OLD SIXTH WARD HISTORICAL DISTRICT", "Shape__Length": 270.4614544389555}}, {"type": "Feature", "id": 135, "geometry": {"type": "LineString", "coordinates": [[-95.3805179969042, 29.7662120004115], [-95.381243963273, 29.7662124814418], [-95.3815488522574, 29.7662007585448]]}, "properties": {"OBJECTID": 135, "Id": null, "BLOCK": "2200", "STREET": "KANE", "TIME": "11PM-5AM", "DAYS": "WED-SAT", "zip": "77007", "APP_": "04290922143", "Type": "Existing", "CHKD": "OK", "AREA": "OLD SIXTH WARD HISTORICAL DISTRICT", "Shape__Length": 327.14339601388605}}, {"type": "Feature", "id": 136, "geometry": {"type": "LineString", "coordinates": [[-95.3771824703539, 29.7669758981674], [-95.3771998743804, 29.7677917323891]]}, "properties": {"OBJECTID": 136, "Id": null, "BLOCK": "900", "STREET": "SILVER", "TIME": "11PM-5AM", "DAYS": "WED-SAT", "zip": "77007", "APP_": "04290922143", "Type": "Existing", "CHKD": "OK", "AREA": "OLD SIXTH WARD HISTORICAL DISTRICT", "Shape__Length": 296.71813025330096}}, {"type": "Feature", "id": 137, "geometry": {"type": "LineString", "coordinates": [[-95.3771824703539, 29.7669758981674], [-95.3782769494307, 29.7669640092453]]}, "properties": {"OBJECTID": 137, "Id": null, "BLOCK": "1900", "STREET": "DECATUR", "TIME": "11PM-5AM", "DAYS": "WED-SAT", "zip": "77007", "APP_": "04290922143", "Type": "Existing", "CHKD": "OK", "AREA": "OLD SIXTH WARD HISTORICAL DISTRICT", "Shape__Length": 347.25905016589076}}, {"type": "Feature", "id": 205, "geometry": {"type": "LineString", "coordinates": [[-95.3806510284423, 29.7483052259772], [-95.3805590788572, 29.7482610026774], [-95.3797960982074, 29.7477946732228]]}, "properties": {"OBJECTID": 205, "Id": null, "BLOCK": "300", "STREET": "DENNIS (SOUTH SIDE)", "TIME": "9PM-2AM", "DAYS": "MON-SUN", "zip": "77006", "APP_": "02281162171", "Type": "Existing", "CHKD": "OK", "AREA": null, "Shape__Length": 328.900561166404}}, {"type": "Feature", "id": 206, "geometry": {"type": "LineString", "coordinates": [[-95.3806510284423, 29.7483052259772], [-95.3810925090976, 29.7477439119926]]}, "properties": {"OBJECTID": 206, "Id": null, "BLOCK": "2700", "STREET": "BALDWIN (EAST SIDE)", "TIME": "9PM-2AM", "DAYS": "MON-SUN", "zip": "77006", "APP_": "02281162171", "Type": "Existing", "CHKD": "OK", "AREA": null, "Shape__Length": 247.56225914579463}}, {"type": "Feature", "id": 240, "geometry": {"type": "LineString", "coordinates": [[-95.3865025990663, 29.7482080650673], [-95.3864950096124, 29.7475134685728]]}, "properties": {"OBJECTID": 240, "Id": null, "BLOCK": "2400", "STREET": "MORGAN", "TIME": "11PM-5AM", "DAYS": "WED-SUN", "zip": "77006", "APP_": "082813-24-228", "Type": "Existing", "CHKD": "OK", "AREA": null, "Shape__Length": 252.5904421763876}}, {"type": "Feature", "id": 250, "geometry": {"type": "LineString", "coordinates": [[-95.3889124220044, 29.752581835907], [-95.389771481604, 29.752571420435], [-95.3897990948254, 29.7525728486884]]}, "properties": {"OBJECTID": 250, "Id": null, "BLOCK": "700", "STREET": "PEDEN", "TIME": "8AM-5PM", "DAYS": "MON-FRI", "zip": "77006", "APP_": "090414-24-240", "Type": "Existing", "CHKD": "OK", "AREA": null, "Shape__Length": 281.38533297370645}}, {"type": "Feature", "id": 269, "geometry": {"type": "LineString", "coordinates": [[-95.3823592324752, 29.7493378407689], [-95.3815073133767, 29.7488176591261]]}, "properties": {"OBJECTID": 269, "Id": null, "BLOCK": "100", "STREET": "DENNIS (NORTH SIDE)", "TIME": "9AM-2AM", "DAYS": "THU-SUN", "zip": "77006", "APP_": "101315-62-253 ", "Type": "Existing", "CHKD": "OK", "AREA": null, "Shape__Length": 329.93300373886683}}, {"type": "Feature", "id": 304, "geometry": {"type": "LineString", "coordinates": [[-95.3889060513906, 29.7501792081006], [-95.3896902737286, 29.7501617424883]]}, "properties": {"OBJECTID": 304, "Id": null, "BLOCK": "700", "STREET": "WELCH", "TIME": "11PM-5AM", "DAYS": "WED-SUN", "zip": "77006", "APP_": "042618-24-306", "Type": "Existing", "CHKD": "OK", "AREA": null, "Shape__Length": 248.92273379911606}}, {"type": "Feature", "id": 336, "geometry": {"type": "LineString", "coordinates": [[-95.3804052929829, 29.7520555667288], [-95.3812887649338, 29.7520524546813]]}, "properties": {"OBJECTID": 336, "Id": null, "BLOCK": "1300", "STREET": "WEST WEBSTER", "TIME": "4PM-4AM", "DAYS": "MON-SUN", "zip": "77019", "APP_": "011121-24-345", "Type": "Existing", "CHKD": "OK", "AREA": "SOUTH MIDTOWN", "Shape__Length": 280.33171717554035}}, {"type": "Feature", "id": 337, "geometry": {"type": "LineString", "coordinates": [[-95.3804124398164, 29.752683631688], [-95.3812884444947, 29.7526882097752]]}, "properties": {"OBJECTID": 337, "Id": null, "BLOCK": "1300", "STREET": "ONEIL (SOUTH SIDE)", "TIME": "4PM-4AM", "DAYS": "MON-SUN", "zip": "77019", "APP_": "011121-24-345", "Type": "Existing", "CHKD": "OK", "AREA": "SOUTH MIDTOWN", "Shape__Length": 277.9632995271728}}, {"type": "Feature", "id": 338, "geometry": {"type": "LineString", "coordinates": [[-95.3804124398164, 29.752683631688], [-95.3804052929829, 29.7520555667288]]}, "properties": {"OBJECTID": 338, "Id": null, "BLOCK": "1800", "STREET": "MATTHEWS", "TIME": "4PM-4AM", "DAYS": "MON-SUN", "zip": "77019", "APP_": "011121-24-345", "Type": "Existing", "CHKD": "OK", "AREA": "SOUTH MIDTOWN", "Shape__Length": 228.39737110302735}}, {"type": "Feature", "id": 339, "geometry": {"type": "LineString", "coordinates": [[-95.3812884444947, 29.7526882097752], [-95.3812887649338, 29.7520524546813]]}, "properties": {"OBJECTID": 339, "Id": null, "BLOCK": "1800", "STREET": "WILSON", "TIME": "4PM-4AM", "DAYS": "MON-SUN", "zip": "77019", "APP_": "011121-24-345", "Type": "Existing", "CHKD": "OK", "AREA": "SOUTH MIDTOWN", "Shape__Length": 231.18253398778705}}, {"type": "Feature", "id": 341, "geometry": {"type": "LineString", "coordinates": [[-95.3804226726847, 29.7539100125444], [-95.3812328056392, 29.7539104218522], [-95.3812932346859, 29.7539035499177]]}, "properties": {"OBJECTID": 341, "Id": null, "BLOCK": "1300", "STREET": "VICTOR (SOUTH SIDE)", "TIME": "4PM-4AM", "DAYS": "MON-SUN", "zip": "77019", "APP_": "081321-22-352", "Type": "Existing", "CHKD": "OK", "AREA": null, "Shape__Length": 276.39021826908197}}, {"type": "Feature", "id": 342, "geometry": {"type": "LineString", "coordinates": [[-95.3804226726847, 29.7539100125444], [-95.3804240568863, 29.7532902327531]]}, "properties": {"OBJECTID": 342, "Id": null, "BLOCK": "1600", "STREET": "MATTHEWS", "TIME": "4PM-4AM", "DAYS": "MON-SUN", "zip": "77019", "APP_": "081321-22-352", "Type": "Existing", "CHKD": "OK", "AREA": null, "Shape__Length": 225.37384488323534}}, {"type": "Feature", "id": 363, "geometry": {"type": "LineString", "coordinates": [[-95.3873137760081, 29.7495301665433], [-95.3872992816325, 29.748864626153]]}, "properties": {"OBJECTID": 363, "Id": null, "BLOCK": "2200", "STREET": "WHITNEY", "TIME": "11PM-5 AM", "DAYS": "WED-SUN", "zip": "77006", "APP_": "113021-24-358", "Type": "Existing", "CHKD": "OK", "AREA": null, "Shape__Length": 242.05695958454126}}, {"type": "Feature", "id": 366, "geometry": {"type": "LineString", "coordinates": [[-95.3812962623549, 29.753271848009], [-95.3812900430504, 29.7531829877309], [-95.3812931952342, 29.7527387375201], [-95.3812884566725, 29.7526882164228]]}, "properties": {"OBJECTID": 366, "Id": null, "BLOCK": "1700", "STREET": "WILSON (WEST SIDE)", "TIME": "4PM-4AM", "DAYS": "MON-SUN", "zip": "77019", "APP_": "041522-24-363", "Type": "Existing", "CHKD": "OK", "AREA": null, "Shape__Length": 212.3533642444291}}]}