{"type": "FeatureCollection", "features": [{"type": "Feature", "id": 14, "geometry": {"type": "Point", "coordinates": [-95.39508100252263, 29.769323006168424]}, "properties": {"StationID": 31119138448, "ADDRESS": "2998 WASHINGTON AVE, HOUSTON, TX, 77007", "SEGMENT": "STUDEMONT TO YALE", "REGION": "SW", "Notes": null, "COLLECTIONTYPE": "MAJOR THOROUGHFARE ADT", "OBJECTID": 14, "GlobalID": "{4F711C0D-D219-49E3-B118-24A23D9E68F5}"}}, {"type": "Feature", "id": 17, "geometry": {"type": "Point", "coordinates": [-95.38641200142561, 29.768549989814435]}, "properties": {"StationID": 31147138446, "ADDRESS": "2500 WASHINGTON AVE, HOUSTON, TX 77007", "SEGMENT": "HOUSTON AVE TO STUDEMONT", "REGION": "SW", "Notes": "", "COLLECTIONTYPE": "MAJOR THOROUGHFARE ADT", "OBJECTID": 17, "GlobalID": "{53444A83-16F8-4395-9584-0B11B02EA01F}"}}, {"type": "Feature", "id": 41, "geometry": {"type": "Point", "coordinates": [-95.41509436905754, 29.762070030915638]}, "properties": {"StationID": 31057138420, "ADDRESS": "5353 MEMORIAL DR, HOUSTON, TX, 77007", "SEGMENT": "SHEPHERD TO DETERING", "REGION": "SW", "Notes": null, "COLLECTIONTYPE": "MAJOR THOROUGHFARE ADT", "OBJECTID": 41, "GlobalID": "{B79E6A9B-E185-4E96-B20E-6D5C97BDC48B}"}}, {"type": "Feature", "id": 44, "geometry": {"type": "Point", "coordinates": [-95.41811399176787, 29.779528202891523]}, "properties": {"StationID": 31045138483, "ADDRESS": "500 TC JESTER BLVD, HOUSTON, TX, 77007", "SEGMENT": "KATY FWY TO W 11TH ST", "REGION": "NW", "Notes": null, "COLLECTIONTYPE": "MAJOR THOROUGHFARE ADT", "OBJECTID": 44, "GlobalID": "{2686D8B4-22A3-4C5D-B9A0-E83C5BAA3CCE}"}}, {"type": "Feature", "id": 70, "geometry": {"type": "Point", "coordinates": [-95.40956498424094, 29.775589993169636]}, "properties": {"StationID": 31073138470, "ADDRESS": "1703 SHEPHERD DR, HOUSTON, TX, 77007", "SEGMENT": "WASHINGTON TO KATY FWY", "REGION": "SW", "Notes": null, "COLLECTIONTYPE": "MAJOR THOROUGHFARE ADT", "OBJECTID": 70, "GlobalID": "{6A14D841-ACA6-4444-BC72-07EFBFD2B7D2}"}}, {"type": "Feature", "id": 73, "geometry": {"type": "Point", "coordinates": [-95.40535900410137, 29.761751005922353]}, "properties": {"StationID": 31088138420, "ADDRESS": "4400 MEMORIAL DR, HOUSTON, TX, 77007", "SEGMENT": "HEIGHTS BLVD WAUGH TO SHEPHERD", "REGION": "SW", "Notes": null, "COLLECTIONTYPE": "MAJOR THOROUGHFARE ADT", "OBJECTID": 73, "GlobalID": "{A917AB26-D707-4074-B29B-A6E305271F01}"}}, {"type": "Feature", "id": 104, "geometry": {"type": "Point", "coordinates": [-95.41065899852221, 29.775571013638743]}, "properties": {"StationID": 31069138470, "ADDRESS": "1700 DURHAM DR, HOUSTON, TX, 77007", "SEGMENT": "WASHINGTON TO KATY FWY", "REGION": "SW", "Notes": null, "COLLECTIONTYPE": "MAJOR THOROUGHFARE ADT", "OBJECTID": 104, "GlobalID": "{1C3BF9E0-7534-4877-B725-79DC24748309}"}}, {"type": "Feature", "id": 162, "geometry": {"type": "Point", "coordinates": [-95.42153799961112, 29.764041994389135]}, "properties": {"StationID": 31036138427, "ADDRESS": "238 WESTCOTT ST, HOUSTON, TX, 77007", "SEGMENT": "MEMORIAL TO WASHINGTON AVE", "REGION": "SW", "Notes": null, "COLLECTIONTYPE": "MAJOR THOROUGHFARE ADT", "OBJECTID": 162, "GlobalID": "{40758283-C071-4F6E-9DA7-A12BAF6722DB}"}}, {"type": "Feature", "id": 175, "geometry": {"type": "Point", "coordinates": [-95.39661847255542, 29.75738146082983]}, "properties": {"StationID": 31116138405, "ADDRESS": "2933 W DALLAS ST", "SEGMENT": "TAFT TO WAUGH", "REGION": "SW", "Notes": null, "COLLECTIONTYPE": "MAJOR THOROUGHFARE ADT", "OBJECTID": 175, "GlobalID": "{CEAD02E0-3DF4-4B3E-8D2E-0F87E54E9F22}"}}, {"type": "Feature", "id": 248, "geometry": {"type": "Point", "coordinates": [-95.38040398995089, 29.779669005526646]}, "properties": {"StationID": 31165138487, "ADDRESS": "2132 WHITE OAK DR", "SEGMENT": "BEAUCHAMP ST TO STUDEWOOD", "REGION": "NW", "Notes": "", "COLLECTIONTYPE": "MAJOR THOROUGHFARE ADT", "OBJECTID": 248, "GlobalID": "{CA6A0A79-628D-4B23-9790-728D8F80864C}"}}, {"type": "Feature", "id": 297, "geometry": {"type": "Point", "coordinates": [-95.41798724796952, 29.774572749707442]}, "properties": {"StationID": 31046138465, "ADDRESS": "230 TC JESTER BLVD, HOUSTON, TX, 77007", "SEGMENT": "WASHINGTON TO KATY FWY", "REGION": "SW", "Notes": null, "COLLECTIONTYPE": "MAJOR THOROUGHFARE ADT", "OBJECTID": 297, "GlobalID": "{59A44463-AAEE-46AE-B7B4-1911323F69BE}"}}, {"type": "Feature", "id": 305, "geometry": {"type": "Point", "coordinates": [-95.42988499414487, 29.76406098758849]}, "properties": {"StationID": 31010138426, "ADDRESS": "6300 MEMORIAL DR, HOUSTON, TX, 77007", "SEGMENT": "WESTCOTT TO WOODWAY", "REGION": "SW", "Notes": null, "COLLECTIONTYPE": "MAJOR THOROUGHFARE ADT", "OBJECTID": 305, "GlobalID": "{CDC427A7-1356-4D26-B61B-EA4B8B4665B8}"}}, {"type": "Feature", "id": 322, "geometry": {"type": "Point", "coordinates": [-95.39718878073079, 29.767062536725764]}, "properties": {"StationID": 31113138444, "ADDRESS": "200 S HEIGHTS BLVD, HOUSTON, TX, 77007", "SEGMENT": " WASHINGTON TO MEMORIAL DR.", "REGION": "SW", "Notes": null, "COLLECTIONTYPE": "MAJOR THOROUGHFARE ADT", "OBJECTID": 322, "GlobalID": "{E2742F26-F927-40AC-9BA3-B2221B957552}"}}, {"type": "Feature", "id": 340, "geometry": {"type": "Point", "coordinates": [-95.37238816422493, 29.771891349937096]}, "properties": {"StationID": 31191138460, "ADDRESS": "1516 HOUSTON AVE, HOUSTON, TX, 77007", "SEGMENT": "WASHINGTON TO CROCKETT", "REGION": "SW", "Notes": null, "COLLECTIONTYPE": "MAJOR THOROUGHFARE ADT", "OBJECTID": 340, "GlobalID": "{90BA52A6-2D45-4C49-8B9D-B13899B76E93}"}}, {"type": "Feature", "id": 374, "geometry": {"type": "Point", "coordinates": [-95.3877690026532, 29.78572600644681]}, "properties": {"StationID": 31141138509, "ADDRESS": "807 STUDEWOOD ST, HOUSTON, TX, 77007", "SEGMENT": "WHITE OAK TO E 11TH ST", "REGION": "NW", "Notes": null, "COLLECTIONTYPE": "MAJOR THOROUGHFARE ADT", "OBJECTID": 374, "GlobalID": "{905281CE-68A6-4AC7-9FDC-AD8BE6769B7D}"}}, {"type": "Feature", "id": 390, "geometry": {"type": "Point", "coordinates": [-95.37061558148088, 29.77376536787681]}, "properties": {"StationID": 31197138467, "ADDRESS": "1310 CROCKETT ST, HOUSTON, TX, 77007", "SEGMENT": "HOUSTON TO NORTH FWY", "REGION": "SW", "Notes": null, "COLLECTIONTYPE": "MAJOR THOROUGHFARE ADT", "OBJECTID": 390, "GlobalID": "{963EE043-D248-498C-B369-E128E95F58C1}"}}, {"type": "Feature", "id": 440, "geometry": {"type": "Point", "coordinates": [-95.38276341734368, 29.770823612136013]}, "properties": {"StationID": 31158138454, "ADDRESS": "1300 SAWYER ST, HOUSTON, TX, 77007", "SEGMENT": "WASHINGTON TO CROCKETT", "REGION": "SW", "Notes": null, "COLLECTIONTYPE": "MAJOR THOROUGHFARE ADT", "OBJECTID": 440, "GlobalID": "{3179E5E8-965F-4350-8F0B-CD1C6A87D45E}"}}, {"type": "Feature", "id": 445, "geometry": {"type": "Point", "coordinates": [-95.40236002370627, 29.75801089418639]}, "properties": {"StationID": 31098138407, "ADDRESS": "900 DUNLAVY ST, HOUSTON, TX, 77019", "SEGMENT": "ALLEN PARKWAY TO W DALLAS", "REGION": "SW", "Notes": null, "COLLECTIONTYPE": "MAJOR THOROUGHFARE ADT", "OBJECTID": 445, "GlobalID": "{5B685C2C-CF12-48AE-8220-76DF87FFE3B4}"}}, {"type": "Feature", "id": 519, "geometry": {"type": "Point", "coordinates": [-95.39224300300576, 29.76690400096551]}, "properties": {"StationID": 31129138440, "ADDRESS": "600 STUDEMONT ST, HOUSTON, TX, 77007", "SEGMENT": "MEMORIAL TO WASHINGTON", "REGION": "SW", "Notes": null, "COLLECTIONTYPE": "MAJOR THOROUGHFARE ADT", "OBJECTID": 519, "GlobalID": "{C26A8766-9605-4254-951B-B81287001D0C}"}}, {"type": "Feature", "id": 549, "geometry": {"type": "Point", "coordinates": [-95.38103661639063, 29.77892086779628]}, "properties": {"StationID": 31163138485, "ADDRESS": "2400 TAYLOR ST, HOUSTON, TX, 77007", "SEGMENT": "KATY FRWY TO WHITE OAK", "REGION": "NW", "Notes": null, "COLLECTIONTYPE": "MAJOR THOROUGHFARE ADT", "OBJECTID": 549, "GlobalID": "{39AAA008-BD14-4663-A9D5-DA90B160570B}"}}, {"type": "Feature", "id": 584, "geometry": {"type": "Point", "coordinates": [-95.37233540086454, 29.76697996341164]}, "properties": {"StationID": 31192138442, "ADDRESS": "900 HOUSTON AVE, HOUSTON, TX, 77007", "SEGMENT": "MEMORIAL TO WASHINGTON", "REGION": "SW", "Notes": null, "COLLECTIONTYPE": "MAJOR THOROUGHFARE ADT", "OBJECTID": 584, "GlobalID": "{8365E875-071A-4F0F-BD6D-B2DC413BA965}"}}, {"type": "Feature", "id": 608, "geometry": {"type": "Point", "coordinates": [-95.37211013645961, 29.785395929851013]}, "properties": {"StationID": 31190138509, "ADDRESS": "3003 HOUSTON AVE, HOUSTON, TX, 77009", "SEGMENT": "WHITE OAK TO N MAIN", "REGION": "NW", "Notes": null, "COLLECTIONTYPE": "MAJOR THOROUGHFARE ADT", "OBJECTID": 608, "GlobalID": "{2CDFEC89-8C97-470B-AFB8-852BD53A75D8}"}}, {"type": "Feature", "id": 611, "geometry": {"type": "Point", "coordinates": [-95.38189501017526, 29.766565989734367]}, "properties": {"StationID": 31161138440, "ADDRESS": "800 SAWYER ST, HOUSTON, TX, 77007", "SEGMENT": "MEMORIAL TO WASHINGTON", "REGION": "SW", "Notes": null, "COLLECTIONTYPE": "MAJOR THOROUGHFARE ADT", "OBJECTID": 611, "GlobalID": "{8873F79A-B930-4690-85F5-39F65A055C4C}"}}, {"type": "Feature", "id": 618, "geometry": {"type": "Point", "coordinates": [-95.3989219992242, 29.786316991358103]}, "properties": {"StationID": 31105138510, "ADDRESS": "835 YALE ST", "SEGMENT": "WHITE OAK TO W 11TH ST", "REGION": "NW", "Notes": null, "COLLECTIONTYPE": "MAJOR THOROUGHFARE ADT", "OBJECTID": 618, "GlobalID": "{DF79CFFF-0186-4EEE-A12C-59DC4FAFBB97}"}}, {"type": "Feature", "id": 779, "geometry": {"type": "Point", "coordinates": [-95.41075598848953, 29.77918500884849]}, "properties": {"StationID": 31069138483, "ADDRESS": "800 N DURHAM DR, HOUSTON, 77008", "SEGMENT": "KATY FWY TO 11TH ST", "REGION": "NW", "Notes": null, "COLLECTIONTYPE": "MAJOR THOROUGHFARE ADT", "OBJECTID": 779, "GlobalID": "{A7061FB1-1C31-4B2A-83C8-1EED4C85EF18}"}}, {"type": "Feature", "id": 821, "geometry": {"type": "Point", "coordinates": [-95.37156997136107, 29.756433198947402]}, "properties": {"StationID": 31195138404, "ADDRESS": "554 CLAY ST, HOUSTON, TX, 77002", "SEGMENT": "SHAW TO SMITH", "REGION": "CBD", "Notes": null, "COLLECTIONTYPE": "MAJOR THOROUGHFARE ADT", "OBJECTID": 821, "GlobalID": "{6808343E-411E-4E93-9DC5-04555065CA78}"}}, {"type": "Feature", "id": 847, "geometry": {"type": "Point", "coordinates": [-95.38374937706884, 29.761217982690106]}, "properties": {"StationID": 31156138420, "ADDRESS": "1800 ALLEN PKWY, HOUSTON, TX, 77019", "SEGMENT": "IH 45 TO TAFT", "REGION": "SW", "Notes": null, "COLLECTIONTYPE": "MAJOR THOROUGHFARE ADT", "OBJECTID": 847, "GlobalID": "{1B61F9AE-0196-4AA5-847E-F06AFC3A72D8}"}}, {"type": "Feature", "id": 862, "geometry": {"type": "Point", "coordinates": [-95.37296901383853, 29.75930398755652]}, "properties": {"StationID": 31191138414, "ADDRESS": "298 CLAY ST, HOUSTON, TX, 77002", "SEGMENT": "ALLEN PKWY TO W DALLAS", "REGION": "CBD", "Notes": null, "COLLECTIONTYPE": "MAJOR THOROUGHFARE ADT", "OBJECTID": 862, "GlobalID": "{81E61891-7891-410F-96FE-DC906A940183}"}}, {"type": "Feature", "id": 890, "geometry": {"type": "Point", "coordinates": [-95.40458649294165, 29.75926045856002]}, "properties": {"StationID": 31090138411, "ADDRESS": "3601 ALLEN PKWY, HOUSTON, TX, 77019", "SEGMENT": "WAUGH TO S SHEPHERD", "REGION": "SW", "Notes": null, "COLLECTIONTYPE": "MAJOR THOROUGHFARE ADT", "OBJECTID": 890, "GlobalID": "{1A15DEB2-0D58-41DB-9BCC-AFF6B3BFACF3}"}}, {"type": "Feature", "id": 915, "geometry": {"type": "Point", "coordinates": [-95.37148800602152, 29.763818993098234]}, "properties": {"StationID": 31195138431, "ADDRESS": "100 MEMORIAL DR, HOUSTON, TX, 77007", "SEGMENT": "IH 45 TO HOUSTON", "REGION": "SW", "Notes": "", "COLLECTIONTYPE": "MAJOR THOROUGHFARE ADT", "OBJECTID": 915, "GlobalID": "{4B091D48-8462-4360-A257-7C22F5F3DB95}"}}, {"type": "Feature", "id": 932, "geometry": {"type": "Point", "coordinates": [-95.42671000814745, 29.774603005874795]}, "properties": {"StationID": 31018138465, "ADDRESS": "6500 WESTCOTT ST, HOUSTON, TX, 77007", "SEGMENT": "WASHINGTON AVE TO KATY FWY", "REGION": "SW", "Notes": "", "COLLECTIONTYPE": "MAJOR THOROUGHFARE ADT", "OBJECTID": 932, "GlobalID": "{AFCE1B7D-E602-4294-A83C-ECB8351AF657}"}}, {"type": "Feature", "id": 934, "geometry": {"type": "Point", "coordinates": [-95.41537999185468, 29.770542994420456]}, "properties": {"StationID": 31055138451, "ADDRESS": "5100 WASHINGTON, HOUSTON, TX, 77007", "SEGMENT": "SHEPHERD TO TC JESTER", "REGION": "SW", "Notes": null, "COLLECTIONTYPE": "MAJOR THOROUGHFARE ADT", "OBJECTID": 934, "GlobalID": "{DFD7E7A1-62E9-4B6F-9661-A7D97FB74AE0}"}}, {"type": "Feature", "id": 965, "geometry": {"type": "Point", "coordinates": [-95.39003159628015, 29.77520374110889]}, "properties": {"StationID": 31135138471, "ADDRESS": "1515 STUDEMONT ST, HOUSTON, TX, 77007", "SEGMENT": "WASHINGTON TO KATY FWY", "REGION": "SW", "Notes": null, "COLLECTIONTYPE": "MAJOR THOROUGHFARE ADT", "OBJECTID": 965, "GlobalID": "{A85C27C4-66C4-48BD-A7E9-D5AC33D5E591}"}}, {"type": "Feature", "id": 971, "geometry": {"type": "Point", "coordinates": [-95.3710446156513, 29.779987243061097]}, "properties": {"StationID": 31194138490, "ADDRESS": "1300 WHITE OAK DR, HOUSTON, TX, 77009", "SEGMENT": "NORTH FWY TO HOUSTON", "REGION": "NW", "Notes": null, "COLLECTIONTYPE": "MAJOR THOROUGHFARE ADT", "OBJECTID": 971, "GlobalID": "{49DE4E2D-3B87-484A-86A6-C89D6DCCE59B}"}}, {"type": "Feature", "id": 1056, "geometry": {"type": "Point", "coordinates": [-95.41310500470082, 29.758808005757746]}, "properties": {"StationID": 31063138408, "ADDRESS": "981 KIRBY DR, HOUSTON, TX, 77019", "SEGMENT": "S SHEPHERD TO INWOOD", "REGION": "SW", "Notes": "", "COLLECTIONTYPE": "MAJOR THOROUGHFARE ADT", "OBJECTID": 1056, "GlobalID": "{26C82347-FB2A-4E3D-A77F-95AC0A5A5541}"}}, {"type": "Feature", "id": 1057, "geometry": {"type": "Point", "coordinates": [-95.4029130132429, 29.770175012449698]}, "properties": {"StationID": 31094138451, "ADDRESS": "4219 WASHINGTON, HOUSTON, TX, 77007", "SEGMENT": "YALE TO SHEPHERD", "REGION": "SW", "Notes": null, "COLLECTIONTYPE": "MAJOR THOROUGHFARE ADT", "OBJECTID": 1057, "GlobalID": "{1B199454-2C8D-47DB-828B-ACCF62937C93}"}}, {"type": "Feature", "id": 1118, "geometry": {"type": "Point", "coordinates": [-95.39419098945623, 29.76368801114185]}, "properties": {"StationID": 31123138428, "ADDRESS": "3450 MEMORIAL DR, HOUSTON, TX, 77007", "SEGMENT": "STUDEMONT TO HEIGHTS BLVD-WAUGH", "REGION": "SW", "Notes": null, "COLLECTIONTYPE": "MAJOR THOROUGHFARE ADT", "OBJECTID": 1118, "GlobalID": "{5D59170D-F785-4591-9414-0D1A96632B2E}"}}, {"type": "Feature", "id": 1167, "geometry": {"type": "Point", "coordinates": [-95.36863665863908, 29.76661945228674]}, "properties": {"StationID": 31204138441, "ADDRESS": "1002 WASHINGTON AVE, HOUSTON, TX, 77002", "SEGMENT": "GOLIAD TO ELDER", "REGION": "SW", "Notes": null, "COLLECTIONTYPE": "MAJOR THOROUGHFARE ADT", "OBJECTID": 1167, "GlobalID": "{E7B3009C-12E5-4F13-BE58-908D8D3CA633}"}}, {"type": "Feature", "id": 1172, "geometry": {"type": "Point", "coordinates": [-95.39238420968283, 29.75962142784365]}, "properties": {"StationID": 31129138414, "ADDRESS": "800 MONTROSE BLVD, HOUSTON, TX, 77019", "SEGMENT": "ALLEN PARKWAY TO DALLAS", "REGION": "SW", "Notes": null, "COLLECTIONTYPE": "MAJOR THOROUGHFARE ADT", "OBJECTID": 1172, "GlobalID": "{3413A688-4C5D-43D3-94A3-563FB90BB41C}"}}, {"type": "Feature", "id": 1203, "geometry": {"type": "Point", "coordinates": [-95.39748508977654, 29.77861211255056]}, "properties": {"StationID": 31111138482, "ADDRESS": "425 HEIGHTS BLVD, HOUSTON, 77007", "SEGMENT": "KATY FWY TO WHITE OAK", "REGION": "NW", "Notes": null, "COLLECTIONTYPE": "MAJOR THOROUGHFARE ADT", "OBJECTID": 1203, "GlobalID": "{C45088CC-ABF7-409D-B081-248606859A4B}"}}, {"type": "Feature", "id": 1321, "geometry": {"type": "Point", "coordinates": [-95.37085501335751, 29.767040990356048]}, "properties": {"StationID": 31196138443, "ADDRESS": "2800 WASHINGTON AVE, HOUSTON, TX 77007", "SEGMENT": "FRANKLIN TO HOUSTON AVE", "REGION": "SW", "Notes": "", "COLLECTIONTYPE": "MAJOR THOROUGHFARE ADT", "OBJECTID": 1321, "GlobalID": "{5C262629-35D7-45C7-99B7-7136AD37B0DF}"}}, {"type": "Feature", "id": 1325, "geometry": {"type": "Point", "coordinates": [-95.38719944361442, 29.780277745019724]}, "properties": {"StationID": 31143138489, "ADDRESS": "529 STUDEWOOD ST, HOUSTON, TX, 77007", "SEGMENT": "KATY FWY TO WHITE OAK", "REGION": "NW", "Notes": null, "COLLECTIONTYPE": "MAJOR THOROUGHFARE ADT", "OBJECTID": 1325, "GlobalID": "{DD27CC81-91A0-4031-BAC1-96E30262BC2D}"}}, {"type": "Feature", "id": 1327, "geometry": {"type": "Point", "coordinates": [-95.3916609891635, 29.78156399082445]}, "properties": {"StationID": 31129138493, "ADDRESS": "3119 WHITE OAK DR", "SEGMENT": "STUDEWOOD TO YALE", "REGION": "NW", "Notes": null, "COLLECTIONTYPE": "MAJOR THOROUGHFARE ADT", "OBJECTID": 1327, "GlobalID": "{DCD7E861-0AD5-460E-AEBF-8B0B375D037F}"}}, {"type": "Feature", "id": 1342, "geometry": {"type": "Point", "coordinates": [-95.38040543107485, 29.757895639084364]}, "properties": {"StationID": 31182138408, "ADDRESS": "1300 W DALLAS ST", "SEGMENT": "NORTH FWY TO TAFT", "REGION": "SW", "Notes": null, "COLLECTIONTYPE": "MAJOR THOROUGHFARE ADT", "OBJECTID": 1342, "GlobalID": "{3BAC044E-5596-4875-BF58-45896F93019F}"}}, {"type": "Feature", "id": 1390, "geometry": {"type": "Point", "coordinates": [-95.41057110737356, 29.767833559345068]}, "properties": {"StationID": 31070138442, "ADDRESS": "600 DURHAM DR, HOUSTON, TX, 77007", "SEGMENT": "N SHEPHERD TO WASHINGTON", "REGION": "SW", "Notes": "", "COLLECTIONTYPE": "MAJOR THOROUGHFARE ADT", "OBJECTID": 1390, "GlobalID": "{A4629F7D-7860-462E-AD00-16935FA2C728}"}}, {"type": "Feature", "id": 1423, "geometry": {"type": "Point", "coordinates": [-95.39813900044818, 29.75849100891926]}, "properties": {"StationID": 31111138409, "ADDRESS": "810 WAUGH, HOUSTON, TX, 77019", "SEGMENT": "ALLEN PKWY TO GRAY", "REGION": "SW", "Notes": null, "COLLECTIONTYPE": "MAJOR THOROUGHFARE ADT", "OBJECTID": 1423, "GlobalID": "{4DB3FB50-8FCE-4EA2-9B4B-B05092B87688}"}}, {"type": "Feature", "id": 1441, "geometry": {"type": "Point", "coordinates": [-95.37619798561505, 29.77369000816483]}, "properties": {"StationID": 31179138466, "ADDRESS": "1803 CROCKETT ST, HOUSTON, TX, 77007", "SEGMENT": "SAWYER TO HOUSTON", "REGION": "SW", "Notes": null, "COLLECTIONTYPE": "MAJOR THOROUGHFARE ADT", "OBJECTID": 1441, "GlobalID": "{D0CB2E21-A383-4FF5-9BDB-701136723E60}"}}, {"type": "Feature", "id": 1482, "geometry": {"type": "Point", "coordinates": [-95.41900600247887, 29.76137801217715]}, "properties": {"StationID": 31044138417, "ADDRESS": "5650 MEMORIAL DR, HOUSTON, TX, 77007", "SEGMENT": "DETERING TO WESTCOTT", "REGION": "SW", "Notes": null, "COLLECTIONTYPE": "MAJOR THOROUGHFARE ADT", "OBJECTID": 1482, "GlobalID": "{5CE39050-48BC-479E-A144-51C045B468DA}"}}, {"type": "Feature", "id": 1560, "geometry": {"type": "Point", "coordinates": [-95.39514498883857, 29.761285012795323]}, "properties": {"StationID": 31120138419, "ADDRESS": "2121 ALLEN PKWY, HOUSTON, 77019", "SEGMENT": "TAFT TO WAUGH", "REGION": "SW", "Notes": null, "COLLECTIONTYPE": "MAJOR THOROUGHFARE ADT", "OBJECTID": 1560, "GlobalID": "{7D83DA84-5821-43FB-B837-32FE0B9850A6}"}}, {"type": "Feature", "id": 1581, "geometry": {"type": "Point", "coordinates": [-95.41938198629282, 29.770830990387235]}, "properties": {"StationID": 31042138452, "ADDRESS": "5850 WASHINGTON AVE, HOUSTON, TX, 77007", "SEGMENT": "WESTCOTT TO TC JESTER", "REGION": "SW", "Notes": null, "COLLECTIONTYPE": "MAJOR THOROUGHFARE ADT", "OBJECTID": 1581, "GlobalID": "{86AD7C17-E96F-4D22-B53C-594D9E3DC694}"}}, {"type": "Feature", "id": 1654, "geometry": {"type": "Point", "coordinates": [-95.3981183004522, 29.76708169486247]}, "properties": {"StationID": 31110138440, "ADDRESS": "55 WAUGH, HOUSTON, TX, 77007", "SEGMENT": "WASHINGTON TO HEIGHTS", "REGION": "SW", "Notes": null, "COLLECTIONTYPE": "MAJOR THOROUGHFARE ADT", "OBJECTID": 1654, "GlobalID": "{9487829D-2126-4C2F-A48B-40FDC41021B1}"}}, {"type": "Feature", "id": 1686, "geometry": {"type": "Point", "coordinates": [-95.39764331620154, 29.785732399005163]}, "properties": {"StationID": 31109138508, "ADDRESS": "811 HEIGHTS BLVD, HOUSTON, TX, 77007", "SEGMENT": "WHITE OAK TO E 11TH ST", "REGION": "NW", "Notes": null, "COLLECTIONTYPE": "MAJOR THOROUGHFARE ADT", "OBJECTID": 1686, "GlobalID": "{8F4A3E51-B6FC-45E0-9D29-9A4D3A56FF72}"}}, {"type": "Feature", "id": 1718, "geometry": {"type": "Point", "coordinates": [-95.37242119386094, 29.7761760161354]}, "properties": {"StationID": 31190138475, "ADDRESS": "2200 HOUSTON AVE, HOUSTON, TX, 77007", "SEGMENT": "CROCKETT TO WHITE OAK", "REGION": "SW", "Notes": null, "COLLECTIONTYPE": "MAJOR THOROUGHFARE ADT", "OBJECTID": 1718, "GlobalID": "{5FADA76E-EAF9-4569-87F1-2612517A07AE}"}}, {"type": "Feature", "id": 1746, "geometry": {"type": "Point", "coordinates": [-95.38059699476563, 29.76303598828505]}, "properties": {"StationID": 31166138427, "ADDRESS": "2200 MEMORIAL DR, HOUSTON, TX, 77007", "SEGMENT": "HOUSTON TO STUDEMONT", "REGION": "SW", "Notes": null, "COLLECTIONTYPE": "MAJOR THOROUGHFARE ADT", "OBJECTID": 1746, "GlobalID": "{285B881E-5BD0-4AAE-BD96-9FF69D9F8D82}"}}, {"type": "Feature", "id": 1784, "geometry": {"type": "Point", "coordinates": [-95.42705300926941, 29.77577599780246]}, "properties": {"StationID": 31017138469, "ADDRESS": "6509 WASHINGTON AVE, HOUSTON, TX, 77007", "SEGMENT": "WESTCOTT TO KATY FWY", "REGION": "SW", "Notes": null, "COLLECTIONTYPE": "MAJOR THOROUGHFARE ADT", "OBJECTID": 1784, "GlobalID": "{AC24878C-71B6-4C8E-BCDE-F19C2DBA720D}"}}, {"type": "Feature", "id": 11637, "geometry": {"type": "Point", "coordinates": [-95.36978326675208, 29.756459915205582]}, "properties": {"StationID": 31201138404, "ADDRESS": "600 POLK", "SEGMENT": "SMITH TO LOUISIANA", "REGION": "CBD", "Notes": null, "COLLECTIONTYPE": "MAJOR THOROUGHFARE ADT", "OBJECTID": 11637, "GlobalID": "{6BEE1736-21C1-4E13-952A-0A8C00AA222E}"}}, {"type": "Feature", "id": 11638, "geometry": {"type": "Point", "coordinates": [-95.3715376138618, 29.75652644560797]}, "properties": {"StationID": 31195138404, "ADDRESS": "500 POLK", "SEGMENT": "SHAW TO SMITH", "REGION": "CBD", "Notes": null, "COLLECTIONTYPE": "MAJOR THOROUGHFARE ADT", "OBJECTID": 11638, "GlobalID": "{643CFFB6-7F50-4879-A0F5-D83B301C7872}"}}, {"type": "Feature", "id": 12033, "geometry": {"type": "Point", "coordinates": [-95.36818280360914, 29.756722739767838]}, "properties": {"StationID": 31206138405, "ADDRESS": "700 DALLAS", "SEGMENT": "LOUISIANA TO MILAM", "REGION": "CBD", "Notes": "700 Dallas UNDER CONSTRUCTION ", "COLLECTIONTYPE": "MAJOR THOROUGHFARE ADT", "OBJECTID": 12033, "GlobalID": "{1E845AB0-8699-4DFD-9DDB-A7642EC783D6}"}}, {"type": "Feature", "id": 12034, "geometry": {"type": "Point", "coordinates": [-95.36914408962691, 29.75729688631792]}, "properties": {"StationID": 31203138407, "ADDRESS": "600 DALLAS", "SEGMENT": "SMITH TO LOUISIANA", "REGION": "CBD", "Notes": "", "COLLECTIONTYPE": "MAJOR THOROUGHFARE ADT", "OBJECTID": 12034, "GlobalID": "{7C272448-F09D-49FC-9282-F3FF04542897}"}}, {"type": "Feature", "id": 12035, "geometry": {"type": "Point", "coordinates": [-95.37003940802333, 29.757822630171848]}, "properties": {"StationID": 31200138409, "ADDRESS": "500 DALLAS", "SEGMENT": "BRAZOS TO SMITH", "REGION": "CBD", "Notes": null, "COLLECTIONTYPE": "MAJOR THOROUGHFARE ADT", "OBJECTID": 12035, "GlobalID": "{E86BDBF5-9C64-4501-8884-5E59FE940B84}"}}, {"type": "Feature", "id": 12036, "geometry": {"type": "Point", "coordinates": [-95.3709193201232, 29.75836156898519]}, "properties": {"StationID": 31197138411, "ADDRESS": "400 DALLAS", "SEGMENT": "BAGBY TO BRAZOS", "REGION": "CBD", "Notes": "", "COLLECTIONTYPE": "MAJOR THOROUGHFARE ADT", "OBJECTID": 12036, "GlobalID": "{A9E8FD4F-688B-4411-B951-B9985FBB9629}"}}, {"type": "Feature", "id": 12037, "geometry": {"type": "Point", "coordinates": [-95.37274400236949, 29.759552999970353]}, "properties": {"StationID": 31191138415, "ADDRESS": "300 DALLAS", "SEGMENT": "ALLEN PKWY TO BAGBY", "REGION": "CBD", "Notes": "", "COLLECTIONTYPE": "MAJOR THOROUGHFARE ADT", "OBJECTID": 12037, "GlobalID": "{2B2D1AE1-349E-4135-87CB-044410739355}"}}, {"type": "Feature", "id": 12045, "geometry": {"type": "Point", "coordinates": [-95.37258073662342, 29.757272725526082]}, "properties": {"StationID": 31192138407, "ADDRESS": "300 CLAY", "SEGMENT": "W DALLAS TO SHAW", "REGION": "CBD", "Notes": "R1077", "COLLECTIONTYPE": "MAJOR THOROUGHFARE ADT", "OBJECTID": 12045, "GlobalID": "{292A0F0F-BE72-41B5-8C44-0200C98CAF36}"}}, {"type": "Feature", "id": 12046, "geometry": {"type": "Point", "coordinates": [-95.37143501036978, 29.759543998862267]}, "properties": {"StationID": 31195138415, "ADDRESS": "300 LAMAR", "SEGMENT": "ALLEN PKWY TO BAGBY", "REGION": "CBD", "Notes": null, "COLLECTIONTYPE": "MAJOR THOROUGHFARE ADT", "OBJECTID": 12046, "GlobalID": "{EBC9ED5C-7E82-4777-9AC6-34BE9B3B765A}"}}, {"type": "Feature", "id": 12047, "geometry": {"type": "Point", "coordinates": [-95.3703825698015, 29.75915570254921]}, "properties": {"StationID": 31199138414, "ADDRESS": "400 LAMAR", "SEGMENT": "BAGBY TO BRAZOS", "REGION": "CBD", "Notes": "", "COLLECTIONTYPE": "MAJOR THOROUGHFARE ADT", "OBJECTID": 12047, "GlobalID": "{2BA7447F-DF77-4CF6-8DC8-FC6729B1DC53}"}}, {"type": "Feature", "id": 12048, "geometry": {"type": "Point", "coordinates": [-95.36941026181833, 29.75854855454541]}, "properties": {"StationID": 31202138412, "ADDRESS": "500 LAMAR", "SEGMENT": "BRAZOS TO SMITH", "REGION": "CBD", "Notes": "", "COLLECTIONTYPE": "MAJOR THOROUGHFARE ADT", "OBJECTID": 12048, "GlobalID": "{94A7AE6C-0AFF-442C-89C5-7F9753251FEB}"}}, {"type": "Feature", "id": 12049, "geometry": {"type": "Point", "coordinates": [-95.3685619634161, 29.758027206053008]}, "properties": {"StationID": 31205138410, "ADDRESS": "600 LAMAR", "SEGMENT": "SMITH TO LOUISIANA", "REGION": "CBD", "Notes": null, "COLLECTIONTYPE": "MAJOR THOROUGHFARE ADT", "OBJECTID": 12049, "GlobalID": "{009912A1-E710-40B4-A5C1-024EB6B68B14}"}}, {"type": "Feature", "id": 12050, "geometry": {"type": "Point", "coordinates": [-95.36771425828177, 29.75751026576045]}, "properties": {"StationID": 31207138408, "ADDRESS": "700 LAMAR", "SEGMENT": "LOUISIANA TO MILAM", "REGION": "CBD", "Notes": null, "COLLECTIONTYPE": "MAJOR THOROUGHFARE ADT", "OBJECTID": 12050, "GlobalID": "{3B074DE8-FD4A-4058-87A6-363902B2BAC8}"}}, {"type": "Feature", "id": 12843, "geometry": {"type": "Point", "coordinates": [-95.36711222483027, 29.758247425443127]}, "properties": {"StationID": 31209138411, "ADDRESS": "700 MCKINNEY ST, 77002", "SEGMENT": "LOUISIANA TO MILAM", "REGION": "CBD", "Notes": null, "COLLECTIONTYPE": "MAJOR THOROUGHFARE ADT", "OBJECTID": 12843, "GlobalID": "{CFFFAE76-467E-4197-8858-0C8651D26166}"}}, {"type": "Feature", "id": 12844, "geometry": {"type": "Point", "coordinates": [-95.36796475909486, 29.75883230501207]}, "properties": {"StationID": 31207138413, "ADDRESS": "600 MCKINNEY ST, 77002", "SEGMENT": "SMITH TO LOUISIANA", "REGION": "CBD", "Notes": null, "COLLECTIONTYPE": "MAJOR THOROUGHFARE ADT", "OBJECTID": 12844, "GlobalID": "{D538EDD4-05CB-4DEC-B774-1E6FE177C9BF}"}}, {"type": "Feature", "id": 12845, "geometry": {"type": "Point", "coordinates": [-95.3696797464001, 29.759863290424768]}, "properties": {"StationID": 31201138417, "ADDRESS": "500 MCKINNEY ST, 77002", "SEGMENT": "BAGBY TO SMITH", "REGION": "CBD", "Notes": null, "COLLECTIONTYPE": "MAJOR THOROUGHFARE ADT", "OBJECTID": 12845, "GlobalID": "{2FFEB326-0BFB-46D9-A40D-7E616E22A8EB}"}}, {"type": "Feature", "id": 12846, "geometry": {"type": "Point", "coordinates": [-95.37042600997076, 29.760317007008357]}, "properties": {"StationID": 31199138418, "ADDRESS": "300 MCKINNEY", "SEGMENT": "I-45 TO BAGBY", "REGION": "CBD", "Notes": null, "COLLECTIONTYPE": "MAJOR THOROUGHFARE ADT", "OBJECTID": 12846, "GlobalID": "{92A663B6-A92B-4FA8-B00E-A71EA0BF559F}"}}, {"type": "Feature", "id": 13229, "geometry": {"type": "Point", "coordinates": [-95.36982124552924, 29.760995445353398]}, "properties": {"StationID": 31200138421, "ADDRESS": "300 WALKER", "SEGMENT": "BAGBY TO I-45", "REGION": "CBD", "Notes": null, "COLLECTIONTYPE": "MAJOR THOROUGHFARE ADT", "OBJECTID": 13229, "GlobalID": "{AE4B0BF4-5F8F-4771-8343-3F025BC1A7A4}"}}, {"type": "Feature", "id": 13629, "geometry": {"type": "Point", "coordinates": [-95.36882038859223, 29.760399736110767]}, "properties": {"StationID": 31204138419, "ADDRESS": "500 WALKER ST, 77002", "SEGMENT": "BAGBY TO SMITH", "REGION": "CBD", "Notes": null, "COLLECTIONTYPE": "MAJOR THOROUGHFARE ADT", "OBJECTID": 13629, "GlobalID": "{0BDC950F-80A5-47B1-BAF4-F3FBDB42E989}"}}, {"type": "Feature", "id": 13630, "geometry": {"type": "Point", "coordinates": [-95.36735100643665, 29.7595114522108]}, "properties": {"StationID": 31208138416, "ADDRESS": "600 WALKER ST, 77002", "SEGMENT": "SMITH TO LOUISIANA", "REGION": "CBD", "Notes": "under construction ", "COLLECTIONTYPE": "MAJOR THOROUGHFARE ADT", "OBJECTID": 13630, "GlobalID": "{E32EE2BA-4E20-4773-83B0-F72A89A7066F}"}}, {"type": "Feature", "id": 14029, "geometry": {"type": "Point", "coordinates": [-95.36762546728309, 29.760843385119244]}, "properties": {"StationID": 31207138420, "ADDRESS": "400-500 RUSK", "SEGMENT": "BAGBY TO SMITH", "REGION": "CBD", "Notes": "", "COLLECTIONTYPE": "MAJOR THOROUGHFARE ADT", "OBJECTID": 14029, "GlobalID": "{DC3A65C3-EE1A-4403-9454-DE6AF15F9EC7}"}}, {"type": "Feature", "id": 14031, "geometry": {"type": "Point", "coordinates": [-95.37003658413217, 29.76286087672931]}, "properties": {"StationID": 31199138427, "ADDRESS": "300 RUSK", "SEGMENT": "BAGBY TO HOUSTON AVE", "REGION": "CBD", "Notes": null, "COLLECTIONTYPE": "MAJOR THOROUGHFARE ADT", "OBJECTID": 14031, "GlobalID": "{BC3836D7-38BE-4B3C-9698-95612CD4DDB6}"}}, {"type": "Feature", "id": 14429, "geometry": {"type": "Point", "coordinates": [-95.36985800911107, 29.763045990677288]}, "properties": {"StationID": 31200138428, "ADDRESS": "300 CAPITOL", "SEGMENT": "BAGBY TO HOUSTON AVE", "REGION": "CBD", "Notes": null, "COLLECTIONTYPE": "MAJOR THOROUGHFARE ADT", "OBJECTID": 14429, "GlobalID": "{81BA76EF-C038-421A-AE87-83C5902CBAF7}"}}, {"type": "Feature", "id": 14430, "geometry": {"type": "Point", "coordinates": [-95.36785112796382, 29.761947532119013]}, "properties": {"StationID": 31207138424, "ADDRESS": "400 CAPITOL", "SEGMENT": "BAGBY TO SMITH", "REGION": "CBD", "Notes": "Nowhere to deploy device", "COLLECTIONTYPE": "MAJOR THOROUGHFARE ADT", "OBJECTID": 14430, "GlobalID": "{41CF2C03-572B-4C93-932A-C196207F5596}"}}, {"type": "Feature", "id": 15238, "geometry": {"type": "Point", "coordinates": [-95.36728007936205, 29.76504589963908]}, "properties": {"StationID": 31208138436, "ADDRESS": "300 PRESTON", "SEGMENT": "BAGBY TO FRANKLIN", "REGION": "CBD", "Notes": null, "COLLECTIONTYPE": "MAJOR THOROUGHFARE ADT", "OBJECTID": 15238, "GlobalID": "{7523177E-A7B7-4973-9506-C0F506233C48}"}}, {"type": "Feature", "id": 16430, "geometry": {"type": "Point", "coordinates": [-95.3668750112572, 29.76544800304259]}, "properties": {"StationID": 31209138437, "ADDRESS": "300 FRANKLIN", "SEGMENT": "BAGBY TO PRESTON", "REGION": "CBD", "Notes": null, "COLLECTIONTYPE": "MAJOR THOROUGHFARE ADT", "OBJECTID": 16430, "GlobalID": "{DF0CEE6F-57D0-498D-B26C-D67248A1D2A7}"}}, {"type": "Feature", "id": 16458, "geometry": {"type": "Point", "coordinates": [-95.36681871409975, 29.76423525766738]}, "properties": {"StationID": 31210138433, "ADDRESS": "400 BAGBY", "SEGMENT": "PRESTON TO PRAIRIE", "REGION": "CBD", "Notes": null, "COLLECTIONTYPE": "MAJOR THOROUGHFARE ADT", "OBJECTID": 16458, "GlobalID": "{D62CA63E-E5A7-46AA-BA30-D7BDD92E4263}"}}, {"type": "Feature", "id": 16459, "geometry": {"type": "Point", "coordinates": [-95.36743347746804, 29.763331191387635]}, "properties": {"StationID": 31208138429, "ADDRESS": "500 BAGBY", "SEGMENT": "TEXAS TO PRAIRIE", "REGION": "CBD", "Notes": null, "COLLECTIONTYPE": "MAJOR THOROUGHFARE ADT", "OBJECTID": 16459, "GlobalID": "{00DBE72D-ACE1-4E87-B927-70424AE9A575}"}}, {"type": "Feature", "id": 16460, "geometry": {"type": "Point", "coordinates": [-95.36791162017076, 29.762701798857506]}, "properties": {"StationID": 31206138427, "ADDRESS": "600 BAGBY", "SEGMENT": "TEXAS TO CAPITOL", "REGION": "CBD", "Notes": null, "COLLECTIONTYPE": "MAJOR THOROUGHFARE ADT", "OBJECTID": 16460, "GlobalID": "{7655B3C3-F80D-4F42-9F24-92A5D20D2CE8}"}}, {"type": "Feature", "id": 16461, "geometry": {"type": "Point", "coordinates": [-95.36854864547881, 29.761957522550908]}, "properties": {"StationID": 31204138424, "ADDRESS": "700 BAGBY", "SEGMENT": "RUSK TO CAPITOL", "REGION": "CBD", "Notes": null, "COLLECTIONTYPE": "MAJOR THOROUGHFARE ADT", "OBJECTID": 16461, "GlobalID": "{FE7AD138-1264-4AC3-BE7C-B1F9D70D10C4}"}}, {"type": "Feature", "id": 16462, "geometry": {"type": "Point", "coordinates": [-95.36906259949727, 29.761387425052007]}, "properties": {"StationID": 31203138422, "ADDRESS": "800 BAGBY", "SEGMENT": "WALKER TO RUSK", "REGION": "CBD", "Notes": "", "COLLECTIONTYPE": "MAJOR THOROUGHFARE ADT", "OBJECTID": 16462, "GlobalID": "{DA420E6A-F081-4ECB-BEA3-80BFA59D11DA}"}}, {"type": "Feature", "id": 16463, "geometry": {"type": "Point", "coordinates": [-95.36984786946972, 29.76037931781256]}, "properties": {"StationID": 31200138418, "ADDRESS": "900 BAGBY", "SEGMENT": "MC KINNEY TO WALKER", "REGION": "CBD", "Notes": null, "COLLECTIONTYPE": "MAJOR THOROUGHFARE ADT", "OBJECTID": 16463, "GlobalID": "{6B084896-6494-4789-BEAF-6FEA3C940473}"}}, {"type": "Feature", "id": 16464, "geometry": {"type": "Point", "coordinates": [-95.37029698853213, 29.759800003204788]}, "properties": {"StationID": 31199138416, "ADDRESS": "1000 BAGBY", "SEGMENT": "MCKINNEY TO LAMAR", "REGION": "CBD", "Notes": null, "COLLECTIONTYPE": "MAJOR THOROUGHFARE ADT", "OBJECTID": 16464, "GlobalID": "{DE3EB4CA-FCD2-4DAB-B85E-C16EE4EDA630}"}}, {"type": "Feature", "id": 16465, "geometry": {"type": "Point", "coordinates": [-95.37099062167894, 29.759003130594767]}, "properties": {"StationID": 31197138413, "ADDRESS": "1100 BAGBY", "SEGMENT": "DALLAS TO LAMAR", "REGION": "CBD", "Notes": null, "COLLECTIONTYPE": "MAJOR THOROUGHFARE ADT", "OBJECTID": 16465, "GlobalID": "{7AC78214-0195-482B-A6F4-6230FB88B900}"}}, {"type": "Feature", "id": 16466, "geometry": {"type": "Point", "coordinates": [-95.37168994312678, 29.75796891334165]}, "properties": {"StationID": 31195138409, "ADDRESS": "1200 BAGBY", "SEGMENT": "CLAY TO DALLAS", "REGION": "CBD", "Notes": "", "COLLECTIONTYPE": "MAJOR THOROUGHFARE ADT", "OBJECTID": 16466, "GlobalID": "{8E36E9AD-F231-42C2-B0EF-FF51E98984CB}"}}, {"type": "Feature", "id": 16473, "geometry": {"type": "Point", "coordinates": [-95.37432306902403, 29.75704250060266]}, "properties": {"StationID": 31187138406, "ADDRESS": "300 GULF FRWY", "SEGMENT": "ANDREWS TO W DALLAS", "REGION": "CBD", "Notes": null, "COLLECTIONTYPE": "MAJOR THOROUGHFARE ADT", "OBJECTID": 16473, "GlobalID": "{2160B642-6D44-4E58-8390-38872CE2AF87}"}}, {"type": "Feature", "id": 19262, "geometry": {"type": "Point", "coordinates": [-95.37014247687102, 29.758414895495026]}, "properties": {"StationID": 31200138411, "ADDRESS": "1100 BRAZOS", "SEGMENT": "DALLAS TO LAMAR", "REGION": "CBD", "Notes": null, "COLLECTIONTYPE": "MAJOR THOROUGHFARE ADT", "OBJECTID": 19262, "GlobalID": "{B9CC6498-196D-413C-892F-065046CFE363}"}}, {"type": "Feature", "id": 19270, "geometry": {"type": "Point", "coordinates": [-95.36741260466712, 29.758672478842254]}, "properties": {"StationID": 31208138412, "ADDRESS": "900 LOUISIANA", "SEGMENT": "WALKER TO MCKINNEY", "REGION": "CBD", "Notes": null, "COLLECTIONTYPE": "MAJOR THOROUGHFARE ADT", "OBJECTID": 19270, "GlobalID": "{4E5C3A6C-0307-4A5E-980B-76065E0F7EFD}"}}, {"type": "Feature", "id": 19271, "geometry": {"type": "Point", "coordinates": [-95.36774401365875, 29.75825800546093]}, "properties": {"StationID": 31207138411, "ADDRESS": "1000 LOUISIANA", "SEGMENT": "MCKINNEY TO LAMAR", "REGION": "CBD", "Notes": null, "COLLECTIONTYPE": "MAJOR THOROUGHFARE ADT", "OBJECTID": 19271, "GlobalID": "{A7F5844C-79B2-401B-B8BA-6500ED5423FB}"}}, {"type": "Feature", "id": 19272, "geometry": {"type": "Point", "coordinates": [-95.36846944664956, 29.75734320454125]}, "properties": {"StationID": 31205138408, "ADDRESS": "1100 LOUISIANA", "SEGMENT": "LAMAR TO DALLAS", "REGION": "CBD", "Notes": null, "COLLECTIONTYPE": "MAJOR THOROUGHFARE ADT", "OBJECTID": 19272, "GlobalID": "{6AD70AF3-4D39-4684-83F4-49683A9929F4}"}}, {"type": "Feature", "id": 19273, "geometry": {"type": "Point", "coordinates": [-95.36909442352469, 29.756522662076673]}, "properties": {"StationID": 31203138404, "ADDRESS": "1200 LOUISIANA", "SEGMENT": "DALLAS TO POLK", "REGION": "CBD", "Notes": null, "COLLECTIONTYPE": "MAJOR THOROUGHFARE ADT", "OBJECTID": 19273, "GlobalID": "{40676157-873A-49BC-96FF-2380AB015C2A}"}}, {"type": "Feature", "id": 19687, "geometry": {"type": "Point", "coordinates": [-95.36694844059753, 29.760903718699332]}, "properties": {"StationID": 31209138421, "ADDRESS": "700 SMITH", "SEGMENT": "CAPITOL TO RUSK", "REGION": "CBD", "Notes": null, "COLLECTIONTYPE": "MAJOR THOROUGHFARE ADT", "OBJECTID": 19687, "GlobalID": "{4A6B1D9A-1191-422F-B9A7-4EC086608EA6}"}}, {"type": "Feature", "id": 19688, "geometry": {"type": "Point", "coordinates": [-95.3674918831711, 29.760194548290837]}, "properties": {"StationID": 31208138418, "ADDRESS": "800 SMITH", "SEGMENT": "RUSK TO WALKER", "REGION": "CBD", "Notes": "", "COLLECTIONTYPE": "MAJOR THOROUGHFARE ADT", "OBJECTID": 19688, "GlobalID": "{9367F702-42D3-4EFE-BCA9-8168F37BBEBD}"}}, {"type": "Feature", "id": 19689, "geometry": {"type": "Point", "coordinates": [-95.36813166199666, 29.759404456832378]}, "properties": {"StationID": 31206138415, "ADDRESS": "900 SMITH", "SEGMENT": "WALKER TO MCKINNEY", "REGION": "CBD", "Notes": null, "COLLECTIONTYPE": "MAJOR THOROUGHFARE ADT", "OBJECTID": 19689, "GlobalID": "{A4405B27-5C4A-4258-B3A4-97E0F647FCBC}"}}, {"type": "Feature", "id": 19690, "geometry": {"type": "Point", "coordinates": [-95.36862899131044, 29.758743005358017]}, "properties": {"StationID": 31204138413, "ADDRESS": "1000 SMITH", "SEGMENT": "MCKINNEY TO LAMAR", "REGION": "CBD", "Notes": "", "COLLECTIONTYPE": "MAJOR THOROUGHFARE ADT", "OBJECTID": 19690, "GlobalID": "{EBC31186-43CA-4538-847B-E93C09D4DD50}"}}, {"type": "Feature", "id": 19691, "geometry": {"type": "Point", "coordinates": [-95.36929943082083, 29.75789365068039]}, "properties": {"StationID": 31202138409, "ADDRESS": "1100 SMITH", "SEGMENT": "LAMAR TO DALLAS", "REGION": "CBD", "Notes": null, "COLLECTIONTYPE": "MAJOR THOROUGHFARE ADT", "OBJECTID": 19691, "GlobalID": "{69D8EE0A-2615-4018-AAB0-0F2CCA303F41}"}}, {"type": "Feature", "id": 19692, "geometry": {"type": "Point", "coordinates": [-95.37006254914135, 29.756922414178774]}, "properties": {"StationID": 31200138406, "ADDRESS": "1200 SMITH", "SEGMENT": "DALLAS TO POLK", "REGION": "CBD", "Notes": null, "COLLECTIONTYPE": "MAJOR THOROUGHFARE ADT", "OBJECTID": 19692, "GlobalID": "{B8B7FF0A-FFBA-481F-B817-266427936985}"}}, {"type": "Feature", "id": 21664, "geometry": {"type": "Point", "coordinates": [-95.39872901149212, 29.778485995879297]}, "properties": {"StationID": 31107138481, "ADDRESS": "400 YALE", "SEGMENT": "KATY FWY TO WHITE OAK", "REGION": "NW", "Notes": null, "COLLECTIONTYPE": "MAJOR THOROUGHFARE ADT", "OBJECTID": 21664, "GlobalID": "{F66B2C0C-0725-4DBA-B6F9-EF9A12D6CFE6}"}}, {"type": "Feature", "id": 21667, "geometry": {"type": "Point", "coordinates": [-95.3986435799726, 29.773153401143762]}, "properties": {"StationID": 31108138462, "ADDRESS": "125 YALE", "SEGMENT": "WASHINGTON TO KATY FWY", "REGION": "SW", "Notes": null, "COLLECTIONTYPE": "MAJOR THOROUGHFARE ADT", "OBJECTID": 21667, "GlobalID": "{8358A7DF-5441-47F5-B8BC-66C4894AEEC9}"}}, {"type": "Feature", "id": 25273, "geometry": {"type": "Point", "coordinates": [-95.3924247003322, 29.76250727334621]}, "properties": {"StationID": 31129138424, "ADDRESS": "600 STUDEMONT", "SEGMENT": "ALLEN PKWY TO MEMORIAL", "REGION": "SW", "Notes": null, "COLLECTIONTYPE": "MAJOR THOROUGHFARE ADT", "OBJECTID": 25273, "GlobalID": "{EFD71B73-311B-4841-A1D6-1F6B07C05148}"}}, {"type": "Feature", "id": 25281, "geometry": {"type": "Point", "coordinates": [-95.3680439935764, 29.763306002903708]}, "properties": {"StationID": 31206138429, "ADDRESS": "100 TEXAS", "SEGMENT": "BAGBY TO HOUSTON AVE", "REGION": "CBD", "Notes": null, "COLLECTIONTYPE": "MAJOR THOROUGHFARE ADT", "OBJECTID": 25281, "GlobalID": "{2AAB5F90-2B50-41F2-88BC-335C546B4003}"}}, {"type": "Feature", "id": 25282, "geometry": {"type": "Point", "coordinates": [-95.36762403484147, 29.763635922176725]}, "properties": {"StationID": 31207138430, "ADDRESS": "100 PRAIRIE", "SEGMENT": "BAGBY TO I-45", "REGION": "CBD", "Notes": null, "COLLECTIONTYPE": "MAJOR THOROUGHFARE ADT", "OBJECTID": 25282, "GlobalID": "{1FB9CF32-D5BB-4BD2-9108-1945D961FB31}"}}, {"type": "Feature", "id": 25314, "geometry": {"type": "Point", "coordinates": [-95.37357315584724, 29.757811068295805]}, "properties": {"StationID": 31189138409, "ADDRESS": "300 W DALLAS", "SEGMENT": "CLAY TO FULLER", "REGION": "CBD", "Notes": null, "COLLECTIONTYPE": "MAJOR THOROUGHFARE ADT", "OBJECTID": 25314, "GlobalID": "{B754D7B5-D3DE-40B2-907D-0C483B6B7415}"}}, {"type": "Feature", "id": 25328, "geometry": {"type": "Point", "coordinates": [-95.36755395376308, 29.7569061559697]}, "properties": {"StationID": 31208138406, "ADDRESS": "1100 MILAM", "SEGMENT": "DALLAS TO LAMAR", "REGION": "CBD", "Notes": null, "COLLECTIONTYPE": "MAJOR THOROUGHFARE ADT", "OBJECTID": 25328, "GlobalID": "{62B605AB-29CE-48B3-BCBA-C543324619E7}"}}, {"type": "Feature", "id": 25343, "geometry": {"type": "Point", "coordinates": [-95.40941500370832, 29.767878991874895]}, "properties": {"StationID": 31074138442, "ADDRESS": "611 SHEPHERD", "SEGMENT": "DURHAM TO WASHINGTON", "REGION": "SW", "Notes": null, "COLLECTIONTYPE": "MAJOR THOROUGHFARE ADT", "OBJECTID": 25343, "GlobalID": "{E07B766B-E55F-4A19-BA72-3A609DE4027E}"}}, {"type": "Feature", "id": 25468, "geometry": {"type": "Point", "coordinates": [-95.37256380515842, 29.757240009460798]}, "properties": {"StationID": 31192138407, "ADDRESS": "300 POLK", "SEGMENT": "SHAW TO W DALLAS", "REGION": "CBD", "Notes": null, "COLLECTIONTYPE": "MAJOR THOROUGHFARE ADT", "OBJECTID": 25468, "GlobalID": "{437998BE-02A5-49F4-8DC3-104D6E1E4397}"}}, {"type": "Feature", "id": 25494, "geometry": {"type": "Point", "coordinates": [-95.40848099248716, 29.757942008317436]}, "properties": {"StationID": 31078138406, "ADDRESS": "900 S SHEPHERD", "SEGMENT": "W DALLAS TO DURHAM", "REGION": "SW", "Notes": null, "COLLECTIONTYPE": "MAJOR THOROUGHFARE ADT", "OBJECTID": 25494, "GlobalID": "{2160D13E-20A4-4B56-BC27-7374FB144D34}"}}, {"type": "Feature", "id": 26061, "geometry": {"type": "Point", "coordinates": [-95.38147698857017, 29.775384997334974]}, "properties": {"StationID": 31162138472, "ADDRESS": "2200 SAWYER", "SEGMENT": "CROCKETT TO WHITE OAK", "REGION": "SW", "Notes": null, "COLLECTIONTYPE": "MAJOR THOROUGHFARE ADT", "OBJECTID": 26061, "GlobalID": "{65E0D5E6-AA5D-4C86-BEB2-6466FBED6D90}"}}, {"type": "Feature", "id": 27402, "geometry": {"type": "Point", "coordinates": [-95.39734090065853, 29.771897675260217]}, "properties": {"StationID": 31112138458, "ADDRESS": "100 HEIGHTS", "SEGMENT": "WASHINGTON TO KATY FWY", "REGION": "SW", "Notes": null, "COLLECTIONTYPE": "MAJOR THOROUGHFARE ADT", "OBJECTID": 27402, "GlobalID": "{27504ADB-6794-4787-8E12-C3568CD6E803}"}}, {"type": "Feature", "id": 27643, "geometry": {"type": "Point", "coordinates": [-95.37263269076162, 29.780842324892546]}, "properties": {"StationID": 31189138493, "ADDRESS": "1450 WHITE OAK DR", "SEGMENT": "HOUSTON AVE TO BEAUCHAMP ST", "REGION": "NW", "Notes": "", "COLLECTIONTYPE": "MAJOR THOROUGHFARE ADT", "OBJECTID": 27643, "GlobalID": "{24D77C8E-6556-4D61-B137-FA8C278F82A7}"}}, {"type": "Feature", "id": 27645, "geometry": {"type": "Point", "coordinates": [-95.39877302148557, 29.76259122636087]}, "properties": {"StationID": 31108138428, "ADDRESS": "200 WAUGH", "SEGMENT": "MEMORIAL TO ALLEN PKWY", "REGION": "SW", "Notes": null, "COLLECTIONTYPE": "MAJOR THOROUGHFARE ADT", "OBJECTID": 27645, "GlobalID": "{2D4D912D-423C-4728-A06A-13C13A6F4095}"}}, {"type": "Feature", "id": 46518, "geometry": {"type": "Point", "coordinates": [-95.38785856606182, 29.757572718294178]}, "properties": {"StationID": 31144138406, "ADDRESS": "1950 W. DALLAS", "SEGMENT": "TAFT TO MONTROSE", "REGION": "SW", "Notes": "", "COLLECTIONTYPE": "MAJOR THOROUGHFARE ADT", "OBJECTID": 46518, "GlobalID": "{22A3898E-904E-4ACA-9A3C-64DD1C81AD14}"}}]}