{"type": "FeatureCollection", "features": [{"type": "Feature", "id": 26554, "geometry": {"type": "Point", "coordinates": [-95.40957672855299, 29.75893127684297]}, "properties": {"StationID": 31075138409, "ADDRESS": "2105 TROON", "SEGMENT": "KIRBY TO DENMAN", "REGION": "SW", "Notes": null, "COLLECTIONTYPE": "LOCAL STREET ADT", "OBJECTID": 26554, "GlobalID": "{FCCFF4F4-EA12-46A3-B02D-9061057EA655}"}}, {"type": "Feature", "id": 26555, "geometry": {"type": "Point", "coordinates": [-95.41354747033344, 29.75841328928827]}, "properties": {"StationID": 31062138407, "ADDRESS": "2400 DEMMAN", "SEGMENT": "KIRBY TO TROON", "REGION": "SW", "Notes": null, "COLLECTIONTYPE": "LOCAL STREET ADT", "OBJECTID": 26555, "GlobalID": "{F5514EC0-5570-4DBD-9309-07909C5FF176}"}}, {"type": "Feature", "id": 26669, "geometry": {"type": "Point", "coordinates": [-95.41257068356236, 29.774077129697726]}, "properties": {"StationID": 31063138464, "ADDRESS": "1500 ROY", "SEGMENT": "MAXIE TO EIGEL", "REGION": "SW", "Notes": null, "COLLECTIONTYPE": "LOCAL STREET ADT", "OBJECTID": 26669, "GlobalID": "{D0A21BDA-3542-49F5-8248-9DE0B94D8D58}"}}, {"type": "Feature", "id": 26828, "geometry": {"type": "Point", "coordinates": [-95.41253537339827, 29.771890806256483]}, "properties": {"StationID": 31064138456, "ADDRESS": "1100 ROY", "SEGMENT": "NETT TO CENTER", "REGION": "SW", "Notes": null, "COLLECTIONTYPE": "LOCAL STREET ADT", "OBJECTID": 26828, "GlobalID": "{93D390E3-5D09-4FFF-9AD8-DDA2A7C05B2E}"}}, {"type": "Feature", "id": 26835, "geometry": {"type": "Point", "coordinates": [-95.41260888456412, 29.776259320945368]}, "properties": {"StationID": 31063138472, "ADDRESS": "1800 ROY", "SEGMENT": "NOLDA TO INKER", "REGION": "SW", "Notes": null, "COLLECTIONTYPE": "LOCAL STREET ADT", "OBJECTID": 26835, "GlobalID": "{3D996691-3CA8-4059-96CC-251970BAB9D9}"}}]}