{"type":"FeatureCollection","features":[{"type":"Feature","geometry":{"type":"Point","coordinates":[-95.3670200002521,29.7809000003842]},"properties":{"Address":"2406 THOMAS ST HOUSTON TX 77009","ArrivalTime":1716137266219,"Latitude":29.7809,"Longitude":-95.36702,"Serviced":"Yes"}},{"type":"Feature","geometry":{"type":"Point","coordinates":[-95.3677499999981,29.7811999996717]},"properties":{"Address":"2418 SOUTH ST HOUSTON TX 77009","ArrivalTime":1716137868380,"Latitude":29.7812,"Longitude":-95.36775,"Serviced":"Yes"}},{"type":"Feature","geometry":{"type":"Point","coordinates":[-95.3676300003475,29.7814099998076]},"properties":{"Address":"110 CARL ST HOUSTON TX 77009","ArrivalTime":1716138003763,"Latitude":29.78141,"Longitude":-95.36763,"Serviced":"Yes"}},{"type":"Feature","geometry":{"type":"Point","coordinates":[-95.3676300003475,29.7814099998076]},"properties":{"Address":"110 CARL ST HOUSTON TX 77009","ArrivalTime":1716138121946,"Latitude":29.78141,"Longitude":-95.36763,"Serviced":"Yes"}},{"type":"Feature","geometry":{"type":"Point","coordinates":[-95.3670200002521,29.7809000003842]},"properties":{"Address":"2406 THOMAS ST HOUSTON TX 77009","ArrivalTime":1716138148284,"Latitude":29.7809,"Longitude":-95.36702,"Serviced":"Yes"}},{"type":"Feature","geometry":{"type":"Point","coordinates":[-95.4185599997537,29.7817099999059]},"properties":{"Address":"541 T C JESTER ST HOUSTON TX 77007","ArrivalTime":1716320790638,"Latitude":29.78171,"Longitude":-95.41856,"Serviced":"Yes"}},{"type":"Feature","geometry":{"type":"Point","coordinates":[-95.3794799997555,29.785510000006]},"properties":{"Address":"705 EUCLID ST HOUSTON TX 77009","ArrivalTime":1716326100544,"Latitude":29.78551,"Longitude":-95.37948,"Serviced":"Yes"}},{"type":"Feature","geometry":{"type":"Point","coordinates":[-95.3794799997555,29.785510000006]},"properties":{"Address":"705 EUCLID ST HOUSTON TX 77009","ArrivalTime":1716326161553,"Latitude":29.78551,"Longitude":-95.37948,"Serviced":"Yes"}},{"type":"Feature","geometry":{"type":"Point","coordinates":[-95.3810899999336,29.7854199999007]},"properties":{"Address":"807 EUCLID ST HOUSTON TX 77009","ArrivalTime":1716326498313,"Latitude":29.78542,"Longitude":-95.38109,"Serviced":"Yes"}},{"type":"Feature","geometry":{"type":"Point","coordinates":[-95.4010599996538,29.7816200002827]},"properties":{"Address":"603 RUTLAND ST HOUSTON TX 77007","ArrivalTime":1716822349222,"Latitude":29.78162,"Longitude":-95.40106,"Serviced":"Yes"}},{"type":"Feature","geometry":{"type":"Point","coordinates":[-95.3690899998394,29.7588899997319]},"properties":{"Address":"550 MCKINNEY ST HOUSTON TX 77002","ArrivalTime":1722998100941,"Latitude":29.75889,"Longitude":-95.36909,"Serviced":"Yes"}},{"type":"Feature","geometry":{"type":"Point","coordinates":[-95.4013409998612,29.7839790001722]},"properties":{"Address":"717 RUTLAND ST HOUSTON TX 77007","ArrivalTime":1723216284390,"Latitude":29.783979,"Longitude":-95.401341,"Serviced":"Yes"}},{"type":"Feature","geometry":{"type":"Point","coordinates":[-95.4007199998952,29.783929999826]},"properties":{"Address":"718 RUTLAND ST HOUSTON TX 77007","ArrivalTime":1723216298104,"Latitude":29.78393,"Longitude":-95.40072,"Serviced":"Yes"}},{"type":"Feature","geometry":{"type":"Point","coordinates":[-95.4035300001725,29.7687399996855]},"properties":{"Address":"813 OLIVE ST HOUSTON TX 77007","ArrivalTime":1723217224614,"Latitude":29.76874,"Longitude":-95.40353,"Serviced":"Yes"}},{"type":"Feature","geometry":{"type":"Point","coordinates":[-95.3778329997675,29.7731790002403]},"properties":{"Address":"1914 SUMMER ST HOUSTON TX 77007","ArrivalTime":1723217862727,"Latitude":29.773179,"Longitude":-95.377833,"Serviced":"Yes"}},{"type":"Feature","geometry":{"type":"Point","coordinates":[-95.3801300000338,29.7581299999864]},"properties":{"Address":"1222 W DALLAS ST HOUSTON TX 77019","ArrivalTime":1723218472818,"Latitude":29.75813,"Longitude":-95.38013,"Serviced":"Yes"}},{"type":"Feature","geometry":{"type":"Point","coordinates":[-95.3698399996769,29.7583700002414]},"properties":{"Address":"830 W 42ND ST HOUSTON TX 77018","ArrivalTime":1723220441552,"Latitude":29.75837,"Longitude":-95.36984,"Serviced":"Yes"}},{"type":"Feature","geometry":{"type":"Point","coordinates":[-95.3690899998394,29.7588899997319]},"properties":{"Address":"550 MCKINNEY ST HOUSTON TX 77002","ArrivalTime":1723389901743,"Latitude":29.75889,"Longitude":-95.36909,"Serviced":"Yes"}},{"type":"Feature","geometry":{"type":"Point","coordinates":[-95.3693600001761,29.7601900003001]},"properties":{"Address":"901 BAGBY ST HOUSTON TX 77002","ArrivalTime":1723390081567,"Latitude":29.76019,"Longitude":-95.36936,"Serviced":"No"}},{"type":"Feature","geometry":{"type":"Point","coordinates":[-95.3693600001761,29.7601900003001]},"properties":{"Address":"901 BAGBY ST HOUSTON TX 77002","ArrivalTime":1723489988488,"Latitude":29.76019,"Longitude":-95.36936,"Serviced":"No"}},{"type":"Feature","geometry":{"type":"Point","coordinates":[-95.3690899998394,29.7588899997319]},"properties":{"Address":"550 MCKINNEY ST HOUSTON TX 77002","ArrivalTime":1723490027896,"Latitude":29.75889,"Longitude":-95.36909,"Serviced":"Yes"}},{"type":"Feature","geometry":{"type":"Point","coordinates":[-95.3935899996199,29.7816899998234]},"properties":{"Address":"3320 WHITE OAK DR HOUSTON TX 77007","ArrivalTime":1724170997624,"Latitude":29.78169,"Longitude":-95.39359,"Serviced":"Yes"}},{"type":"Feature","geometry":{"type":"Point","coordinates":[-95.374959999741,29.7832100001675]},"properties":{"Address":"2716 FLORENCE ST HOUSTON TX 77009","ArrivalTime":1724171721473,"Latitude":29.78321,"Longitude":-95.37496,"Serviced":"Yes"}},{"type":"Feature","geometry":{"type":"Point","coordinates":[-95.417530000432,29.7825599997208]},"properties":{"Address":"5335 EGBERT ST HOUSTON TX 77007","ArrivalTime":1724342557943,"Latitude":29.78256,"Longitude":-95.41753,"Serviced":"Yes"}},{"type":"Feature","geometry":{"type":"Point","coordinates":[-95.4022199995701,29.7660200003068]},"properties":{"Address":"505 JACKSON HILL ST HOUSTON TX 77007","ArrivalTime":1725647520362,"Latitude":29.76602,"Longitude":-95.40222,"Serviced":"Yes"}},{"type":"Feature","geometry":{"type":"Point","coordinates":[-95.3928499998282,29.7801799999862]},"properties":{"Address":"516 COLUMBIA ST HOUSTON TX 77007","ArrivalTime":1725648601272,"Latitude":29.78018,"Longitude":-95.39285,"Serviced":"Yes"}},{"type":"Feature","geometry":{"type":"Point","coordinates":[-95.4257200001662,29.7721999996444]},"properties":{"Address":"6308 TAGGART ST HOUSTON TX 77007","ArrivalTime":1726418785979,"Latitude":29.7722,"Longitude":-95.42572,"Serviced":"Yes"}},{"type":"Feature","geometry":{"type":"Point","coordinates":[-95.4130499997022,29.7676899997731]},"properties":{"Address":"5114 BLOSSOM ST HOUSTON TX 77007","ArrivalTime":1726419500927,"Latitude":29.76769,"Longitude":-95.41305,"Serviced":"Yes"}},{"type":"Feature","geometry":{"type":"Point","coordinates":[-95.4135900003757,29.766269999622]},"properties":{"Address":"403 REINERMAN ST HOUSTON TX 77007","ArrivalTime":1726419813488,"Latitude":29.76627,"Longitude":-95.41359,"Serviced":"Yes"}},{"type":"Feature","geometry":{"type":"Point","coordinates":[-95.3982000000461,29.7682500001083]},"properties":{"Address":"26 WAUGH DR HOUSTON TX 77007","ArrivalTime":1726584485669,"Latitude":29.76825,"Longitude":-95.3982,"Serviced":"Yes"}},{"type":"Feature","geometry":{"type":"Point","coordinates":[-95.4085000004488,29.759780000172]},"properties":{"Address":"SHEPHERD DR ALLEN PKWY HOUSTON TX 77019","ArrivalTime":1727197728871,"Latitude":29.75978,"Longitude":-95.4085,"Serviced":"Yes"}},{"type":"Feature","geometry":{"type":"Point","coordinates":[-95.3697099999805,29.7696599998007]},"properties":{"Address":"1205 DART ST HOUSTON TX 77007","ArrivalTime":1727198426723,"Latitude":29.76966,"Longitude":-95.36971,"Serviced":"Yes"}},{"type":"Feature","geometry":{"type":"Point","coordinates":[-95.3797800002294,29.7637400001902]},"properties":{"Address":"2100 MEMORIAL DR HOUSTON TX 77007","ArrivalTime":1727198761196,"Latitude":29.76374,"Longitude":-95.37978,"Serviced":"Yes"}},{"type":"Feature","geometry":{"type":"Point","coordinates":[-95.4095699999534,29.7826600000042]},"properties":{"Address":"700 N SHEPHERD DR HOUSTON TX 77007","ArrivalTime":1727460242744,"Latitude":29.78266,"Longitude":-95.40957,"Serviced":"Yes"}},{"type":"Feature","geometry":{"type":"Point","coordinates":[-95.4050299998474,29.7752899997961]},"properties":{"Address":"4346 SPENCER ST HOUSTON TX 77007","ArrivalTime":1728232122912,"Latitude":29.77529,"Longitude":-95.40503,"Serviced":"Yes"}},{"type":"Feature","geometry":{"type":"Point","coordinates":[-95.3697099999805,29.7581700001987]},"properties":{"Address":"1100 SMITH ST HOUSTON TX 77002","ArrivalTime":1728249684160,"Latitude":29.75817,"Longitude":-95.36971,"Serviced":"Yes"}},{"type":"Feature","geometry":{"type":"Point","coordinates":[-95.4097900000614,29.7816799997806]},"properties":{"Address":"551 N SHEPHERD DR HOUSTON TX 77007","ArrivalTime":1728840400301,"Latitude":29.78168,"Longitude":-95.40979,"Serviced":"Yes"}},{"type":"Feature","geometry":{"type":"Point","coordinates":[-95.4099900000779,29.7679000001682]},"properties":{"Address":"611 SHEPHERD DR HOUSTON TX 77007","ArrivalTime":1728841025883,"Latitude":29.7679,"Longitude":-95.40999,"Serviced":"Yes"}},{"type":"Feature","geometry":{"type":"Point","coordinates":[-95.4064700001461,29.7781500002463]},"properties":{"Address":"2017 PATTERSON ST HOUSTON TX 77007","ArrivalTime":1730065743178,"Latitude":29.77815,"Longitude":-95.40647,"Serviced":"Yes"}},{"type":"Feature","geometry":{"type":"Point","coordinates":[-95.4145100000924,29.771600000046]},"properties":{"Address":"1121 MOY ST HOUSTON TX 77007","ArrivalTime":1730065788985,"Latitude":29.7716,"Longitude":-95.41451,"Serviced":"Yes"}},{"type":"Feature","geometry":{"type":"Point","coordinates":[-95.4176400000369,29.7614499999329]},"properties":{"Address":"5498 MEMORIAL DR HOUSTON TX 77007","ArrivalTime":1730065827070,"Latitude":29.76145,"Longitude":-95.41764,"Serviced":"Yes"}},{"type":"Feature","geometry":{"type":"Point","coordinates":[-95.380200000354,29.7659900001598]},"properties":{"Address":"2115 KANE ST HOUSTON TX 77007","ArrivalTime":1730065861792,"Latitude":29.76599,"Longitude":-95.3802,"Serviced":"Yes"}},{"type":"Feature","geometry":{"type":"Point","coordinates":[-95.3701600002423,29.7600800003353]},"properties":{"Address":"1000 BAGBY ST HOUSTON TX 77002","ArrivalTime":1730065901573,"Latitude":29.76008,"Longitude":-95.37016,"Serviced":"Yes"}},{"type":"Feature","geometry":{"type":"Point","coordinates":[-95.4275999997827,29.7756500002898]},"properties":{"Address":"6515 WESTCOTT ST HOUSTON TX 77007","ArrivalTime":1730066297772,"Latitude":29.77565,"Longitude":-95.4276,"Serviced":"Yes"}},{"type":"Feature","geometry":{"type":"Point","coordinates":[-95.4285699997281,29.779519999881]},"properties":{"Address":"5845 DARLING ST HOUSTON TX 77007","ArrivalTime":1730236155843,"Latitude":29.77952,"Longitude":-95.42857,"Serviced":"Yes"}},{"type":"Feature","geometry":{"type":"Point","coordinates":[-95.428759999699,29.7821399999345]},"properties":{"Address":"5854 KANSAS ST HOUSTON TX 77007","ArrivalTime":1730236836141,"Latitude":29.78214,"Longitude":-95.42876,"Serviced":"Yes"}},{"type":"Feature","geometry":{"type":"Point","coordinates":[-95.402079999828,29.7686000003851]},"properties":{"Address":"805 JACKSON HILL ST HOUSTON TX 77007","ArrivalTime":1730397134443,"Latitude":29.7686,"Longitude":-95.40208,"Serviced":"Yes"}},{"type":"Feature","geometry":{"type":"Point","coordinates":[-95.377079999557,29.766289999665]},"properties":{"Address":"1820 KANE ST HOUSTON TX 77007","ArrivalTime":1730398404852,"Latitude":29.76629,"Longitude":-95.37708,"Serviced":"Yes"}},{"type":"Feature","geometry":{"type":"Point","coordinates":[-95.3670000001606,29.7686199999629]},"properties":{"Address":"1100 ELDER ST HOUSTON TX 77007","ArrivalTime":1730400637068,"Latitude":29.76862,"Longitude":-95.367,"Serviced":"Yes"}},{"type":"Feature","geometry":{"type":"Point","coordinates":[-95.367610000256,29.7652200003332]},"properties":{"Address":"411 NORTH FWY HOUSTON TX 77002","ArrivalTime":1730676089125,"Latitude":29.76522,"Longitude":-95.36761,"Serviced":"Yes"}},{"type":"Feature","geometry":{"type":"Point","coordinates":[-95.3681099998482,29.7615899998672]},"properties":{"Address":"701 BRAZOS ST HOUSTON TX 77002","ArrivalTime":1730676123797,"Latitude":29.76159,"Longitude":-95.36811,"Serviced":"Yes"}},{"type":"Feature","geometry":{"type":"Point","coordinates":[-95.3760400001896,29.7657400001459]},"properties":{"Address":"1808 LUBBOCK ST HOUSTON TX 77007","ArrivalTime":1730836821973,"Latitude":29.76574,"Longitude":-95.37604,"Serviced":"Yes"}},{"type":"Feature","geometry":{"type":"Point","coordinates":[-95.4312700004006,29.7812199998521]},"properties":{"Address":"6008 KIAM ST HOUSTON TX 77007","ArrivalTime":1731617719071,"Latitude":29.78122,"Longitude":-95.43127,"Serviced":"Yes"}},{"type":"Feature","geometry":{"type":"Point","coordinates":[-95.4312700004006,29.7812199998521]},"properties":{"Address":"6008 KIAM ST HOUSTON TX 77007","ArrivalTime":1731617733783,"Latitude":29.78122,"Longitude":-95.43127,"Serviced":"Yes"}},{"type":"Feature","geometry":{"type":"Point","coordinates":[-95.431359999914,29.7812800003695]},"properties":{"Address":"2503 MAXROY ST HOUSTON TX 77007","ArrivalTime":1731617778705,"Latitude":29.78128,"Longitude":-95.43136,"Serviced":"Yes"}},{"type":"Feature","geometry":{"type":"Point","coordinates":[-95.4211199997857,29.7814800002748]},"properties":{"Address":"5522 KIAM ST HOUSTON TX 77007","ArrivalTime":1731617880017,"Latitude":29.78148,"Longitude":-95.42112,"Serviced":"Yes"}},{"type":"Feature","geometry":{"type":"Point","coordinates":[-95.4133800003134,29.778259999862]},"properties":{"Address":"5115 CORNISH ST HOUSTON TX 77007","ArrivalTime":1731618964014,"Latitude":29.77826,"Longitude":-95.41338,"Serviced":"Yes"}},{"type":"Feature","geometry":{"type":"Point","coordinates":[-95.4133800003134,29.778259999862]},"properties":{"Address":"5115 CORNISH ST HOUSTON TX 77007","ArrivalTime":1731618969381,"Latitude":29.77826,"Longitude":-95.41338,"Serviced":"Yes"}},{"type":"Feature","geometry":{"type":"Point","coordinates":[-95.3745699997536,29.7738499996948]},"properties":{"Address":"1620 CROCKETT ST HOUSTON TX 77007","ArrivalTime":1731702040488,"Latitude":29.77385,"Longitude":-95.37457,"Serviced":"Yes"}},{"type":"Feature","geometry":{"type":"Point","coordinates":[-95.3745699997536,29.7738499996948]},"properties":{"Address":"1620 CROCKETT ST HOUSTON TX 77007","ArrivalTime":1731704191074,"Latitude":29.77385,"Longitude":-95.37457,"Serviced":"Yes"}},{"type":"Feature","geometry":{"type":"Point","coordinates":[-95.3745699997536,29.7738499996948]},"properties":{"Address":"1620 CROCKETT ST HOUSTON TX 77007","ArrivalTime":1731704226102,"Latitude":29.77385,"Longitude":-95.37457,"Serviced":"Yes"}},{"type":"Feature","geometry":{"type":"Point","coordinates":[-95.4175999998539,29.77817999987]},"properties":{"Address":"5352 KATY FWY HOUSTON TX 77007","ArrivalTime":1731854489499,"Latitude":29.77818,"Longitude":-95.4176,"Serviced":"Yes"}},{"type":"Feature","geometry":{"type":"Point","coordinates":[-95.4049600004255,29.7742999999526]},"properties":{"Address":"4314 KOEHLER ST HOUSTON TX 77007","ArrivalTime":1731854904581,"Latitude":29.7743,"Longitude":-95.40496,"Serviced":"Yes"}},{"type":"Feature","geometry":{"type":"Point","coordinates":[-95.4076099999709,29.759369999926]},"properties":{"Address":"911 S SHEPHERD DR HOUSTON TX 77019","ArrivalTime":1731855901449,"Latitude":29.75937,"Longitude":-95.40761,"Serviced":"Yes"}},{"type":"Feature","geometry":{"type":"Point","coordinates":[-95.3737200003571,29.7737900001834]},"properties":{"Address":"1803 JOHNSON ST HOUSTON TX 77007","ArrivalTime":1731959126702,"Latitude":29.77379,"Longitude":-95.37372,"Serviced":"Yes"}},{"type":"Feature","geometry":{"type":"Point","coordinates":[-95.3927400002233,29.7731199999489]},"properties":{"Address":"3236 SUMMER ST HOUSTON TX 77007","ArrivalTime":1731959761369,"Latitude":29.77312,"Longitude":-95.39274,"Serviced":"Yes"}},{"type":"Feature","geometry":{"type":"Point","coordinates":[-95.4180900002987,29.7791700003399]},"properties":{"Address":"450 T C JESTER BLVD HOUSTON TX 77007","ArrivalTime":1732137226829,"Latitude":29.77917,"Longitude":-95.41809,"Serviced":"Yes"}},{"type":"Feature","geometry":{"type":"Point","coordinates":[-95.4180900002987,29.7791700003399]},"properties":{"Address":"450 T C JESTER BLVD HOUSTON TX 77007","ArrivalTime":1732137135801,"Latitude":29.77917,"Longitude":-95.41809,"Serviced":"Yes"}},{"type":"Feature","geometry":{"type":"Point","coordinates":[-95.3859000003763,29.7794599998683]},"properties":{"Address":"1030 STUDE ST HOUSTON TX 77009","ArrivalTime":1732138143781,"Latitude":29.77946,"Longitude":-95.3859,"Serviced":"Yes"}},{"type":"Feature","geometry":{"type":"Point","coordinates":[-95.3859000003763,29.7794599998683]},"properties":{"Address":"1030 STUDE ST HOUSTON TX 77009","ArrivalTime":1732138120064,"Latitude":29.77946,"Longitude":-95.3859,"Serviced":"Yes"}},{"type":"Feature","geometry":{"type":"Point","coordinates":[-95.3740800002072,29.7781900002623]},"properties":{"Address":"1614 DEPELCHIN ST HOUSTON TX 77007","ArrivalTime":1732213155305,"Latitude":29.77819,"Longitude":-95.37408,"Serviced":"Yes"}},{"type":"Feature","geometry":{"type":"Point","coordinates":[-95.3740800002072,29.7781900002623]},"properties":{"Address":"1614 DEPELCHIN ST HOUSTON TX 77007","ArrivalTime":1732213140031,"Latitude":29.77819,"Longitude":-95.37408,"Serviced":"Yes"}},{"type":"Feature","geometry":{"type":"Point","coordinates":[-95.3927400002233,29.7731199999489]},"properties":{"Address":"3236 SUMMER ST HOUSTON TX 77007","ArrivalTime":1732223257706,"Latitude":29.77312,"Longitude":-95.39274,"Serviced":"Yes"}},{"type":"Feature","geometry":{"type":"Point","coordinates":[-95.3927400002233,29.7731199999489]},"properties":{"Address":"3236 SUMMER ST HOUSTON TX 77007","ArrivalTime":1732223264979,"Latitude":29.77312,"Longitude":-95.39274,"Serviced":"Yes"}},{"type":"Feature","geometry":{"type":"Point","coordinates":[-95.4139600002715,29.7643599997287]},"properties":{"Address":"114 ARNOLD ST HOUSTON TX 77007","ArrivalTime":1732744726054,"Latitude":29.76436,"Longitude":-95.41396,"Serviced":"Yes"}},{"type":"Feature","geometry":{"type":"Point","coordinates":[-95.4049100001968,29.7757100002463]},"properties":{"Address":"4313 MARINA ST HOUSTON TX 77007","ArrivalTime":1732745400319,"Latitude":29.77571,"Longitude":-95.40491,"Serviced":"Yes"}},{"type":"Feature","geometry":{"type":"Point","coordinates":[-95.4207900000729,29.7692699996649]},"properties":{"Address":"812 KNOX ST HOUSTON TX 77007","ArrivalTime":1733419684202,"Latitude":29.76927,"Longitude":-95.42079,"Serviced":"Yes"}},{"type":"Feature","geometry":{"type":"Point","coordinates":[-95.3730800001245,29.7742999999526]},"properties":{"Address":"1509 SHEARN ST HOUSTON TX 77007","ArrivalTime":1733420731816,"Latitude":29.7743,"Longitude":-95.37308,"Serviced":"Yes"}},{"type":"Feature","geometry":{"type":"Point","coordinates":[-95.3870999995772,29.7594500001247]},"properties":{"Address":"1925 W WALKER ST HOUSTON TX 77019","ArrivalTime":1733422030465,"Latitude":29.75945,"Longitude":-95.3871,"Serviced":"Yes"}},{"type":"Feature","geometry":{"type":"Point","coordinates":[-95.4178900002822,29.7792599998264]},"properties":{"Address":"450 T C JESTER BLVD HOUSTON TX 77007","ArrivalTime":1733953200685,"Latitude":29.77926,"Longitude":-95.41789,"Serviced":"Yes"}},{"type":"Feature","geometry":{"type":"Point","coordinates":[-95.3744700001945,29.7822999997639]},"properties":{"Address":"2615 BEAUCHAMP ST HOUSTON TX 77009","ArrivalTime":1733954345271,"Latitude":29.7823,"Longitude":-95.37447,"Serviced":"Yes"}},{"type":"Feature","geometry":{"type":"Point","coordinates":[-95.3744700001945,29.7822999997639]},"properties":{"Address":"2615 BEAUCHAMP ST HOUSTON TX 77009","ArrivalTime":1733954309546,"Latitude":29.7823,"Longitude":-95.37447,"Serviced":"Yes"}},{"type":"Feature","geometry":{"type":"Point","coordinates":[-95.4147300002005,29.7858300003314]},"properties":{"Address":"713 WORTHSHIRE ST HOUSTON TX 77008","ArrivalTime":1734027816024,"Latitude":29.78583,"Longitude":-95.41473,"Serviced":"Yes"}},{"type":"Feature","geometry":{"type":"Point","coordinates":[-95.3688899998229,29.7620800000463]},"properties":{"Address":"351 RUSK ST HOUSTON TX 77002","ArrivalTime":1734028805827,"Latitude":29.76208,"Longitude":-95.36889,"Serviced":"Yes"}},{"type":"Feature","geometry":{"type":"Point","coordinates":[-95.4010200003691,29.7708400000214]},"properties":{"Address":"3878 CENTER ST HOUSTON TX 77007","ArrivalTime":1734454820932,"Latitude":29.77084,"Longitude":-95.40102,"Serviced":"Yes"}},{"type":"Feature","geometry":{"type":"Point","coordinates":[-95.3693600001761,29.7601900003001]},"properties":{"Address":"901 BAGBY ST HOUSTON TX 77002","ArrivalTime":1736625372228,"Latitude":29.76019,"Longitude":-95.36936,"Serviced":"Yes"}},{"type":"Feature","geometry":{"type":"Point","coordinates":[-95.4160900001333,29.7808200001625]},"properties":{"Address":"5302 PETTY ST HOUSTON TX 77007","ArrivalTime":1736696293769,"Latitude":29.78082,"Longitude":-95.41609,"Serviced":"Yes"}},{"type":"Feature","geometry":{"type":"Point","coordinates":[-95.4202700003892,29.772519999624]},"properties":{"Address":"1301 BIRDSALL ST HOUSTON TX 77007","ArrivalTime":1736961781730,"Latitude":29.77252,"Longitude":-95.42027,"Serviced":"Yes"}},{"type":"Feature","geometry":{"type":"Point","coordinates":[-95.4200100000982,29.772609999629]},"properties":{"Address":"5720 SCHULER ST HOUSTON TX 77007","ArrivalTime":1736961934834,"Latitude":29.77261,"Longitude":-95.42001,"Serviced":"Yes"}},{"type":"Feature","geometry":{"type":"Point","coordinates":[-95.4198400002188,29.772609999629]},"properties":{"Address":"5714 SCHULER ST HOUSTON TX 77007","ArrivalTime":1736961968359,"Latitude":29.77261,"Longitude":-95.41984,"Serviced":"Yes"}},{"type":"Feature","geometry":{"type":"Point","coordinates":[-95.4248099995968,29.7704800001721]},"properties":{"Address":"6401 ARNOT ST HOUSTON TX 77007","ArrivalTime":1736962710527,"Latitude":29.77048,"Longitude":-95.42481,"Serviced":"Yes"}},{"type":"Feature","geometry":{"type":"Point","coordinates":[-95.4215399999103,29.7684399997196]},"properties":{"Address":"708 COHN ST HOUSTON TX 77007","ArrivalTime":1738101065488,"Latitude":29.76844,"Longitude":-95.42154,"Serviced":"Yes"}},{"type":"Feature","geometry":{"type":"Point","coordinates":[-95.4223500000222,29.7689900000105]},"properties":{"Address":"825 WESTCOTT ST HOUSTON TX 77007","ArrivalTime":1738265844687,"Latitude":29.76899,"Longitude":-95.42235,"Serviced":"Yes"}},{"type":"Feature","geometry":{"type":"Point","coordinates":[-95.4255000000582,29.77310999983]},"properties":{"Address":"6302 WESTCOTT ST HOUSTON TX 77007","ArrivalTime":1738599881831,"Latitude":29.77311,"Longitude":-95.4255,"Serviced":"Yes"}},{"type":"Feature","geometry":{"type":"Point","coordinates":[-95.4020599997365,29.764080000387]},"properties":{"Address":"303 JACKSON HILL ST HOUSTON TX 77007","ArrivalTime":1738612980864,"Latitude":29.76408,"Longitude":-95.40206,"Serviced":"Yes"}},{"type":"Feature","geometry":{"type":"Point","coordinates":[-95.4028199996197,29.7853299997145]},"properties":{"Address":"513 W 8TH ST HOUSTON TX 77007","ArrivalTime":1738698326323,"Latitude":29.78533,"Longitude":-95.40282,"Serviced":"Yes"}},{"type":"Feature","geometry":{"type":"Point","coordinates":[-95.4138599998141,29.7753200002766]},"properties":{"Address":"5207 INKER ST HOUSTON TX 77007","ArrivalTime":1739205672565,"Latitude":29.77532,"Longitude":-95.41386,"Serviced":"Yes"}},{"type":"Feature","geometry":{"type":"Point","coordinates":[-95.428979999807,29.7745399996792]},"properties":{"Address":"6616 MINOLA ST HOUSTON TX 77007","ArrivalTime":1739206262497,"Latitude":29.77454,"Longitude":-95.42898,"Serviced":"Yes"}},{"type":"Feature","geometry":{"type":"Point","coordinates":[-95.3916499997289,29.7818200002885]},"properties":{"Address":"3122 WHITE OAK DR HOUSTON TX 77007","ArrivalTime":1739743396721,"Latitude":29.78182,"Longitude":-95.39165,"Serviced":"Yes"}},{"type":"Feature","geometry":{"type":"Point","coordinates":[-95.4075000003661,29.7740300003524]},"properties":{"Address":"1421 FOWLER ST HOUSTON TX 77007","ArrivalTime":1740079743637,"Latitude":29.77403,"Longitude":-95.4075,"Serviced":"Yes"}},{"type":"Feature","geometry":{"type":"Point","coordinates":[-95.3988000000957,29.7836200002938]},"properties":{"Address":"700 YALE ST HOUSTON TX 77007","ArrivalTime":1741032360657,"Latitude":29.78362,"Longitude":-95.3988,"Serviced":"Yes"}},{"type":"Feature","geometry":{"type":"Point","coordinates":[-95.3988000000957,29.7836200002938]},"properties":{"Address":"700 YALE ST HOUSTON TX 77007","ArrivalTime":1741032621456,"Latitude":29.78362,"Longitude":-95.3988,"Serviced":"Yes"}},{"type":"Feature","geometry":{"type":"Point","coordinates":[-95.4140799999222,29.7786699999871]},"properties":{"Address":"5206 CORNISH ST HOUSTON TX 77007","ArrivalTime":1741892820569,"Latitude":29.77867,"Longitude":-95.41408,"Serviced":"Yes"}},{"type":"Feature","geometry":{"type":"Point","coordinates":[-95.3813200000873,29.7731500002997]},"properties":{"Address":"1702 TAYLOR ST HOUSTON TX 77007","ArrivalTime":1742325903343,"Latitude":29.77315,"Longitude":-95.38132,"Serviced":"Yes"}},{"type":"Feature","geometry":{"type":"Point","coordinates":[-95.4051300003048,29.7725100002249]},"properties":{"Address":"4324 ALLEN ST HOUSTON TX 77007","ArrivalTime":1742327041432,"Latitude":29.77251,"Longitude":-95.40513,"Serviced":"Yes"}},{"type":"Feature","geometry":{"type":"Point","coordinates":[-95.3704799999094,29.7739900002343]},"properties":{"Address":"1306 CROCKETT ST HOUSTON TX 77007","ArrivalTime":1743869221907,"Latitude":29.77399,"Longitude":-95.37048,"Serviced":"Yes"}},{"type":"Feature","geometry":{"type":"Point","coordinates":[-95.3701200000593,29.7737800001314]},"properties":{"Address":"1802 GOLIAD ST HOUSTON TX 77007","ArrivalTime":1744215162498,"Latitude":29.77378,"Longitude":-95.37012,"Serviced":"Yes"}},{"type":"Feature","geometry":{"type":"Point","coordinates":[-95.4297599997816,29.7744899997836]},"properties":{"Address":"6633 MINOLA ST HOUSTON TX 77007","ArrivalTime":1744825355029,"Latitude":29.77449,"Longitude":-95.42976,"Serviced":"Yes"}},{"type":"Feature","geometry":{"type":"Point","coordinates":[-95.4072300000293,29.7690299997862]},"properties":{"Address":"722 FOWLER ST HOUSTON TX 77007","ArrivalTime":1744826325171,"Latitude":29.76903,"Longitude":-95.40723,"Serviced":"Yes"}},{"type":"Feature","geometry":{"type":"Point","coordinates":[-95.3818699999082,29.7648199999003]},"properties":{"Address":"5040 OLD SPANISH TRL HOUSTON TX 77007","ArrivalTime":1744827058118,"Latitude":29.76482,"Longitude":-95.38187,"Serviced":"Yes"}},{"type":"Feature","geometry":{"type":"Point","coordinates":[-95.3788699996601,29.7677900000904]},"properties":{"Address":"2019 WASHINGTON AVE HOUSTON TX 77007","ArrivalTime":1744827961029,"Latitude":29.76779,"Longitude":-95.37887,"Serviced":"Yes"}},{"type":"Feature","geometry":{"type":"Point","coordinates":[-95.3731400003989,29.7603800003804]},"properties":{"Address":"212 MCKINNEY ST HOUSTON TX 77002","ArrivalTime":1744828360135,"Latitude":29.76038,"Longitude":-95.37314,"Serviced":"Yes"}},{"type":"Feature","geometry":{"type":"Point","coordinates":[-95.3698455000613,29.7583649998357]},"properties":{"Address":"1125 BRAZOS ST HOUSTON TX 77002","ArrivalTime":1744828740044,"Latitude":29.758365,"Longitude":-95.369846,"Serviced":"Yes"}},{"type":"Feature","geometry":{"type":"Point","coordinates":[-95.380889999917,29.7817199999457]},"properties":{"Address":"803 SLEDGE ST HOUSTON TX 77009","ArrivalTime":1744917497079,"Latitude":29.78172,"Longitude":-95.38089,"Serviced":"Yes"}},{"type":"Feature","geometry":{"type":"Point","coordinates":[-95.3804599997467,29.7817199999457]},"properties":{"Address":"2504 WATSON ST HOUSTON TX 77009","ArrivalTime":1744917525813,"Latitude":29.78172,"Longitude":-95.38046,"Serviced":"Yes"}},{"type":"Feature","geometry":{"type":"Point","coordinates":[-95.3915500001698,29.7799600001746]},"properties":{"Address":"504 OXFORD ST HOUSTON TX 77007","ArrivalTime":1745331961492,"Latitude":29.77996,"Longitude":-95.39155,"Serviced":"Yes"}},{"type":"Feature","geometry":{"type":"Point","coordinates":[-95.3921100000365,29.7791299999357]},"properties":{"Address":"435 OXFORD ST HOUSTON TX 77007","ArrivalTime":1745332202357,"Latitude":29.77913,"Longitude":-95.39211,"Serviced":"Yes"}},{"type":"Feature","geometry":{"type":"Point","coordinates":[-95.4103499999281,29.7733199997783]},"properties":{"Address":"1318 DURHAM DR HOUSTON TX 77007","ArrivalTime":1745350804328,"Latitude":29.77332,"Longitude":-95.41035,"Serviced":"Yes"}},{"type":"Feature","geometry":{"type":"Point","coordinates":[-95.3979499998008,29.7799300003046]},"properties":{"Address":"505 HEIGHTS BLVD HOUSTON TX 77007","ArrivalTime":1745425742687,"Latitude":29.77993,"Longitude":-95.39795,"Serviced":"Yes"}},{"type":"Feature","geometry":{"type":"Point","coordinates":[-95.3693600001761,29.7601900003001]},"properties":{"Address":"901 BAGBY ST HOUSTON TX 77002","ArrivalTime":1747763309149,"Latitude":29.76019,"Longitude":-95.36936,"Serviced":"Yes"}},{"type":"Feature","geometry":{"type":"Point","coordinates":[-95.4130100004176,29.7804199996546]},"properties":{"Address":"2311 ROY CIR HOUSTON TX 77007","ArrivalTime":1748379006347,"Latitude":29.78042,"Longitude":-95.41301,"Serviced":"Yes"}},{"type":"Feature","geometry":{"type":"Point","coordinates":[-95.4130000003718,29.780249999754]},"properties":{"Address":"2307 ROY CIR HOUSTON TX 77007","ArrivalTime":1748379083445,"Latitude":29.78025,"Longitude":-95.413,"Serviced":"Yes"}},{"type":"Feature","geometry":{"type":"Point","coordinates":[-95.42198944142,29.7627086642706]},"properties":{"Address":"159\u2013199 Westcott St HOUSTON TX 770","ArrivalTime":1750797792410,"Latitude":29.762709,"Longitude":-95.421989,"Serviced":"Yes"}},{"type":"Feature","geometry":{"type":"Point","coordinates":[-95.4153450003187,29.7612090002952]},"properties":{"Address":"5353 MEMORIAL DR HOUSTON TX 77007","ArrivalTime":1750798191404,"Latitude":29.761209,"Longitude":-95.415345,"Serviced":"Yes"}},{"type":"Feature","geometry":{"type":"Point","coordinates":[-95.4150599999134,29.7683300002348]},"properties":{"Address":"632 LESTER ST HOUSTON TX 77007","ArrivalTime":1750798270030,"Latitude":29.76833,"Longitude":-95.41506,"Serviced":"Yes"}},{"type":"Feature","geometry":{"type":"Point","coordinates":[-95.4190900003814,29.772590000068]},"properties":{"Address":"5618 SCHULER ST HOUSTON TX 77007","ArrivalTime":1750798326461,"Latitude":29.77259,"Longitude":-95.41909,"Serviced":"Yes"}},{"type":"Feature","geometry":{"type":"Point","coordinates":[-95.4071899998464,29.7754000002142]},"properties":{"Address":"4523 INKER ST HOUSTON TX 77007","ArrivalTime":1750798386469,"Latitude":29.7754,"Longitude":-95.40719,"Serviced":"Yes"}},{"type":"Feature","geometry":{"type":"Point","coordinates":[-95.3977399997385,29.7670999996119]},"properties":{"Address":"55 WAUGH DR HOUSTON TX 77007","ArrivalTime":1750798444100,"Latitude":29.7671,"Longitude":-95.39774,"Serviced":"Yes"}},{"type":"Feature","geometry":{"type":"Point","coordinates":[-95.3970900003585,29.7667099996464]},"properties":{"Address":"3698 WILLIA ST HOUSTON TX 77007","ArrivalTime":1750798518838,"Latitude":29.76671,"Longitude":-95.39709,"Serviced":"Yes"}},{"type":"Feature","geometry":{"type":"Point","coordinates":[-95.4104535002218,29.7757800000201]},"properties":{"Address":"1710 DURHAM DR HOUSTON TX 77007","ArrivalTime":1750869311380,"Latitude":29.77578,"Longitude":-95.410454,"Serviced":"Yes"}},{"type":"Feature","geometry":{"type":"Point","coordinates":[-95.3987130000571,29.7580859998903]},"properties":{"Address":"823 ROSINE ST HOUSTON TX 77019","ArrivalTime":1750967167805,"Latitude":29.758086,"Longitude":-95.398713,"Serviced":"Yes"}},{"type":"Feature","geometry":{"type":"Point","coordinates":[-95.4099944997392,29.7678959999122]},"properties":{"Address":"611 SHEPHERD DR HOUSTON TX 77007","ArrivalTime":1751982870100,"Latitude":29.767896,"Longitude":-95.409994,"Serviced":"Yes"}},{"type":"Feature","geometry":{"type":"Point","coordinates":[-95.3988614996584,29.7615420000009]},"properties":{"Address":"3100 ALLEN PKWY HOUSTON TX 77019","ArrivalTime":1751984739532,"Latitude":29.761542,"Longitude":-95.398861,"Serviced":"Yes"}},{"type":"Feature","geometry":{"type":"Point","coordinates":[-95.4189224996152,29.766041999785]},"properties":{"Address":"5608 Feagan St","ArrivalTime":null,"Latitude":null,"Longitude":null,"Serviced":"Yes"}},{"type":"Feature","geometry":{"type":"Point","coordinates":[-95.4196154995512,29.7742950003421]},"properties":{"Address":"1509 MALONE ST HOUSTON TX 77007","ArrivalTime":1753370100511,"Latitude":29.774295,"Longitude":-95.419615,"Serviced":"Yes"}},{"type":"Feature","geometry":{"type":"Point","coordinates":[-95.4264678952509,29.7736568446331]},"properties":{"Address":"N Fwy Frontage Rd HOUSTON TX 77007","ArrivalTime":1753370588063,"Latitude":29.773657,"Longitude":-95.426468,"Serviced":"Yes"}},{"type":"Feature","geometry":{"type":"Point","coordinates":[-95.4007965004248,29.7818640000958]},"properties":{"Address":"610 RUTLAND ST HOUSTON TX 77007","ArrivalTime":1753374654023,"Latitude":29.781864,"Longitude":-95.400797,"Serviced":"Yes"}},{"type":"Feature","geometry":{"type":"Point","coordinates":[-95.392219500178,29.7846719998276]},"properties":{"Address":"733 OXFORD ST HOUSTON TX 77007","ArrivalTime":1753375021219,"Latitude":29.784672,"Longitude":-95.39222,"Serviced":"Yes"}},{"type":"Feature","geometry":{"type":"Point","coordinates":[-95.405778000035,29.7739889998412]},"properties":{"Address":"4417 KOEHLER ST HOUSTON TX 77007","ArrivalTime":1754491633843,"Latitude":29.773989,"Longitude":-95.405778,"Serviced":"Yes"}},{"type":"Feature","geometry":{"type":"Point","coordinates":[-95.3670645000963,29.7599040001404]},"properties":{"Address":"611 WALKER ST HOUSTON TX 77002","ArrivalTime":1754492295745,"Latitude":29.759904,"Longitude":-95.367065,"Serviced":"Yes"}},{"type":"Feature","geometry":{"type":"Point","coordinates":[-95.3690490716967,29.7609348299643]},"properties":{"Address":"801 SMITH ST HOUSTON TX 770","ArrivalTime":1756214534696,"Latitude":29.760935,"Longitude":-95.369049,"Serviced":"Yes"}},{"type":"Feature","geometry":{"type":"Point","coordinates":[-95.4244980003256,29.7674729996301]},"properties":{"Address":"403 TERRACE DR HOUSTON TX 77007","ArrivalTime":1756478392828,"Latitude":29.767473,"Longitude":-95.424498,"Serviced":"Yes"}},{"type":"Feature","geometry":{"type":"Point","coordinates":[-95.4054489139088,29.7673740392243]},"properties":{"Address":"4409 BLOSSOM ST HOUSTON TX 77007","ArrivalTime":1758044659279,"Latitude":29.767374,"Longitude":-95.405449,"Serviced":"Yes"}},{"type":"Feature","geometry":{"type":"Point","coordinates":[-95.3824095002201,29.758383000359]},"properties":{"Address":"919 GILLETTE ST HOUSTON TX 77019","ArrivalTime":1758376383419,"Latitude":29.758383,"Longitude":-95.38241,"Serviced":"Yes"}},{"type":"Feature","geometry":{"type":"Point","coordinates":[-95.40535967976,29.7653354438763]},"properties":{"Address":"4411 DICKSON ST HOUSTON TX 77007","ArrivalTime":1758547224117,"Latitude":29.765335,"Longitude":-95.40536,"Serviced":"Yes"}},{"type":"Feature","geometry":{"type":"Point","coordinates":[-95.4163260001348,29.7659340001735]},"properties":{"Address":"FEAGAN ST & DETERING ST HOUSTON TX 77007","ArrivalTime":1758547714111,"Latitude":29.765934,"Longitude":-95.416326,"Serviced":"Yes"}},{"type":"Feature","geometry":{"type":"Point","coordinates":[-95.3693542482634,29.7601871492162]},"properties":{"Address":"901 BAGBY ST HOUSTON TX 77002","ArrivalTime":1758566091406,"Latitude":29.760187,"Longitude":-95.369354,"Serviced":"Yes"}},{"type":"Feature","geometry":{"type":"Point","coordinates":[-95.3698399996769,29.7583700002414]},"properties":{"Address":"7896\u20137924 SW Freeway Frontage Rd HOUSTON TX 77036","ArrivalTime":1759330225689,"Latitude":29.75837,"Longitude":-95.36984,"Serviced":"Yes"}},{"type":"Feature","geometry":{"type":"Point","coordinates":[-95.4274215701127,29.7735710140206]},"properties":{"Address":"6505 Taggart St HOUSTON TX 77007","ArrivalTime":1759331114532,"Latitude":29.773571,"Longitude":-95.427422,"Serviced":"Yes"}},{"type":"Feature","geometry":{"type":"Point","coordinates":[-95.4102706912649,29.7670230856672]},"properties":{"Address":"452\u2013498 Durham Dr HOUSTON TX 77007","ArrivalTime":1759494499615,"Latitude":29.767023,"Longitude":-95.410271,"Serviced":"Yes"}},{"type":"Feature","geometry":{"type":"Point","coordinates":[-95.4114151000211,29.7723407736556]},"properties":{"Address":"1216 SANDMAN ST HOUSTON TX 77007","ArrivalTime":1759504943675,"Latitude":29.772341,"Longitude":-95.411415,"Serviced":"Yes"}},{"type":"Feature","geometry":{"type":"Point","coordinates":[-95.3930053706431,29.7698059082168]},"properties":{"Address":"1016 WICHMAN ST HOUSTON TX 77007","ArrivalTime":1760114017271,"Latitude":29.769806,"Longitude":-95.393005,"Serviced":"Yes"}},{"type":"Feature","geometry":{"type":"Point","coordinates":[-95.369834899941,29.7583618157033]},"properties":{"Address":"901-1099 Brazos St HOUSTON TX 77002","ArrivalTime":1760115157692,"Latitude":29.758362,"Longitude":-95.369835,"Serviced":"Yes"}},{"type":"Feature","geometry":{"type":"Point","coordinates":[-95.4248046878586,29.7704734798449]},"properties":{"Address":"6401 ARNOT ST HOUSTON TX 77007","ArrivalTime":1760629223982,"Latitude":29.770473,"Longitude":-95.424805,"Serviced":"Yes"}},{"type":"Feature","geometry":{"type":"Point","coordinates":[-95.3815454996815,29.7662039997635]},"properties":{"Address":"KANE ST & SAWYER ST HOUSTON TX 77007","ArrivalTime":1760714844771,"Latitude":29.766204,"Longitude":-95.381545,"Serviced":"Yes"}},{"type":"Feature","geometry":{"type":"Point","coordinates":[-95.3819460000762,29.76636600026]},"properties":{"Address":"801 SAWYER ST HOUSTON TX 77007","ArrivalTime":1760715000534,"Latitude":29.766366,"Longitude":-95.381946,"Serviced":"Yes"}},{"type":"Feature","geometry":{"type":"Point","coordinates":[-95.412628174201,29.7619380949084]},"properties":{"Address":"5007-5019 Memorial Dr HOUSTON TX 77027","ArrivalTime":1760715602731,"Latitude":29.761938,"Longitude":-95.412628,"Serviced":"Yes"}},{"type":"Feature","geometry":{"type":"Point","coordinates":[-95.3890154997154,29.7763290001807]},"properties":{"Address":"1616 STUDEMONT ST HOUSTON TX 77007","ArrivalTime":1760978197335,"Latitude":29.776329,"Longitude":-95.389015,"Serviced":"Yes"}},{"type":"Feature","geometry":{"type":"Point","coordinates":[-95.3912048342,29.7710304259233]},"properties":{"Address":"Studemont St HOUSTON TX 77007","ArrivalTime":1760978731406,"Latitude":29.77103,"Longitude":-95.391205,"Serviced":"Yes"}},{"type":"Feature","geometry":{"type":"Point","coordinates":[-95.4052810672912,29.7659187318398]},"properties":{"Address":"4405 FEAGAN ST HOUSTON TX 77007","ArrivalTime":1761063551834,"Latitude":29.765919,"Longitude":-95.405281,"Serviced":"Yes"}},{"type":"Feature","geometry":{"type":"Point","coordinates":[-95.3950767060252,29.7748655679797]},"properties":{"Address":"207 CORTLANDT ST HOUSTON TX 77007","ArrivalTime":1761142380950,"Latitude":29.774866,"Longitude":-95.395077,"Serviced":"Yes"}},{"type":"Feature","geometry":{"type":"Point","coordinates":[-95.3876879999313,29.7816300003314]},"properties":{"Address":"STUDEWOOD ST & WHITE OAK DR HOUSTON TX 77007","ArrivalTime":1761238238120,"Latitude":29.78163,"Longitude":-95.387688,"Serviced":"No"}},{"type":"Feature","geometry":{"type":"Point","coordinates":[-95.3866500846554,29.7792282103609]},"properties":{"Address":"1103 STUDE ST HOUSTON TX 77007","ArrivalTime":1761238539932,"Latitude":29.779228,"Longitude":-95.38665,"Serviced":"No"}},{"type":"Feature","geometry":{"type":"Point","coordinates":[-95.4218699996232,29.7787500003672]},"properties":{"Address":"2124 COHN ST HOUSTON TX 77007","ArrivalTime":1761332160621,"Latitude":29.77875,"Longitude":-95.42187,"Serviced":"Yes"}},{"type":"Feature","geometry":{"type":"Point","coordinates":[-95.392807007357,29.7703666686834]},"properties":{"Address":"3200 CENTER ST HOUSTON TX 77007","ArrivalTime":1761748536785,"Latitude":29.770367,"Longitude":-95.392807,"Serviced":"Yes"}},{"type":"Feature","geometry":{"type":"Point","coordinates":[-95.4010934996274,29.7683820002048]},"properties":{"Address":"707 LEVERKUHN ST HOUSTON TX 77007","ArrivalTime":1761748749039,"Latitude":29.768382,"Longitude":-95.401093,"Serviced":"Yes"}},{"type":"Feature","geometry":{"type":"Point","coordinates":[-95.4052734378995,29.7662353520021]},"properties":{"Address":"4408 FEAGAN ST HOUSTON TX 77007","ArrivalTime":1761748920047,"Latitude":29.766235,"Longitude":-95.405273,"Serviced":"Yes"}},{"type":"Feature","geometry":{"type":"Point","coordinates":[-95.415718078741,29.7782039638523]},"properties":{"Address":"5264\u20135298 Katy Freeway Service Rd HOUSTON TX 77007","ArrivalTime":1762199779309,"Latitude":29.778204,"Longitude":-95.415718,"Serviced":"Yes"}},{"type":"Feature","geometry":{"type":"Point","coordinates":[-95.4220962520056,29.7759704586339]},"properties":{"Address":"1635 COHN ST HOUSTON TX 77007","ArrivalTime":1762200240864,"Latitude":29.77597,"Longitude":-95.422096,"Serviced":"Yes"}},{"type":"Feature","geometry":{"type":"Point","coordinates":[-95.4084329996033,29.76636600026]},"properties":{"Address":"407 PARKER ST HOUSTON TX 77007","ArrivalTime":1762200682259,"Latitude":29.766366,"Longitude":-95.408433,"Serviced":"Yes"}},{"type":"Feature","geometry":{"type":"Point","coordinates":[-95.4073333736606,29.766626358181]},"properties":{"Address":"401-499 Fowler St HOUSTON TX 77007","ArrivalTime":1762200757574,"Latitude":29.766626,"Longitude":-95.407333,"Serviced":"Yes"}},{"type":"Feature","geometry":{"type":"Point","coordinates":[-95.3698399996769,29.7583700002414]},"properties":{"Address":"5827 ROBERTA LN HOUSTON TX 77396","ArrivalTime":1762626460392,"Latitude":29.75837,"Longitude":-95.36984,"Serviced":"Yes"}},{"type":"Feature","geometry":{"type":"Point","coordinates":[-95.3917019996075,29.7814410003324]},"properties":{"Address":"3123 white oak drive HOUSTON TX 77007","ArrivalTime":1762802040947,"Latitude":29.781441,"Longitude":-95.391702,"Serviced":"No"}},{"type":"Feature","geometry":{"type":"Point","coordinates":[-95.3964843750586,29.7785186770329]},"properties":{"Address":"415 HARVARD ST HOUSTON TX 770","ArrivalTime":1763411004621,"Latitude":29.778519,"Longitude":-95.396484,"Serviced":"Yes"}},{"type":"Feature","geometry":{"type":"Point","coordinates":[-95.3912834996694,29.7675990003489]},"properties":{"Address":"807 MEMORIAL HEIGHTS DR HOUSTON TX 770","ArrivalTime":1764086391223,"Latitude":29.767599,"Longitude":-95.391283,"Serviced":"Yes"}},{"type":"Feature","geometry":{"type":"Point","coordinates":[-95.3903475000591,29.7601650002833]},"properties":{"Address":"2121 ALLEN PKWY HOUSTON TX 770","ArrivalTime":1764086700850,"Latitude":29.760165,"Longitude":-95.390348,"Serviced":"Yes"}},{"type":"Feature","geometry":{"type":"Point","coordinates":[-95.4123975003107,29.7592829997836]},"properties":{"Address":"960 KIRBY DR HOUSTON TX 770","ArrivalTime":1764089073011,"Latitude":29.759283,"Longitude":-95.412398,"Serviced":"Yes"}},{"type":"Feature","geometry":{"type":"Point","coordinates":[-95.4316532782947,29.7715476461812]},"properties":{"Address":"799 E MEMORIAL LOOP HOUSTON TX 770","ArrivalTime":1764089567679,"Latitude":29.771548,"Longitude":-95.431653,"Serviced":"Yes"}},{"type":"Feature","geometry":{"type":"Point","coordinates":[-95.4066467284069,29.765584945831]},"properties":{"Address":"4514 DICKSON ST HOUSTON TX 770","ArrivalTime":1765028685891,"Latitude":29.765585,"Longitude":-95.406647,"Serviced":"Yes"}},{"type":"Feature","geometry":{"type":"Point","coordinates":[-95.4164519996332,29.7650339996639]},"properties":{"Address":"223 DETERING ST HOUSTON TX 77007","ArrivalTime":1765474980014,"Latitude":29.765034,"Longitude":-95.416452,"Serviced":"Yes"}},{"type":"Feature","geometry":{"type":"Point","coordinates":[-95.419151305908,29.7691764830286]},"properties":{"Address":"804 MALONE ST HOUSTON TX 77007","ArrivalTime":1765475357003,"Latitude":29.769176,"Longitude":-95.419151,"Serviced":"Yes"}},{"type":"Feature","geometry":{"type":"Point","coordinates":[-95.4219960000199,29.7724859997917]},"properties":{"Address":"COHN ST & SCHULER ST HOUSTON TX 77007","ArrivalTime":1765475641108,"Latitude":29.772486,"Longitude":-95.421996,"Serviced":"Yes"}},{"type":"Feature","geometry":{"type":"Point","coordinates":[-95.3872419863927,29.7802766757497]},"properties":{"Address":"525 STUDEWOOD ST HOUSTON TX 770","ArrivalTime":1765576080155,"Latitude":29.780277,"Longitude":-95.387242,"Serviced":"Yes"}},{"type":"Feature","geometry":{"type":"Point","coordinates":[-95.3698399996769,29.7583700002414]},"properties":{"Address":"10539 VINCA MINOR LN HOUSTON TX 770","ArrivalTime":1765991161683,"Latitude":29.75837,"Longitude":-95.36984,"Serviced":"Yes"}},{"type":"Feature","geometry":{"type":"Point","coordinates":[-95.3755559995926,29.7639539999212]},"properties":{"Address":"N MEMORIAL WAY & SABINE ST HOUSTON TX 77007","ArrivalTime":1765991438988,"Latitude":29.763954,"Longitude":-95.375556,"Serviced":"Yes"}},{"type":"Feature","geometry":{"type":"Point","coordinates":[-95.3746650001882,29.7666090001236]},"properties":{"Address":"BISMARK ST & COLORADO ST HOUSTON TX 770","ArrivalTime":1765991600720,"Latitude":29.766609,"Longitude":-95.374665,"Serviced":"Yes"}},{"type":"Feature","geometry":{"type":"Point","coordinates":[-95.406183000091,29.7724680002427]},"properties":{"Address":"PATTERSON ST & ALLEN ST HOUSTON TX 77007","ArrivalTime":1765992315249,"Latitude":29.772468,"Longitude":-95.406183,"Serviced":"Yes"}},{"type":"Feature","geometry":{"type":"Point","coordinates":[-95.39873550016,29.7777779998005]},"properties":{"Address":"YALE ST & W 4TH ST HOUSTON TX 77007","ArrivalTime":1766077168422,"Latitude":29.777778,"Longitude":-95.398736,"Serviced":"Yes"}},{"type":"Feature","geometry":{"type":"Point","coordinates":[-95.3723294999254,29.780981999629]},"properties":{"Address":"WRIGHTWOOD ST & HOUSTON AVE HOUSTON TX 77009","ArrivalTime":1766077867411,"Latitude":29.780982,"Longitude":-95.372329,"Serviced":"No"}},{"type":"Feature","geometry":{"type":"Point","coordinates":[-95.3723294999254,29.780981999629]},"properties":{"Address":"HOUSTON AVE & WRIGHTWOOD ST HOUSTON TX 77009","ArrivalTime":1766522702701,"Latitude":29.780982,"Longitude":-95.372329,"Serviced":"No"}},{"type":"Feature","geometry":{"type":"Point","coordinates":[-95.3724239999984,29.781612000087]},"properties":{"Address":"2715 HOUSTON AVE HOUSTON TX 77009","ArrivalTime":1766522718203,"Latitude":29.781612,"Longitude":-95.372424,"Serviced":"No"}},{"type":"Feature","geometry":{"type":"Point","coordinates":[-95.39873550016,29.7777779998005]},"properties":{"Address":"YALE ST & W 4TH ST HOUSTON TX 77007","ArrivalTime":1766522772258,"Latitude":29.777778,"Longitude":-95.398736,"Serviced":"No"}},{"type":"Feature","geometry":{"type":"Point","coordinates":[-95.4272807996161,29.7735851958001]},"properties":{"Address":"6505 TAGGART ST HOUSTON TX 77007","ArrivalTime":1766774867299,"Latitude":29.773585,"Longitude":-95.427281,"Serviced":"Yes"}},{"type":"Feature","geometry":{"type":"Point","coordinates":[-95.3958644997833,29.7789479999613]},"properties":{"Address":"430 HARVARD ST HOUSTON TX 77007","ArrivalTime":1767907161240,"Latitude":29.778948,"Longitude":-95.395864,"Serviced":"Yes"}},{"type":"Feature","geometry":{"type":"Point","coordinates":[-95.4031448358163,29.7703323359432]},"properties":{"Address":"4202 WASHINGTON AVE HOUSTON TX 77007","ArrivalTime":1768061480801,"Latitude":29.770332,"Longitude":-95.403145,"Serviced":"Yes"}},{"type":"Feature","geometry":{"type":"Point","coordinates":[-95.4020996091523,29.7698230738988]},"properties":{"Address":"4101 WASHINGTON AVE HOUSTON TX 77007","ArrivalTime":1768062310744,"Latitude":29.769823,"Longitude":-95.4021,"Serviced":"No"}},{"type":"Feature","geometry":{"type":"Point","coordinates":[-95.4098052983707,29.7584094996937]},"properties":{"Address":"2100 TROON RD HOUSTON TX 77019","ArrivalTime":1768062736354,"Latitude":29.758409,"Longitude":-95.409805,"Serviced":"No"}},{"type":"Feature","geometry":{"type":"Point","coordinates":[-95.4059448243698,29.7659683227243]},"properties":{"Address":"330 PATTERSON ST HOUSTON TX 77007","ArrivalTime":1768492458462,"Latitude":29.765968,"Longitude":-95.405945,"Serviced":"Yes"}},{"type":"Feature","geometry":{"type":"Point","coordinates":[-95.4154979995813,29.7661950002049]},"properties":{"Address":"5310 FEAGAN ST HOUSTON TX 77007","ArrivalTime":1768492832977,"Latitude":29.766195,"Longitude":-95.415498,"Serviced":"Yes"}},{"type":"Feature","geometry":{"type":"Point","coordinates":[-95.3698399996769,29.7583700002414]},"properties":{"Address":"17886 galveston road HOUSTON TX 77017","ArrivalTime":1768577954658,"Latitude":29.75837,"Longitude":-95.36984,"Serviced":"Yes"}},{"type":"Feature","geometry":{"type":"Point","coordinates":[-95.3826884998794,29.7849779996471]},"properties":{"Address":"918 EUCLID ST HOUSTON TX 77009","ArrivalTime":1768600117280,"Latitude":29.784978,"Longitude":-95.382688,"Serviced":"No"}},{"type":"Feature","geometry":{"type":"Point","coordinates":[-95.4164519996332,29.7650339996639]},"properties":{"Address":"223 DETERING ST HOUSTON TX 77007","ArrivalTime":1768663753136,"Latitude":29.765034,"Longitude":-95.416452,"Serviced":"Yes"}},{"type":"Feature","geometry":{"type":"Point","coordinates":[-95.3734636759722,29.7638685867697]},"properties":{"Address":"1562 MEMORIAL DR HOUSTON TX 77007","ArrivalTime":1768926100664,"Latitude":29.763869,"Longitude":-95.373464,"Serviced":"Yes"}},{"type":"Feature","geometry":{"type":"Point","coordinates":[-95.4072386463139,29.7734892816136]},"properties":{"Address":"1400 FOWLER ST HOUSTON TX 77007","ArrivalTime":1768926513202,"Latitude":29.773489,"Longitude":-95.407239,"Serviced":"Yes"}},{"type":"Feature","geometry":{"type":"Point","coordinates":[-95.427213352308,29.7630438073819]},"properties":{"Address":"6135 WOODS BRIDGE WAY HOUSTON TX 77007","ArrivalTime":1768927080520,"Latitude":29.763044,"Longitude":-95.427213,"Serviced":"Yes"}},{"type":"Feature","geometry":{"type":"Point","coordinates":[-95.4115650000959,29.7801539999486]},"properties":{"Address":"4928 DARLING ST HOUSTON TX 77007","ArrivalTime":1769196219652,"Latitude":29.780154,"Longitude":-95.411565,"Serviced":"Yes"}},{"type":"Feature","geometry":{"type":"Point","coordinates":[-95.4156780004046,29.7815490003755]},"properties":{"Address":"5238 KIAM ST HOUSTON TX 77007","ArrivalTime":1769196433890,"Latitude":29.781549,"Longitude":-95.415678,"Serviced":"No"}},{"type":"Feature","geometry":{"type":"Point","coordinates":[-95.3948249998792,29.7717930000061]},"properties":{"Address":"3416 HICKS ST HOUSTON TX 77007","ArrivalTime":1769529277728,"Latitude":29.771793,"Longitude":-95.394825,"Serviced":"Yes"}},{"type":"Feature","geometry":{"type":"Point","coordinates":[-95.4152819996712,29.7717480000365]},"properties":{"Address":"1114 STUDER ST HOUSTON TX 77007","ArrivalTime":1769529928031,"Latitude":29.771748,"Longitude":-95.415282,"Serviced":"Yes"}},{"type":"Feature","geometry":{"type":"Point","coordinates":[-95.4293096312106,29.78050419019]},"properties":{"Address":"5916 PETTY ST HOUSTON TX 77007","ArrivalTime":1769547906228,"Latitude":29.780504,"Longitude":-95.42931,"Serviced":"No"}},{"type":"Feature","geometry":{"type":"Point","coordinates":[-95.3892450004059,29.7691019996543]},"properties":{"Address":"3000 WASHINGTON AVE HOUSTON TX 77007","ArrivalTime":1770049272701,"Latitude":29.769102,"Longitude":-95.389245,"Serviced":"Yes"}},{"type":"Feature","geometry":{"type":"Point","coordinates":[-95.4259514996081,29.7814319998037]},"properties":{"Address":"5742 KIAM ST HOUSTON TX 77007","ArrivalTime":1770051217361,"Latitude":29.781432,"Longitude":-95.425951,"Serviced":"No"}},{"type":"Feature","geometry":{"type":"Point","coordinates":[-95.3785665002481,29.7734489997956]},"properties":{"Address":"2009 CROCKETT ST HOUSTON TX 77007","ArrivalTime":1770409699488,"Latitude":29.773449,"Longitude":-95.378567,"Serviced":"No"}},{"type":"Feature","geometry":{"type":"Point","coordinates":[-95.4168548581055,29.7672958372906]},"properties":{"Address":"5411 BLOSSOM ST HOUSTON TX 77007","ArrivalTime":1771010654291,"Latitude":29.767296,"Longitude":-95.416855,"Serviced":"Yes"}},{"type":"Feature","geometry":{"type":"Point","coordinates":[-95.4167624996162,29.767662000259]},"properties":{"Address":"5406 BLOSSOM ST HOUSTON TX 77007","ArrivalTime":1771010672131,"Latitude":29.767662,"Longitude":-95.416762,"Serviced":"Yes"}},{"type":"Feature","geometry":{"type":"Point","coordinates":[-95.3785665002481,29.7734489997956]},"properties":{"Address":"2009 CROCKETT ST HOUSTON TX 77007","ArrivalTime":1771011245811,"Latitude":29.773449,"Longitude":-95.378567,"Serviced":"Yes"}},{"type":"Feature","geometry":{"type":"Point","coordinates":[-95.3911437990663,29.7859954829014]},"properties":{"Address":"636 E 8 1/2 St HOUSTON TX 77007","ArrivalTime":1771438947295,"Latitude":29.785995,"Longitude":-95.391144,"Serviced":"Yes"}},{"type":"Feature","geometry":{"type":"Point","coordinates":[-95.4041175001649,29.7641700001772]},"properties":{"Address":"4322 SCOTLAND ST HOUSTON TX 77007","ArrivalTime":1771517471927,"Latitude":29.76417,"Longitude":-95.404118,"Serviced":"Yes"}},{"type":"Feature","geometry":{"type":"Point","coordinates":[-95.3918774998713,29.7843389998325]},"properties":{"Address":"OXFORD ST & E 7TH 1/2 ST HOUSTON TX 77007","ArrivalTime":1771962085833,"Latitude":29.784339,"Longitude":-95.391877,"Serviced":"No"}},{"type":"Feature","geometry":{"type":"Point","coordinates":[-95.3805999761326,29.7581081391445]},"properties":{"Address":"1319-1329 W Dallas St HOUSTON TX 77019","ArrivalTime":1772132000804,"Latitude":29.758108,"Longitude":-95.3806,"Serviced":"Yes"}},{"type":"Feature","geometry":{"type":"Point","coordinates":[-95.3764801028136,29.7592067723399]},"properties":{"Address":"802-866 Crosby St HOUSTON TX 77019","ArrivalTime":1772132174328,"Latitude":29.759207,"Longitude":-95.37648,"Serviced":"Yes"}},{"type":"Feature","geometry":{"type":"Point","coordinates":[-95.3827514996285,29.7691019996543]},"properties":{"Address":"SAWYER ST & CENTER ST HOUSTON TX 77007","ArrivalTime":1772132826366,"Latitude":29.769102,"Longitude":-95.382751,"Serviced":"Yes"}},{"type":"Feature","geometry":{"type":"Point","coordinates":[-95.3754479996376,29.7768240002633]},"properties":{"Address":"1710 ALAMO ST HOUSTON TX 77007","ArrivalTime":1772133183951,"Latitude":29.776824,"Longitude":-95.375448,"Serviced":"Yes"}},{"type":"Feature","geometry":{"type":"Point","coordinates":[-95.3862075808346,29.7819080349688]},"properties":{"Address":"2600 White Oak Dr HOUSTON TX 77009","ArrivalTime":1772133781959,"Latitude":29.781908,"Longitude":-95.386208,"Serviced":"No"}},{"type":"Feature","geometry":{"type":"Point","coordinates":[-95.407150269158,29.7744560240118]},"properties":{"Address":"1508 FOWLER ST HOUSTON TX 77007","ArrivalTime":1772134082367,"Latitude":29.774456,"Longitude":-95.40715,"Serviced":"Yes"}},{"type":"Feature","geometry":{"type":"Point","coordinates":[-95.4127883914268,29.7754421229421]},"properties":{"Address":"1619 ROY ST HOUSTON TX 77007","ArrivalTime":1772134382125,"Latitude":29.775442,"Longitude":-95.412788,"Serviced":"Yes"}},{"type":"Feature","geometry":{"type":"Point","coordinates":[-95.3754479996376,29.7671400001424]},"properties":{"Address":"908 SABINE ST HOUSTON TX 77007","ArrivalTime":1772641303848,"Latitude":29.76714,"Longitude":-95.375448,"Serviced":"Yes"}},{"type":"Feature","geometry":{"type":"Point","coordinates":[-95.3943023681318,29.7641525270627]},"properties":{"Address":"3400-3480 Memorial Dr HOUSTON TX 77007","ArrivalTime":1772641789358,"Latitude":29.764153,"Longitude":-95.394302,"Serviced":"Yes"}},{"type":"Feature","geometry":{"type":"Point","coordinates":[-95.4154129030727,29.762094497721]},"properties":{"Address":"5928 MEMORIAL DR HOUSTON TX 77007","ArrivalTime":1772643676215,"Latitude":29.762094,"Longitude":-95.415413,"Serviced":"Yes"}},{"type":"Feature","geometry":{"type":"Point","coordinates":[-95.4136799998891,29.7658620003679]},"properties":{"Address":"5203 FEAGAN ST HOUSTON TX 77007","ArrivalTime":1772643886467,"Latitude":29.765862,"Longitude":-95.41368,"Serviced":"Yes"}},{"type":"Feature","geometry":{"type":"Point","coordinates":[-95.4268605003526,29.7691830003212]},"properties":{"Address":"6205 HASKELL ST HOUSTON TX 77007","ArrivalTime":1772644525023,"Latitude":29.769183,"Longitude":-95.426861,"Serviced":"Yes"}},{"type":"Feature","geometry":{"type":"Point","coordinates":[-95.4176788333083,29.7764110569689]},"properties":{"Address":"330 T C JESTER BLVD HOUSTON TX 77007","ArrivalTime":1772644889185,"Latitude":29.776411,"Longitude":-95.417679,"Serviced":"Yes"}},{"type":"Feature","geometry":{"type":"Point","coordinates":[-95.4118620001968,29.7801360002184]},"properties":{"Address":"5002 DARLING ST HOUSTON TX 77007","ArrivalTime":1772903146729,"Latitude":29.780136,"Longitude":-95.411862,"Serviced":"Yes"}},{"type":"Feature","geometry":{"type":"Point","coordinates":[-95.4162134996202,29.7614880001238]},"properties":{"Address":"DETERING ST & MEMORIAL DR HOUSTON TX 77007","ArrivalTime":1773174153141,"Latitude":29.761488,"Longitude":-95.416213,"Serviced":"Yes"}},{"type":"Feature","geometry":{"type":"Point","coordinates":[-95.4089752496583,29.761757999998]},"properties":{"Address":"MEMORIAL DR & SHEPHERD DR HOUSTON TX 77007","ArrivalTime":1773174448698,"Latitude":29.761758,"Longitude":-95.408975,"Serviced":"Yes"}},{"type":"Feature","geometry":{"type":"Point","coordinates":[-95.374399500411,29.7769500001347]},"properties":{"Address":"1617 WEBER ST HOUSTON TX 77007","ArrivalTime":1773239428169,"Latitude":29.77695,"Longitude":-95.3744,"Serviced":"Yes"}},{"type":"Feature","geometry":{"type":"Point","coordinates":[-95.4245452876422,29.7793140408029]},"properties":{"Address":"5700 LARKIN ST HOUSTON TX 77007","ArrivalTime":1773256709776,"Latitude":29.779314,"Longitude":-95.424545,"Serviced":"No"}},{"type":"Feature","geometry":{"type":"Point","coordinates":[-95.4244620003406,29.7796139996206]},"properties":{"Address":"2215 ARABELLE ST HOUSTON TX 77007","ArrivalTime":1773256831713,"Latitude":29.779614,"Longitude":-95.424462,"Serviced":"No"}},{"type":"Feature","geometry":{"type":"Point","coordinates":[-95.4081802370386,29.7855548862009]},"properties":{"Address":"808 DOROTHY ST HOUSTON TX 77007","ArrivalTime":1773258196155,"Latitude":29.785555,"Longitude":-95.40818,"Serviced":"No"}},{"type":"Feature","geometry":{"type":"Point","coordinates":[-95.413535999949,29.7740519996309]},"properties":{"Address":"MAXIE ST & REINERMAN ST HOUSTON TX 77007","ArrivalTime":1773856723544,"Latitude":29.774052,"Longitude":-95.413536,"Serviced":"Yes"}},{"type":"Feature","geometry":{"type":"Point","coordinates":[-95.413535999949,29.7740519996309]},"properties":{"Address":null,"ArrivalTime":1773857581568,"Latitude":29.774052,"Longitude":-95.413536,"Serviced":"Yes"}},{"type":"Feature","geometry":{"type":"Point","coordinates":[-95.394767761026,29.7792282103609]},"properties":{"Address":"440 CORTLANDT ST HOUSTON TX 77007","ArrivalTime":1774030023395,"Latitude":29.779228,"Longitude":-95.394768,"Serviced":"Yes"}},{"type":"Feature","geometry":{"type":"Point","coordinates":[-95.3905105586562,29.7710914610391]},"properties":{"Address":"1204-1246 Studemont St HOUSTON TX 77007","ArrivalTime":1774361585344,"Latitude":29.771091,"Longitude":-95.390511,"Serviced":"Yes"}},{"type":"Feature","geometry":{"type":"Point","coordinates":[-95.4187620587088,29.7820861819086]},"properties":{"Address":"5420 KANSAS ST unit a HOUSTON TX 77007","ArrivalTime":1774370919590,"Latitude":29.782086,"Longitude":-95.418762,"Serviced":"No"}},{"type":"Feature","geometry":{"type":"Point","coordinates":[-95.4203948967564,29.7779903407509]},"properties":{"Address":"5510 Katy Freeway Service Rd HOUSTON TX 77007","ArrivalTime":1774371123102,"Latitude":29.77799,"Longitude":-95.420395,"Serviced":"No"}},{"type":"Feature","geometry":{"type":"Point","coordinates":[-95.398651123202,29.7682838438642]},"properties":{"Address":"722 HARTMAN ST HOUSTON TX 77007","ArrivalTime":1774451450241,"Latitude":29.768284,"Longitude":-95.398651,"Serviced":"Yes"}},{"type":"Feature","geometry":{"type":"Point","coordinates":[-95.3974533078055,29.7777366639932]},"properties":{"Address":"4th St And Heights Blvd HOUSTON TX 77007","ArrivalTime":1774635540856,"Latitude":29.777737,"Longitude":-95.397453,"Serviced":"No"}},{"type":"Feature","geometry":{"type":"Point","coordinates":[-95.3938406188044,29.7727516549489]},"properties":{"Address":"1320 LAKIN ST A HOUSTON TX 77007","ArrivalTime":1774969145661,"Latitude":29.772752,"Longitude":-95.393841,"Serviced":"Yes"}},{"type":"Feature","geometry":{"type":"Point","coordinates":[-95.4130274995993,29.7658350000376]},"properties":{"Address":"5125 FEAGAN ST HOUSTON TX 77007","ArrivalTime":1774969689918,"Latitude":29.765835,"Longitude":-95.413027,"Serviced":"Yes"}},{"type":"Feature","geometry":{"type":"Point","coordinates":[-95.4163350003557,29.7674370002868]},"properties":{"Address":"BLOSSOM ST & DETERING ST HOUSTON TX 77007","ArrivalTime":1774969881849,"Latitude":29.767437,"Longitude":-95.416335,"Serviced":"Yes"}},{"type":"Feature","geometry":{"type":"Point","coordinates":[-95.4193499997741,29.7724770000176]},"properties":{"Address":"MALONE ST & SCHULER ST HOUSTON TX 77007","ArrivalTime":1774970101783,"Latitude":29.772477,"Longitude":-95.41935,"Serviced":"Yes"}},{"type":"Feature","geometry":{"type":"Point","coordinates":[-95.41983032177,29.7726097111251]},"properties":{"Address":"5714 SCHULER ST HOUSTON TX 77007","ArrivalTime":1774970239820,"Latitude":29.77261,"Longitude":-95.41983,"Serviced":"Yes"}},{"type":"Feature","geometry":{"type":"Point","coordinates":[-95.4312002004047,29.764586183334]},"properties":{"Address":null,"ArrivalTime":1774970645603,"Latitude":29.764586,"Longitude":-95.4312,"Serviced":"Yes"}},{"type":"Feature","geometry":{"type":"Point","coordinates":[-95.411468505763,29.7794094090872]},"properties":{"Address":"4922 LARKIN ST HOUSTON TX 77007","ArrivalTime":1774978573007,"Latitude":29.779409,"Longitude":-95.411469,"Serviced":"No"}},{"type":"Feature","geometry":{"type":"Point","coordinates":[-95.4117180002568,29.7791999996579]},"properties":{"Address":"SANDMAN ST & LARKIN ST HOUSTON TX 77007","ArrivalTime":1774978697032,"Latitude":29.7792,"Longitude":-95.411718,"Serviced":"Yes"}},{"type":"Feature","geometry":{"type":"Point","coordinates":[-95.409166500084,29.7677970001556]},"properties":{"Address":"600 SHEPHERD DR HOUSTON TX 77007","ArrivalTime":1775057091252,"Latitude":29.767797,"Longitude":-95.409167,"Serviced":"Yes"}},{"type":"Feature","geometry":{"type":"Point","coordinates":[-95.4202094997531,29.7724680002427]},"properties":{"Address":"SCHULER ST & BIRDSALL ST HOUSTON TX 77007","ArrivalTime":1775057591130,"Latitude":29.772468,"Longitude":-95.420209,"Serviced":"Yes"}},{"type":"Feature","geometry":{"type":"Point","coordinates":[-95.407902000049,29.7848070001843]},"properties":{"Address":"1026 W 8TH ST HOUSTON TX 77007","ArrivalTime":1775068444705,"Latitude":29.784807,"Longitude":-95.407902,"Serviced":"No"}},{"type":"Feature","geometry":{"type":"Point","coordinates":[-95.4157409669162,29.7830314638385]},"properties":{"Address":"5224 EGBERT ST HOUSTON TX 77007","ArrivalTime":1775069242932,"Latitude":29.783031,"Longitude":-95.415741,"Serviced":"No"}},{"type":"Feature","geometry":{"type":"Point","coordinates":[-95.4154124997292,29.7753120003572]},"properties":{"Address":"5239 INKER ST HOUSTON TX 77007","ArrivalTime":1775330608329,"Latitude":29.775312,"Longitude":-95.415412,"Serviced":"No"}},{"type":"Feature","geometry":{"type":"Point","coordinates":[-95.3690032962448,29.7586708070903]},"properties":{"Address":"1020 SMITH ST HOUSTON TX 77002","ArrivalTime":1775497350495,"Latitude":29.758671,"Longitude":-95.369003,"Serviced":"Yes"}},{"type":"Feature","geometry":{"type":"Point","coordinates":[-95.3698399996769,29.7583700002414]},"properties":{"Address":"3601 REBECCA ST HOUSTON TX 77021","ArrivalTime":1775497380829,"Latitude":29.75837,"Longitude":-95.36984,"Serviced":"Yes"}},{"type":"Feature","geometry":{"type":"Point","coordinates":[-95.3726959227298,29.7756443021205]},"properties":{"Address":"2005 HOUSTON AVE HOUSTON TX 77007","ArrivalTime":1775770440091,"Latitude":29.775644,"Longitude":-95.372696,"Serviced":"No"}},{"type":"Feature","geometry":{"type":"Point","coordinates":[-95.4154124997292,29.7753120003572]},"properties":{"Address":"5239 INKER ST HOUSTON TX 77007","ArrivalTime":1775914361620,"Latitude":29.775312,"Longitude":-95.415412,"Serviced":"Yes"}},{"type":"Feature","geometry":{"type":"Point","coordinates":[-95.3916210003149,29.7839610003501]},"properties":{"Address":"720 OXFORD ST HOUSTON TX 77007","ArrivalTime":1776102581097,"Latitude":29.783961,"Longitude":-95.391621,"Serviced":"Yes"}},{"type":"Feature","geometry":{"type":"Point","coordinates":[-95.3916299996375,29.7841500002697]},"properties":{"Address":"722 OXFORD ST HOUSTON TX 77007","ArrivalTime":1776102623148,"Latitude":29.78415,"Longitude":-95.39163,"Serviced":"Yes"}},{"type":"Feature","geometry":{"type":"Point","coordinates":[-95.4225494996771,29.7701280001428]},"properties":{"Address":"904 WESTCOTT ST HOUSTON TX 77007","ArrivalTime":1776104376623,"Latitude":29.770128,"Longitude":-95.422549,"Serviced":"Yes"}},{"type":"Feature","geometry":{"type":"Point","coordinates":[-95.404502869337,29.7844257349631]},"properties":{"Address":"761 WAVERLY ST HOUSTON TX 77007","ArrivalTime":1776274620667,"Latitude":29.784426,"Longitude":-95.404503,"Serviced":"Yes"}},{"type":"Feature","geometry":{"type":"Point","coordinates":[-95.3906805001451,29.7683099998193]},"properties":{"Address":"906 memorial heights drive HOUSTON TX 77007","ArrivalTime":1776362788931,"Latitude":29.76831,"Longitude":-95.390681,"Serviced":"Yes"}},{"type":"Feature","geometry":{"type":"Point","coordinates":[-95.4093322751865,29.762151717935]},"properties":{"Address":"Memorial Dr And Shepherd Dr HOUSTON TX 77007","ArrivalTime":1776363378486,"Latitude":29.762152,"Longitude":-95.409332,"Serviced":"Yes"}},{"type":"Feature","geometry":{"type":"Point","coordinates":[-95.4247283939415,29.775220870627]},"properties":{"Address":"6101-6199 Clyde St HOUSTON TX 77007","ArrivalTime":1776363822761,"Latitude":29.775221,"Longitude":-95.424728,"Serviced":"Yes"}},{"type":"Feature","geometry":{"type":"Point","coordinates":[-95.4160766601513,29.7651958468725]},"properties":{"Address":"224 DETERING ST HOUSTON TX 77007","ArrivalTime":1776784081429,"Latitude":29.765196,"Longitude":-95.416077,"Serviced":"No"}},{"type":"Feature","geometry":{"type":"Point","coordinates":[-95.3899765012367,29.7800140376546]},"properties":{"Address":"500-698 E 5th 1/2 St HOUSTON TX 77007","ArrivalTime":1776784747038,"Latitude":29.780014,"Longitude":-95.389977,"Serviced":"No"}},{"type":"Feature","geometry":{"type":"Point","coordinates":[-95.390647887707,29.768539429275]},"properties":{"Address":"922 MEMORIAL HEIGHTS DR HOUSTON TX 77007","ArrivalTime":1776784939950,"Latitude":29.768539,"Longitude":-95.390648,"Serviced":"Yes"}},{"type":"Feature","geometry":{"type":"Point","coordinates":[-95.4101878198833,29.7618770222427]},"properties":{"Address":"MEMORIAL DR HOUSTON TX 77007","ArrivalTime":1776785357418,"Latitude":29.761877,"Longitude":-95.410188,"Serviced":"Yes"}},{"type":"Feature","geometry":{"type":"Point","coordinates":[-95.4214248664336,29.7648868561116]},"properties":{"Address":"Westcott St HOUSTON TX 77007","ArrivalTime":1776785520687,"Latitude":29.764887,"Longitude":-95.421425,"Serviced":"Yes"}},{"type":"Feature","geometry":{"type":"Point","coordinates":[-95.4182340002388,29.7695700002641]},"properties":{"Address":"822 ASBURY ST HOUSTON TX 77007","ArrivalTime":1776869670801,"Latitude":29.76957,"Longitude":-95.418234,"Serviced":"Yes"}},{"type":"Feature","geometry":{"type":"Point","coordinates":[-95.4107684998661,29.7636930002901]},"properties":{"Address":"4950 MEMORIAL DR HOUSTON TX 77007","ArrivalTime":1776870120112,"Latitude":29.763693,"Longitude":-95.410768,"Serviced":"No"}},{"type":"Feature","geometry":{"type":"Point","coordinates":[-95.4308319091045,29.7855224609889]},"properties":{"Address":"3116 MAXROY ST HOUSTON TX 77008","ArrivalTime":1776882424378,"Latitude":29.785522,"Longitude":-95.430832,"Serviced":"Yes"}},{"type":"Feature","geometry":{"type":"Point","coordinates":[-95.4089752496583,29.761757999998]},"properties":{"Address":"MEMORIAL DR & SHEPHERD DR HOUSTON TX 77007","ArrivalTime":1777387201923,"Latitude":29.761758,"Longitude":-95.408975,"Serviced":"Yes"}},{"type":"Feature","geometry":{"type":"Point","coordinates":[-95.4046173102126,29.773973465288]},"properties":{"Address":"4309 KOEHLER ST HOUSTON TX 77007","ArrivalTime":1777387932179,"Latitude":29.773973,"Longitude":-95.404617,"Serviced":"Yes"}},{"type":"Feature","geometry":{"type":"Point","coordinates":[-95.3771972656342,29.7738418577471]},"properties":{"Address":"1803 SILVER ST HOUSTON TX 77007","ArrivalTime":1777388365332,"Latitude":29.773842,"Longitude":-95.377197,"Serviced":"Yes"}},{"type":"Feature","geometry":{"type":"Point","coordinates":[-95.3758845000173,29.7737099997393]},"properties":{"Address":"SABINE ST & CROCKETT ST HOUSTON TX 77007","ArrivalTime":1777388499014,"Latitude":29.77371,"Longitude":-95.375885,"Serviced":"Yes"}},{"type":"Feature","geometry":{"type":"Point","coordinates":[-95.4026414998812,29.7715769998118]},"properties":{"Address":"4105 allen street HOUSTON TX 77007","ArrivalTime":1777652711909,"Latitude":29.771577,"Longitude":-95.402641,"Serviced":"Yes"}},{"type":"Feature","geometry":{"type":"Point","coordinates":[-95.4214248664336,29.7648868561116]},"properties":{"Address":"Westcott St HOUSTON TX 77007","ArrivalTime":1777653302779,"Latitude":29.764887,"Longitude":-95.421425,"Serviced":"Yes"}},{"type":"Feature","geometry":{"type":"Point","coordinates":[-95.3715703336788,29.7690473223346]},"properties":{"Address":"1215 HICKORY ST HOUSTON TX 77007","ArrivalTime":1777996242283,"Latitude":29.769047,"Longitude":-95.37157,"Serviced":"Yes"}},{"type":"Feature","geometry":{"type":"Point","coordinates":[-95.3765563967307,29.764513015974]},"properties":{"Address":"State Highway 35 HOUSTON TX 77007","ArrivalTime":1777996745910,"Latitude":29.764513,"Longitude":-95.376556,"Serviced":"Yes"}},{"type":"Feature","geometry":{"type":"Point","coordinates":[-95.4301949999748,29.762406000315]},"properties":{"Address":"6501 MEMORIAL DR HOUSTON TX 77007","ArrivalTime":1777999614584,"Latitude":29.762406,"Longitude":-95.430195,"Serviced":"Yes"}},{"type":"Feature","geometry":{"type":"Point","coordinates":[-95.4098815922878,29.7588081360298]},"properties":{"Address":"907 KIRBY DR HOUSTON TX 77019","ArrivalTime":1778076380817,"Latitude":29.758808,"Longitude":-95.409882,"Serviced":"Yes"}},{"type":"Feature","geometry":{"type":"Point","coordinates":[-95.3727416990801,29.7666454317662]},"properties":{"Address":"FM-865 HOUSTON TX 77007","ArrivalTime":1778250692325,"Latitude":29.766645,"Longitude":-95.372742,"Serviced":"Yes"}},{"type":"Feature","geometry":{"type":"Point","coordinates":[-95.3765563967307,29.764513015974]},"properties":{"Address":"State Highway 35 HOUSTON TX 77007","ArrivalTime":1778259901750,"Latitude":29.764513,"Longitude":-95.376556,"Serviced":"No"}},{"type":"Feature","geometry":{"type":"Point","coordinates":[-95.3765563967307,29.764513015974]},"properties":{"Address":"1813 STATE ST HOUSTON TX 77007","ArrivalTime":1778595193334,"Latitude":29.764513,"Longitude":-95.376556,"Serviced":"Yes"}},{"type":"Feature","geometry":{"type":"Point","coordinates":[-95.4267704999409,29.7810719998258]},"properties":{"Address":"5803 KIAM ST HOUSTON TX 77007","ArrivalTime":1778700344367,"Latitude":29.781072,"Longitude":-95.42677,"Serviced":"Yes"}},{"type":"Feature","geometry":{"type":"Point","coordinates":[-95.403510000081,29.7692189998167]},"properties":{"Address":"4204 ROSE ST HOUSTON TX 77007","ArrivalTime":1779201905291,"Latitude":29.769219,"Longitude":-95.40351,"Serviced":"Yes"}},{"type":"Feature","geometry":{"type":"Point","coordinates":[-95.4037399292679,29.7692031861469]},"properties":{"Address":"4300 ROSE ST HOUSTON TX 77007","ArrivalTime":1779201919115,"Latitude":29.769203,"Longitude":-95.40374,"Serviced":"Yes"}},{"type":"Feature","geometry":{"type":"Point","coordinates":[-95.390838623398,29.7673206327851]},"properties":{"Address":"726 MEMORIAL HEIGHTS DR HOUSTON TX 77007","ArrivalTime":1779289354387,"Latitude":29.767321,"Longitude":-95.390839,"Serviced":"Yes"}},{"type":"Feature","geometry":{"type":"Point","coordinates":[-95.4031077848024,29.7850964041101]},"properties":{"Address":"W 8TH ST HOUSTON TX 77007","ArrivalTime":1779393784264,"Latitude":29.785096,"Longitude":-95.403108,"Serviced":"No"}},{"type":"Feature","geometry":{"type":"Point","coordinates":[-95.380187988082,29.7581253052711]},"properties":{"Address":"1224 W DALLAS ST HOUSTON TX 77019","ArrivalTime":1779826403785,"Latitude":29.758125,"Longitude":-95.380188,"Serviced":"Yes"}},{"type":"Feature","geometry":{"type":"Point","coordinates":[-95.3876879999313,29.7816300003314]},"properties":{"Address":"WHITE OAK DR & STUDEWOOD ST HOUSTON TX 77007","ArrivalTime":1779994986005,"Latitude":29.78163,"Longitude":-95.387688,"Serviced":"No"}},{"type":"Feature","geometry":{"type":"Point","coordinates":[-95.3804016110499,29.7581062316236]},"properties":{"Address":"1302 W DALLAS ST HOUSTON TX 77019","ArrivalTime":1780410112974,"Latitude":29.758106,"Longitude":-95.380402,"Serviced":"Yes"}},{"type":"Feature","geometry":{"type":"Point","coordinates":[-95.4038467407518,29.770116805913]},"properties":{"Address":"4219 WASHINGTON AVE HOUSTON TX 77007","ArrivalTime":1780410924224,"Latitude":29.770117,"Longitude":-95.403847,"Serviced":"Yes"}},{"type":"Feature","geometry":{"type":"Point","coordinates":[-95.4066238402318,29.7703495030945]},"properties":{"Address":"4501\u20134559 Washington Ave HOUSTON TX 77007","ArrivalTime":1780411141080,"Latitude":29.77035,"Longitude":-95.406624,"Serviced":"Yes"}},{"type":"Feature","geometry":{"type":"Point","coordinates":[-95.4224624628076,29.771306992091]},"properties":{"Address":"6002 WASHINGTON AVE HOUSTON TX 77007","ArrivalTime":1780515520277,"Latitude":29.771307,"Longitude":-95.422462,"Serviced":"Yes"}},{"type":"Feature","geometry":{"type":"Point","coordinates":[-95.4185333251796,29.781080245662]},"properties":{"Address":"5409 KIAM ST HOUSTON TX 77007","ArrivalTime":1780602380125,"Latitude":29.78108,"Longitude":-95.418533,"Serviced":"Yes"}},{"type":"Feature","geometry":{"type":"Point","coordinates":[-95.375841997128,29.775217156041]},"properties":{"Address":"2000 SABINE ST HOUSTON TX 77007","ArrivalTime":1780687503625,"Latitude":29.775217,"Longitude":-95.375842,"Serviced":"Yes"}},{"type":"Feature","geometry":{"type":"Point","coordinates":[-95.375841997128,29.775217156041]},"properties":{"Address":"2000 SABINE ST HOUSTON TX 77007","ArrivalTime":1780688561615,"Latitude":29.775217,"Longitude":-95.375842,"Serviced":"No"}},{"type":"Feature","geometry":{"type":"Point","coordinates":[-95.4274215701127,29.7735710140206]},"properties":{"Address":"6505 Taggart St HOUSTON TX 77007","ArrivalTime":1781014343192,"Latitude":29.773571,"Longitude":-95.427422,"Serviced":"Yes"}},{"type":"Feature","geometry":{"type":"Point","coordinates":[-95.4185333251796,29.781080245662]},"properties":{"Address":"5409 KIAM ST HOUSTON TX 77007","ArrivalTime":1781028481389,"Latitude":29.78108,"Longitude":-95.418533,"Serviced":"No"}},{"type":"Feature","geometry":{"type":"Point","coordinates":[-95.410993499997,29.7802890001603]},"properties":{"Address":"4910 DARLING ST HOUSTON TX 77007","ArrivalTime":1781029441293,"Latitude":29.780289,"Longitude":-95.410993,"Serviced":"No"}},{"type":"Feature","geometry":{"type":"Point","coordinates":[-95.4106063836017,29.7801818852557]},"properties":{"Address":"2210 DURHAM DR HOUSTON TX 77007","ArrivalTime":1781029465879,"Latitude":29.780182,"Longitude":-95.410606,"Serviced":"No"}},{"type":"Feature","geometry":{"type":"Point","coordinates":[-95.4033680195537,29.7653489289037]},"properties":{"Address":"4301 DICKSON ST HOUSTON TX 77007","ArrivalTime":1781272059512,"Latitude":29.765349,"Longitude":-95.403368,"Serviced":"Yes"}},{"type":"Feature","geometry":{"type":"Point","coordinates":[-95.4035581884078,29.7653459960878]},"properties":{"Address":"4315A DICKSON ST HOUSTON TX 77007","ArrivalTime":1781620140082,"Latitude":29.765346,"Longitude":-95.403558,"Serviced":"Yes"}},{"type":"Feature","geometry":{"type":"Point","coordinates":[-95.4070155003058,29.7839610003501]},"properties":{"Address":"725 LAWRENCE ST HOUSTON TX 77007","ArrivalTime":1781633740673,"Latitude":29.783961,"Longitude":-95.407016,"Serviced":"No"}},{"type":"Feature","geometry":{"type":"Point","coordinates":[-95.4185333251796,29.781080245662]},"properties":{"Address":"5409 KIAM ST HOUSTON TX 77007","ArrivalTime":1781725203086,"Latitude":29.78108,"Longitude":-95.418533,"Serviced":"Yes"}},{"type":"Feature","geometry":{"type":"Point","coordinates":[-95.4006075002789,29.773080000247]},"properties":{"Address":"111 YALE ST HOUSTON TX 77007","ArrivalTime":1781965114564,"Latitude":29.77308,"Longitude":-95.400608,"Serviced":"Yes"}},{"type":"Feature","geometry":{"type":"Point","coordinates":[-95.4290542599383,29.773744583175]},"properties":{"Address":"6602 RODRIGO ST HOUSTON TX 77007","ArrivalTime":1781965644145,"Latitude":29.773745,"Longitude":-95.429054,"Serviced":"Yes"}},{"type":"Feature","geometry":{"type":"Point","coordinates":[-95.3693542482634,29.7601871492162]},"properties":{"Address":"901 BAGBY ST HOUSTON TX 77002","ArrivalTime":1782221826615,"Latitude":29.760187,"Longitude":-95.369354,"Serviced":"Yes"}},{"type":"Feature","geometry":{"type":"Point","coordinates":[-95.4033680195537,29.7653489289037]},"properties":{"Address":"4301 DICKSON ST HOUSTON TX 77007","ArrivalTime":1782224773732,"Latitude":29.765349,"Longitude":-95.403368,"Serviced":"Yes"}},{"type":"Feature","geometry":{"type":"Point","coordinates":[-95.4134826660723,29.7790393828178]},"properties":{"Address":"5101-5199 Larkin St HOUSTON TX 77007","ArrivalTime":1782246660606,"Latitude":29.779039,"Longitude":-95.413483,"Serviced":"No"}},{"type":"Feature","geometry":{"type":"Point","coordinates":[-95.3969310003499,29.7735119999249]},"properties":{"Address":"190 HEIGHTS BLVD HOUSTON TX 77007","ArrivalTime":1782309038135,"Latitude":29.773512,"Longitude":-95.396931,"Serviced":"Yes"}},{"type":"Feature","geometry":{"type":"Point","coordinates":[-95.4238128660382,29.7716293333878]},"properties":{"Address":"6115 WASHINGTON AVE HOUSTON TX 77007","ArrivalTime":1782309552918,"Latitude":29.771629,"Longitude":-95.423813,"Serviced":"Yes"}},{"type":"Feature","geometry":{"type":"Point","coordinates":[-95.4214248664336,29.7648868561116]},"properties":{"Address":"Westcott St HOUSTON TX 77007","ArrivalTime":1782309759749,"Latitude":29.764887,"Longitude":-95.421425,"Serviced":"Yes"}},{"type":"Feature","geometry":{"type":"Point","coordinates":[-95.4099944997392,29.7678959999122]},"properties":{"Address":"611 SHEPHERD DR HOUSTON TX 77007","ArrivalTime":1782332770914,"Latitude":29.767896,"Longitude":-95.409994,"Serviced":"Yes"}},{"type":"Feature","geometry":{"type":"Point","coordinates":[-95.3969802864179,29.7793350222075]},"properties":{"Address":"442 HEIGHTS BLVD HOUSTON TX 77007","ArrivalTime":1782757356181,"Latitude":29.779335,"Longitude":-95.39698,"Serviced":"Yes"}},{"type":"Feature","geometry":{"type":"Point","coordinates":[-95.3764920001012,29.7703079996921]},"properties":{"Address":"1310 SILVER ST HOUSTON TX 77007","ArrivalTime":1782832579647,"Latitude":29.770308,"Longitude":-95.376492,"Serviced":"Yes"}},{"type":"Feature","geometry":{"type":"Point","coordinates":[-95.3969310003499,29.7735119999249]},"properties":{"Address":"190 HEIGHTS BLVD HOUSTON TX 77007","ArrivalTime":1782833237104,"Latitude":29.773512,"Longitude":-95.396931,"Serviced":"Yes"}},{"type":"Feature","geometry":{"type":"Point","coordinates":[-95.4182739258615,29.7734851841142]},"properties":{"Address":"1406 ASBURY ST HOUSTON TX 77007","ArrivalTime":1782833949749,"Latitude":29.773485,"Longitude":-95.418274,"Serviced":"Yes"}},{"type":"Feature","geometry":{"type":"Point","coordinates":[-95.4259414672231,29.768575667612]},"properties":{"Address":"426 W COWAN DR HOUSTON TX 77007","ArrivalTime":1782834282252,"Latitude":29.768576,"Longitude":-95.425941,"Serviced":"Yes"}},{"type":"Feature","geometry":{"type":"Point","coordinates":[-95.3942444995595,29.7695880003338]},"properties":{"Address":"3402 WASHINGTON AVE HOUSTON TX 77007","ArrivalTime":1783353638340,"Latitude":29.769588,"Longitude":-95.394244,"Serviced":"Yes"}},{"type":"Feature","geometry":{"type":"Point","coordinates":[-95.4162180001798,29.7695700002641]},"properties":{"Address":"880 DETERING ST HOUSTON TX 77007","ArrivalTime":1783354027495,"Latitude":29.76957,"Longitude":-95.416218,"Serviced":"Yes"}},{"type":"Feature","geometry":{"type":"Point","coordinates":[-95.4197311396778,29.7609939567467]},"properties":{"Address":"5757 MEMORIAL DR HOUSTON TX 77007","ArrivalTime":1783354353891,"Latitude":29.760994,"Longitude":-95.419731,"Serviced":"Yes"}},{"type":"Feature","geometry":{"type":"Point","coordinates":[-95.4109649659103,29.7764892580235]},"properties":{"Address":"1801 DURHAM DR HOUSTON TX 77007","ArrivalTime":1783523298666,"Latitude":29.776489,"Longitude":-95.410965,"Serviced":"Yes"}},{"type":"Feature","geometry":{"type":"Point","coordinates":[-95.4152984621971,29.7719993589673]},"properties":{"Address":"1200 Studer St HOUSTON TX 770","ArrivalTime":1783523612885,"Latitude":29.771999,"Longitude":-95.415298,"Serviced":"Yes"}},{"type":"Feature","geometry":{"type":"Point","coordinates":[-95.3900985724023,29.7640705109189]},"properties":{"Address":"2908-3036 Memorial Dr HOUSTON TX 770","ArrivalTime":1783691680776,"Latitude":29.764071,"Longitude":-95.390099,"Serviced":"Yes"}},{"type":"Feature","geometry":{"type":"Point","coordinates":[-95.3792639998454,29.7736829999649]},"properties":{"Address":"CROCKETT ST & HENDERSON ST HOUSTON TX 770","ArrivalTime":1783692131292,"Latitude":29.773683,"Longitude":-95.379264,"Serviced":"Yes"}},{"type":"Feature","geometry":{"type":"Point","coordinates":[-95.3983840935939,29.7681617740725]},"properties":{"Address":"30 Waugh Dr HOUSTON TX 770","ArrivalTime":1783692701150,"Latitude":29.768162,"Longitude":-95.398384,"Serviced":"Yes"}},{"type":"Feature","geometry":{"type":"Point","coordinates":[-95.4077606195963,29.7739944462521]},"properties":{"Address":"4609 MAXIE ST HOUSTON TX 77007","ArrivalTime":1783692973878,"Latitude":29.773994,"Longitude":-95.407761,"Serviced":"Yes"}},{"type":"Feature","geometry":{"type":"Point","coordinates":[-95.4199218753688,29.7767887106962]},"properties":{"Address":"5419-5499 Katy Fwy HOUSTON TX 770","ArrivalTime":1783693360194,"Latitude":29.776789,"Longitude":-95.419922,"Serviced":"Yes"}},{"type":"Feature","geometry":{"type":"Point","coordinates":[-95.4164962766953,29.76550293008]},"properties":{"Address":"305 DETERING ST HOUSTON TX 77007","ArrivalTime":1783794362054,"Latitude":29.765503,"Longitude":-95.416496,"Serviced":"No"}},{"type":"Feature","geometry":{"type":"Point","coordinates":[-95.3983840935939,29.7681617740725]},"properties":{"Address":"30 Waugh Dr HOUSTON TX 770","ArrivalTime":1783962942988,"Latitude":29.768162,"Longitude":-95.398384,"Serviced":"Yes"}},{"type":"Feature","geometry":{"type":"Point","coordinates":[-95.4214096067519,29.7638702391836]},"properties":{"Address":"222 WESTCOTT ST HOUSTON TX 77007","ArrivalTime":1783963429627,"Latitude":29.76387,"Longitude":-95.42141,"Serviced":"Yes"}},{"type":"Feature","geometry":{"type":"Point","coordinates":[-95.4212354997751,29.7630180001888]},"properties":{"Address":"200 WESTCOTT ST HOUSTON TX 77007","ArrivalTime":1783963453404,"Latitude":29.763018,"Longitude":-95.421235,"Serviced":"Yes"}},{"type":"Feature","geometry":{"type":"Point","coordinates":[-95.3724915003071,29.7640080000288]},"properties":{"Address":"N MEMORIAL WAY & HOUSTON AVE HOUSTON TX 770","ArrivalTime":1784143442788,"Latitude":29.764008,"Longitude":-95.372492,"Serviced":"Yes"}},{"type":"Feature","geometry":{"type":"Point","coordinates":[-95.3715656920837,29.7689104051112]},"properties":{"Address":"1203 HICKORY ST HOUSTON TX 77007","ArrivalTime":1784144010144,"Latitude":29.76891,"Longitude":-95.371566,"Serviced":"Yes"}},{"type":"Feature","geometry":{"type":"Point","coordinates":[-95.4164962766953,29.76550293008]},"properties":{"Address":"305 DETERING ST HOUSTON TX 77007","ArrivalTime":1784144740080,"Latitude":29.765503,"Longitude":-95.416496,"Serviced":"Yes"}},{"type":"Feature","geometry":{"type":"Point","coordinates":[-95.4196243290922,29.7608795173034]},"properties":{"Address":"5701 MEMORIAL DR HOUSTON TX 77007","ArrivalTime":1784145134695,"Latitude":29.76088,"Longitude":-95.419624,"Serviced":"Yes"}},{"type":"Feature","geometry":{"type":"Point","coordinates":[-95.3947830198094,29.7813835143537]},"properties":{"Address":"3417 WHITE OAK DR HOUSTON TX 77007","ArrivalTime":1784231320555,"Latitude":29.781384,"Longitude":-95.394783,"Serviced":"No"}},{"type":"Feature","geometry":{"type":"Point","coordinates":[-95.4188842771982,29.7807788847003]},"properties":{"Address":"5414 PETTY ST HOUSTON TX 770","ArrivalTime":1784231975516,"Latitude":29.780779,"Longitude":-95.418884,"Serviced":"No"}},{"type":"Feature","geometry":{"type":"Point","coordinates":[-95.3683784999984,29.7706590002221]},"properties":{"Address":"1111 EDWARDS ST HOUSTON TX 77007","ArrivalTime":1784385698056,"Latitude":29.770659,"Longitude":-95.368378,"Serviced":"Yes"}},{"type":"Feature","geometry":{"type":"Point","coordinates":[-95.3865051271112,29.7836437220609]},"properties":{"Address":"1109 E Seventh St HOUSTON TX 770","ArrivalTime":1784658362083,"Latitude":29.783644,"Longitude":-95.386505,"Serviced":"No"}},{"type":"Feature","geometry":{"type":"Point","coordinates":[-95.4198404996822,29.7807659997623]},"properties":{"Address":"5432 PETTY ST HOUSTON TX 77007","ArrivalTime":1784908502556,"Latitude":29.780766,"Longitude":-95.41984,"Serviced":"Yes"}},{"type":"Feature","geometry":{"type":"Point","coordinates":[-95.4127440002788,29.7845549997869]},"properties":{"Address":"1518 GLEN OAKS ST HOUSTON TX 77008","ArrivalTime":1785183030449,"Latitude":29.784555,"Longitude":-95.412744,"Serviced":"Yes"}},{"type":"Feature","geometry":{"type":"Point","coordinates":[-95.3987940002479,29.7814500000805]},"properties":{"Address":"544 YALE ST HOUSTON TX 77007","ArrivalTime":1785184029084,"Latitude":29.78145,"Longitude":-95.398794,"Serviced":"No"}},{"type":"Feature","geometry":{"type":"Point","coordinates":[-95.3683700558347,29.7695770267169]},"properties":{"Address":"1204 HOLLY ST HOUSTON TX 77007","ArrivalTime":1785247171192,"Latitude":29.769577,"Longitude":-95.36837,"Serviced":"Yes"}},{"type":"Feature","geometry":{"type":"Point","coordinates":[-95.369834899941,29.7611541751791]},"properties":{"Address":"177 Walker St HOUSTON TX 77002","ArrivalTime":1785247771149,"Latitude":29.761154,"Longitude":-95.369835,"Serviced":"Yes"}},{"type":"Feature","geometry":{"type":"Point","coordinates":[-95.3670645000963,29.7599040001404]},"properties":{"Address":"611 WALKER ST HOUSTON TX 77002","ArrivalTime":1785445108616,"Latitude":29.759904,"Longitude":-95.367065,"Serviced":"Yes"}},{"type":"Feature","geometry":{"type":"Point","coordinates":[-95.3700840000743,29.7600659999058]},"properties":{"Address":"BAGBY ST & MCKINNEY ST HOUSTON TX 770","ArrivalTime":1785445202754,"Latitude":29.760066,"Longitude":-95.370084,"Serviced":"Yes"}},{"type":"Feature","geometry":{"type":"Point","coordinates":[-95.3714834998285,29.7629009998024]},"properties":{"Address":"S IH 45 HWY & MCKINNEY ST HOUSTON TX 770","ArrivalTime":1785446250377,"Latitude":29.762901,"Longitude":-95.371483,"Serviced":"Yes"}},{"type":"Feature","geometry":{"type":"Point","coordinates":[-95.3693594998145,29.7601919998022]},"properties":{"Address":"901 BAGBY ST HOUSTON TX 77002","ArrivalTime":1785765240137,"Latitude":29.760192,"Longitude":-95.369359,"Serviced":"Yes"}},{"type":"Feature","geometry":{"type":"Point","coordinates":[-95.3700840000743,29.7600659999058]},"properties":{"Address":"MCKINNEY ST & BAGBY ST HOUSTON TX 77002","ArrivalTime":1785765280073,"Latitude":29.760066,"Longitude":-95.370084,"Serviced":"Yes"}},{"type":"Feature","geometry":{"type":"Point","coordinates":[-95.3744219996156,29.7734939997806]},"properties":{"Address":"1619 CROCKETT ST HOUSTON TX 77007","ArrivalTime":1785941065982,"Latitude":29.773494,"Longitude":-95.374422,"Serviced":"Yes"}},{"type":"Feature","geometry":{"type":"Point","coordinates":[-95.3744125367624,29.7735595706611]},"properties":{"Address":"1621 CROCKETT ST HOUSTON TX 77007","ArrivalTime":1785941101413,"Latitude":29.77356,"Longitude":-95.374413,"Serviced":"Yes"}},{"type":"Feature","geometry":{"type":"Point","coordinates":[-95.4109497071269,29.7593860623583]},"properties":{"Address":"900\u2013930 Kirby Dr HOUSTON TX 770","ArrivalTime":1786462451836,"Latitude":29.759386,"Longitude":-95.41095,"Serviced":"Yes"}},{"type":"Feature","geometry":{"type":"Point","coordinates":[-95.4262619016748,29.7788295749718]},"properties":{"Address":"5701-5747 Larkin St HOUSTON TX 770","ArrivalTime":1787085488540,"Latitude":29.77883,"Longitude":-95.426262,"Serviced":"No"}},{"type":"Feature","geometry":{"type":"Point","coordinates":[-95.4128189089937,29.7781829837701]},"properties":{"Address":"Katy Fwy And Roy St HOUSTON TX 770","ArrivalTime":1787086020208,"Latitude":29.778183,"Longitude":-95.412819,"Serviced":"No"}},{"type":"Feature","geometry":{"type":"Point","coordinates":[-95.375442504643,29.7742195125861]},"properties":{"Address":"1715 SHEARN ST HOUSTON TX 77007","ArrivalTime":1787148308849,"Latitude":29.77422,"Longitude":-95.375443,"Serviced":"Yes"}},{"type":"Feature","geometry":{"type":"Point","coordinates":[-95.4182340002388,29.7694349996378]},"properties":{"Address":"814 ASBURY ST HOUSTON TX 77007","ArrivalTime":1787149064513,"Latitude":29.769435,"Longitude":-95.418234,"Serviced":"Yes"}},{"type":"Feature","geometry":{"type":"Point","coordinates":[-95.4229904997181,29.7749249999886]},"properties":{"Address":"6014 TYNE ST HOUSTON TX 77007","ArrivalTime":1787321206875,"Latitude":29.774925,"Longitude":-95.42299,"Serviced":"Yes"}},{"type":"Feature","geometry":{"type":"Point","coordinates":[-95.4020156858435,29.7681961059972]},"properties":{"Address":"Floyd St And Jackson Hill St HOUSTON TX 770","ArrivalTime":1787593729015,"Latitude":29.768196,"Longitude":-95.402016,"Serviced":"Yes"}},{"type":"Feature","geometry":{"type":"Point","coordinates":[-95.4216450003906,29.7643500002948]},"properties":{"Address":"WESTCOTT ST & LACY ST HOUSTON TX 77007","ArrivalTime":1787594109078,"Latitude":29.76435,"Longitude":-95.421645,"Serviced":"Yes"}},{"type":"Feature","geometry":{"type":"Point","coordinates":[-95.4240112302226,29.7627696989981]},"properties":{"Address":"6018\u20136036 Memorial Dr HOUSTON TX 770","ArrivalTime":1788187921347,"Latitude":29.76277,"Longitude":-95.424011,"Serviced":"Yes"}},{"type":"Feature","geometry":{"type":"Point","coordinates":[-95.4168472287138,29.7680511473424]},"properties":{"Address":"5411 FLOYD ST HOUSTON TX 77007","ArrivalTime":1788188349734,"Latitude":29.768051,"Longitude":-95.416847,"Serviced":"Yes"}},{"type":"Feature","geometry":{"type":"Point","coordinates":[-95.4165285001628,29.767761000149]},"properties":{"Address":"609 DETERING ST HOUSTON TX 77007","ArrivalTime":1788453755551,"Latitude":29.767761,"Longitude":-95.416529,"Serviced":"Yes"}},{"type":"Feature","geometry":{"type":"Point","coordinates":[-95.3906714999242,29.7781019997383]},"properties":{"Address":"404 OXFORD ST HOUSTON TX 77007","ArrivalTime":1788554795211,"Latitude":29.778102,"Longitude":-95.390671,"Serviced":"No"}},{"type":"Feature","geometry":{"type":"Point","coordinates":[-95.4224144999579,29.7793710001212]},"properties":{"Address":"5608 LARKIN ST HOUSTON TX 77007","ArrivalTime":1789073003720,"Latitude":29.779371,"Longitude":-95.422414,"Serviced":"No"}},{"type":"Feature","geometry":{"type":"Point","coordinates":[-95.4224243167473,29.7792186739872]},"properties":{"Address":"5610 LARKIN ST HOUSTON TX 77007","ArrivalTime":1789073040242,"Latitude":29.779219,"Longitude":-95.422424,"Serviced":"No"}},{"type":"Feature","geometry":{"type":"Point","coordinates":[-95.4222335810563,29.7790126799829]},"properties":{"Address":"5603 LARKIN ST HOUSTON TX 77007","ArrivalTime":1789073061790,"Latitude":29.779013,"Longitude":-95.422234,"Serviced":"No"}},{"type":"Feature","geometry":{"type":"Point","coordinates":[-95.4223175052634,29.7789325714356]},"properties":{"Address":"5609 LARKIN ST HOUSTON TX 77007","ArrivalTime":1789073080875,"Latitude":29.778933,"Longitude":-95.422318,"Serviced":"No"}},{"type":"Feature","geometry":{"type":"Point","coordinates":[-95.4072113033933,29.7751522061236]},"properties":{"Address":"1602 FOWLER ST HOUSTON TX 77007","ArrivalTime":1789149399815,"Latitude":29.775152,"Longitude":-95.407211,"Serviced":"Yes"}},{"type":"Feature","geometry":{"type":"Point","coordinates":[-95.4203948976547,29.7729892731695]},"properties":{"Address":"1311 BIRDSALL ST HOUSTON TX 77007","ArrivalTime":1789150260490,"Latitude":29.772989,"Longitude":-95.420395,"Serviced":"No"}},{"type":"Feature","geometry":{"type":"Point","coordinates":[-95.3769760132746,29.7644977567813]},"properties":{"Address":"1819 STATE ST HOUSTON TX 77007","ArrivalTime":1789150298672,"Latitude":29.764498,"Longitude":-95.376976,"Serviced":"Yes"}},{"type":"Feature","geometry":{"type":"Point","coordinates":[-95.4241867062319,29.7726898192724]},"properties":{"Address":"6200\u20136214 Washington Ave HOUSTON TX 77007","ArrivalTime":1789150470415,"Latitude":29.77269,"Longitude":-95.424187,"Serviced":"No"}},{"type":"Feature","geometry":{"type":"Point","coordinates":[-95.3812561038195,29.7734661102719]},"properties":{"Address":"2215 CROCKETT ST HOUSTON TX 77007","ArrivalTime":1789151586697,"Latitude":29.773466,"Longitude":-95.381256,"Serviced":"No"}},{"type":"Feature","geometry":{"type":"Point","coordinates":[-95.4257125854718,29.7738132478638]},"properties":{"Address":"6319 WASHINGTON AVE HOUSTON TX 77007","ArrivalTime":1789417850620,"Latitude":29.773813,"Longitude":-95.425713,"Serviced":"Yes"}},{"type":"Feature","geometry":{"type":"Point","coordinates":[-95.4116439817723,29.7692337038763]},"properties":{"Address":"807 SANDMAN ST HOUSTON TX 77007","ArrivalTime":1789418286161,"Latitude":29.769234,"Longitude":-95.411644,"Serviced":"Yes"}},{"type":"Feature","geometry":{"type":"Point","coordinates":[-95.411506500008,29.7689669999567]},"properties":{"Address":"5002 ROSE ST HOUSTON TX 77007","ArrivalTime":1789418298580,"Latitude":29.768967,"Longitude":-95.411507,"Serviced":"Yes"}},{"type":"Feature","geometry":{"type":"Point","coordinates":[-95.4223175052634,29.7789325714356]},"properties":{"Address":"5609 LARKIN ST HOUSTON TX 77007","ArrivalTime":1789592184231,"Latitude":29.778933,"Longitude":-95.422318,"Serviced":"No"}}]}