{"type": "Feature", "properties": {"name": "WASHINGTON CORRIDOR"}, "geometry": {"type": "Polygon", "coordinates": [[[-95.41635394540666, 29.77127631978335], [-95.4143810852165, 29.771320603289436], [-95.41247327209588, 29.771413185092243], [-95.41156911169377, 29.771434784338055], [-95.41157381528444, 29.771556037362906], [-95.41064384109899, 29.77155442519887], [-95.41054712715885, 29.771520777176015], [-95.40948214223518, 29.771562127533098], [-95.40840463935533, 29.771579840067805], [-95.40638341406806, 29.77160718062128], [-95.40615989840852, 29.771636126659274], [-95.40617638709715, 29.77179962078497], [-95.40465977750026, 29.771650239585476], [-95.40408739962281, 29.771580534297215], [-95.40399713555603, 29.77136464145758], [-95.40342824100713, 29.77130668004704], [-95.40342682132479, 29.771501138024888], [-95.40225649272813, 29.771407159843545], [-95.40223754998398, 29.77130318166761], [-95.39983093463107, 29.771086748637295], [-95.39986217282211, 29.770784380124752], [-95.39855516123413, 29.770748703490852], [-95.39725210682704, 29.77060109440461], [-95.39494919435464, 29.77041493167498], [-95.39495776642067, 29.771082725457433], [-95.39402808149909, 29.770984327420184], [-95.39399034090114, 29.77021877506067], [-95.39316009972067, 29.770226806267235], [-95.39149241641196, 29.770009953061223], [-95.38694436343582, 29.76965335625033], [-95.38548833279961, 29.769489900080767], [-95.3845722886213, 29.769383987568776], [-95.38346395897088, 29.76929676217452], [-95.38206917485512, 29.76925911317132], [-95.38052101734793, 29.769069232777145], [-95.3763259884972, 29.768640605414575], [-95.37591266543747, 29.76856255615222], [-95.37560496193112, 29.76843959515366], [-95.37425886864033, 29.768264660492278], [-95.37232684634641, 29.76809295756443], [-95.37230198920996, 29.767247254981505], [-95.37232836088592, 29.766861557390996], [-95.37386000976413, 29.766847810873067], [-95.37466909351362, 29.766805852231727], [-95.37547767558355, 29.76679240112146], [-95.3755852587327, 29.766779193914065], [-95.37560923657296, 29.76679775398861], [-95.37932398163868, 29.76671905197541], [-95.38159952294906, 29.76669811985301], [-95.3816365782851, 29.766785191937267], [-95.38278005216827, 29.76676829769397], [-95.38275684768973, 29.76706253294344], [-95.38333936330072, 29.76707825574381], [-95.38850821010142, 29.767851692781978], [-95.39055904246204, 29.76791457041561], [-95.39102502593553, 29.76797249118465], [-95.39216543553546, 29.768129651748303], [-95.39710459527376, 29.768926558873947], [-95.39743544500719, 29.7689416404207], [-95.39767688979423, 29.768934056792546], [-95.39775180825715, 29.768940539746954], [-95.39810777751583, 29.768935123034847], [-95.39917090533112, 29.76891135686389], [-95.40000345118298, 29.76893065872021], [-95.40012803188812, 29.76907730580038], [-95.40088835978517, 29.7690480452982], [-95.40087989459916, 29.769287952598006], [-95.40190514184727, 29.76928236212891], [-95.4018989345049, 29.769356613162607], [-95.40333565506789, 29.76930082922159], [-95.40387144697587, 29.769304724883646], [-95.40486402056403, 29.769304099533088], [-95.40558010839378, 29.76930653546303], [-95.4060995370239, 29.76929740300581], [-95.40611059990943, 29.76940823796896], [-95.40686272004514, 29.769387717500358], [-95.40698681283777, 29.769395566112106], [-95.40698530804231, 29.76958540829819], [-95.40722636465537, 29.76958282934387], [-95.40724718225128, 29.769359596703694], [-95.4075473782734, 29.769369905740707], [-95.40825995380673, 29.769368661379318], [-95.40835481323302, 29.769323733181146], [-95.40941338378609, 29.769356620905135], [-95.40947057166572, 29.769351372427703], [-95.41057457933907, 29.769344779417832], [-95.41150264247709, 29.76933120572462], [-95.41152494911671, 29.76950054339916], [-95.41193244013253, 29.769487387074992], [-95.41192521757824, 29.769324437055857], [-95.41240983816779, 29.76932158835794], [-95.41253456676422, 29.769311364176282], [-95.41269756874887, 29.76931798795451], [-95.41328377999795, 29.76929977179707], [-95.413402616178, 29.769309734011788], [-95.41345467345862, 29.769376681577043], [-95.41424379532522, 29.76940910106557], [-95.41424468576594, 29.76953119251776], [-95.41496116992761, 29.76956618550409], [-95.414987901671, 29.769447438091497], [-95.4163617703594, 29.76949612606329], [-95.41637961914556, 29.769459452885158], [-95.41664899083645, 29.769462134675898], [-95.41765252047719, 29.7694392342132], [-95.41763418570523, 29.769900329009165], [-95.41971418780743, 29.769914121254985], [-95.42302406569095, 29.76998459696322], [-95.42420794659994, 29.771440193719666], [-95.42271312891722, 29.771747528644287], [-95.42270357092323, 29.77202005276952], [-95.4220169746782, 29.77198353746094], [-95.4219870833122, 29.77204335691413], [-95.42115364876754, 29.772033225866483], [-95.42117858175433, 29.771718680508513], [-95.42066489382952, 29.771704961366932], [-95.41749467241426, 29.77167651605313], [-95.41744680175172, 29.771256342550213], [-95.41635394540666, 29.77127631978335]]]}}