{"type": "FeatureCollection", "features": [{"type": "Feature", "id": 36, "geometry": {"type": "LineString", "coordinates": [[-95.3879807570286, 29.7589650810402], [-95.3891521174721, 29.7589381610959]]}, "properties": {"OBJECTID": 36, "Id": 0, "BLOCK": "1900", "STREET": "WEST MC KINNEY", "TIME": "5PM-2AM", "DAYS": "MON-SUN", "zip": "77019", "APP_": " ", "Type": "Existing", "CHKD": "OK", "AREA": null, "Shape__Length": 371.7814581995123}}, {"type": "Feature", "id": 37, "geometry": {"type": "LineString", "coordinates": [[-95.3857602096568, 29.7590077692991], [-95.3879807570286, 29.7589650810402]]}, "properties": {"OBJECTID": 37, "Id": 0, "BLOCK": "1900", "STREET": "WEST MC KINNEY", "TIME": "5PM-2AM", "DAYS": "MON-SUN", "zip": "77019", "APP_": " ", "Type": "Existing", "CHKD": "OK", "AREA": null, "Shape__Length": 704.7123114110336}}, {"type": "Feature", "id": 91, "geometry": {"type": "LineString", "coordinates": [[-95.3858160806843, 29.7583145082507], [-95.389100743162, 29.758256758696]]}, "properties": {"OBJECTID": 91, "Id": 0, "BLOCK": "1900", "STREET": "WEST LAMAR", "TIME": "6PM-8AM", "DAYS": "MON-SUN", "zip": "77019", "APP_": "12180724124", "Type": "Existing", "CHKD": "OK", "AREA": null, "Shape__Length": 1042.3853765152724}}, {"type": "Feature", "id": 94, "geometry": {"type": "LineString", "coordinates": [[-95.3760453561253, 29.7570810097061], [-95.376039758212, 29.7570333130881], [-95.3760340847801, 29.7564628056661]]}, "properties": {"OBJECTID": 94, "Id": 0, "BLOCK": "1100", "STREET": "CROSBY", "TIME": "4PM-4AM", "DAYS": "MON-SUN", "zip": "77019", "APP_": "052521-24-347", "Type": "Existing", "CHKD": "OK", "AREA": "CROSBY ST SQUARE TOWNHOMES", "Shape__Length": 224.89913549338826}}, {"type": "Feature", "id": 95, "geometry": {"type": "LineString", "coordinates": [[-95.3769404389159, 29.7570830458692], [-95.3778139795062, 29.7570744840479]]}, "properties": {"OBJECTID": 95, "Id": 0, "BLOCK": "900", "STREET": "SAULNIER", "TIME": "4PM-4AM", "DAYS": "MON-SUN", "zip": "77019", "APP_": "052521-24-347", "Type": "Existing", "CHKD": "OK", "AREA": "CROSBY ST SQUARE TOWNHOMES", "Shape__Length": 277.1820077638325}}, {"type": "Feature", "id": 96, "geometry": {"type": "LineString", "coordinates": [[-95.3760453561253, 29.7570810097061], [-95.3768838979261, 29.757078892965], [-95.3769404389159, 29.7570830458692]]}, "properties": {"OBJECTID": 96, "Id": 0, "BLOCK": "800", "STREET": "SAULNIER", "TIME": "4PM-4AM", "DAYS": "MON-SUN", "zip": "77019", "APP_": "052521-24-347", "Type": "Existing", "CHKD": "OK", "AREA": "CROSBY ST SQUARE TOWNHOMES", "Shape__Length": 284.06417619470943}}, {"type": "Feature", "id": 100, "geometry": {"type": "LineString", "coordinates": [[-95.3778139795062, 29.7570744840479], [-95.377805286706, 29.7564429979226]]}, "properties": {"OBJECTID": 100, "Id": 0, "BLOCK": "1100", "STREET": "BUCKNER", "TIME": "4PM-4AM", "DAYS": "MON-SUN", "zip": "77019", "APP_": "052521-24-347", "Type": "Existing", "CHKD": "OK", "AREA": "CROSBY ST SQUARE TOWNHOMES", "Shape__Length": 229.6470117635954}}, {"type": "Feature", "id": 108, "geometry": {"type": "LineString", "coordinates": [[-95.3769404389159, 29.7570830458692], [-95.3769338021699, 29.7570401486661], [-95.3769388377478, 29.7564507782249]]}, "properties": {"OBJECTID": 108, "Id": 0, "BLOCK": "1100", "STREET": "ARTHUR", "TIME": "4PM-4AM", "DAYS": "MON-SUN", "zip": "77019", "APP_": "052521-24-347", "Type": "Existing", "CHKD": "OK", "AREA": "CROSBY ST SQUARE TOWNHOMES", "Shape__Length": 230.06208309620553}}, {"type": "Feature", "id": 118, "geometry": {"type": "LineString", "coordinates": [[-95.375596963752, 29.7669872917413], [-95.3767859824384, 29.7669863089498], [-95.3771824703539, 29.7669758981674]]}, "properties": {"OBJECTID": 118, "Id": null, "BLOCK": "1800", "STREET": "DECATUR ", "TIME": "11PM-5AM", "DAYS": "WED-SAT", "zip": "77007", "APP_": "04290922143", "Type": "Existing", "CHKD": "OK", "AREA": "OLD SIXTH WARD HISTORICAL DISTRICT", "Shape__Length": 503.0715491960939}}, {"type": "Feature", "id": 119, "geometry": {"type": "LineString", "coordinates": [[-95.3794058434829, 29.7662283132784], [-95.3805179969042, 29.7662120004115]]}, "properties": {"OBJECTID": 119, "Id": null, "BLOCK": "2100", "STREET": "KANE", "TIME": "11PM-5AM", "DAYS": "WED-SAT", "zip": "77007", "APP_": "04290922143", "Type": "Existing", "CHKD": "OK", "AREA": "OLD SIXTH WARD HISTORICAL DISTRICT", "Shape__Length": 352.8919162124959}}, {"type": "Feature", "id": 120, "geometry": {"type": "LineString", "coordinates": [[-95.3782721597478, 29.7662269214395], [-95.3794058434829, 29.7662283132784]]}, "properties": {"OBJECTID": 120, "Id": null, "BLOCK": "2000", "STREET": "KANE", "TIME": "11PM-5AM", "DAYS": "WED-SAT", "zip": "77007", "APP_": "04290922143", "Type": "Existing", "CHKD": "OK", "AREA": "OLD SIXTH WARD HISTORICAL DISTRICT", "Shape__Length": 359.6730983039512}}, {"type": "Feature", "id": 121, "geometry": {"type": "LineString", "coordinates": [[-95.3782890376593, 29.7676814798037], [-95.3793416043751, 29.7676857270956], [-95.3794179012801, 29.7676709331059]]}, "properties": {"OBJECTID": 121, "Id": null, "BLOCK": "2000", "STREET": "UNION (SOUTH SIDE)", "TIME": "11PM-5AM", "DAYS": "WED-SAT", "zip": "77007", "APP_": "04290922143", "Type": "Existing", "CHKD": "OK", "AREA": "OLD SIXTH WARD HISTORICAL DISTRICT", "Shape__Length": 358.73257233741964}}, {"type": "Feature", "id": 122, "geometry": {"type": "LineString", "coordinates": [[-95.3805179969042, 29.7662120004115], [-95.3805245434391, 29.7669484644765]]}, "properties": {"OBJECTID": 122, "Id": null, "BLOCK": "800", "STREET": "HEMPHILL (WEST SIDE)", "TIME": "11PM-5AM", "DAYS": "WED-SAT", "zip": "77007", "APP_": "04290922143", "Type": "Existing", "CHKD": "OK", "AREA": "OLD SIXTH WARD HISTORICAL DISTRICT", "Shape__Length": 267.8128923293953}}, {"type": "Feature", "id": 123, "geometry": {"type": "LineString", "coordinates": [[-95.3794058434829, 29.7662283132784], [-95.3794129843462, 29.7669577176975]]}, "properties": {"OBJECTID": 123, "Id": null, "BLOCK": "800", "STREET": "HENDERSON", "TIME": "11PM-5AM", "DAYS": "WED-SAT", "zip": "77007", "APP_": "04290922143", "Type": "Existing", "CHKD": "OK", "AREA": "OLD SIXTH WARD HISTORICAL DISTRICT", "Shape__Length": 265.24737336231425}}, {"type": "Feature", "id": 124, "geometry": {"type": "LineString", "coordinates": [[-95.3794129843462, 29.7669577176975], [-95.3805245434391, 29.7669484644765]]}, "properties": {"OBJECTID": 124, "Id": null, "BLOCK": "2100", "STREET": "DECATUR", "TIME": "11PM-5AM", "DAYS": "WED-SAT", "zip": "77007", "APP_": "04290922143", "Type": "Existing", "CHKD": "OK", "AREA": "OLD SIXTH WARD HISTORICAL DISTRICT", "Shape__Length": 352.6670183765743}}, {"type": "Feature", "id": 125, "geometry": {"type": "LineString", "coordinates": [[-95.3816449966131, 29.7676512732546], [-95.3827426621417, 29.7676407389791]]}, "properties": {"OBJECTID": 125, "Id": null, "BLOCK": "2300", "STREET": "UNION (SOUTH SIDE)", "TIME": "11PM-5AM", "DAYS": "WED-SAT", "zip": "77007", "APP_": "04290922143", "Type": "Existing", "CHKD": "OK", "AREA": "OLD SIXTH WARD HISTORICAL DISTRICT", "Shape__Length": 348.261825371319}}, {"type": "Feature", "id": 126, "geometry": {"type": "LineString", "coordinates": [[-95.3771384378239, 29.7662331212092], [-95.3782721597478, 29.7662269214395]]}, "properties": {"OBJECTID": 126, "Id": null, "BLOCK": "1900", "STREET": "KANE (NORTH SIDE)", "TIME": "11PM-5AM", "DAYS": "WED-SAT", "zip": "77007", "APP_": "04290922143", "Type": "Existing", "CHKD": "OK", "AREA": "OLD SIXTH WARD HISTORICAL DISTRICT", "Shape__Length": 359.69191483207334}}, {"type": "Feature", "id": 127, "geometry": {"type": "LineString", "coordinates": [[-95.3794129843462, 29.7669577176975], [-95.3794179012801, 29.7676709331059]]}, "properties": {"OBJECTID": 127, "Id": null, "BLOCK": "900", "STREET": "HENDERSON", "TIME": "11PM-5AM", "DAYS": "WED-SAT", "zip": "77007", "APP_": "04290922143", "Type": "Existing", "CHKD": "OK", "AREA": "OLD SIXTH WARD HISTORICAL DISTRICT", "Shape__Length": 259.35553543803445}}, {"type": "Feature", "id": 128, "geometry": {"type": "LineString", "coordinates": [[-95.3805264086886, 29.7676635478633], [-95.3816449966131, 29.7676512732546]]}, "properties": {"OBJECTID": 128, "Id": null, "BLOCK": "2200", "STREET": "UNION (SOUTH SIDE)", "TIME": "11PM-5AM", "DAYS": "WED-SAT", "zip": "77007", "APP_": "04290922143", "Type": "Existing", "CHKD": "OK", "AREA": "OLD SIXTH WARD HISTORICAL DISTRICT", "Shape__Length": 354.90653800464094}}, {"type": "Feature", "id": 129, "geometry": {"type": "LineString", "coordinates": [[-95.3782721597478, 29.7662269214395], [-95.3782769494307, 29.7669640092453]]}, "properties": {"OBJECTID": 129, "Id": null, "BLOCK": "800", "STREET": "WHITE", "TIME": "11PM-5AM", "DAYS": "WED-SAT", "zip": "77007", "APP_": "04290922143", "Type": "Existing", "CHKD": "OK", "AREA": "OLD SIXTH WARD HISTORICAL DISTRICT", "Shape__Length": 268.03596183916187}}, {"type": "Feature", "id": 130, "geometry": {"type": "LineString", "coordinates": [[-95.3794179012801, 29.7676709331059], [-95.3805264086886, 29.7676635478633]]}, "properties": {"OBJECTID": 130, "Id": null, "BLOCK": "2100", "STREET": "UNION (SOUTH SIDE)", "TIME": "11PM-5AM", "DAYS": "WED-SAT", "zip": "77007", "APP_": "04290922143", "Type": "Existing", "CHKD": "OK", "AREA": "OLD SIXTH WARD HISTORICAL DISTRICT", "Shape__Length": 351.6905872370689}}, {"type": "Feature", "id": 131, "geometry": {"type": "LineString", "coordinates": [[-95.3755959224988, 29.7662485056968], [-95.3771384378239, 29.7662331212092]]}, "properties": {"OBJECTID": 131, "Id": null, "BLOCK": "1800", "STREET": "KANE", "TIME": "11PM-5AM", "DAYS": "WED-SAT", "zip": "77007", "APP_": "04290922143", "Type": "Existing", "CHKD": "OK", "AREA": "OLD SIXTH WARD HISTORICAL DISTRICT", "Shape__Length": 489.41065087310136}}, {"type": "Feature", "id": 132, "geometry": {"type": "LineString", "coordinates": [[-95.3805245434391, 29.7669484644765], [-95.3816233518109, 29.7669331619534]]}, "properties": {"OBJECTID": 132, "Id": null, "BLOCK": "2200", "STREET": "DECATUR", "TIME": "11PM-5AM", "DAYS": "WED-SAT", "zip": "77007", "APP_": "04290922143", "Type": "Existing", "CHKD": "OK", "AREA": "OLD SIXTH WARD HISTORICAL DISTRICT", "Shape__Length": 348.65014908870995}}, {"type": "Feature", "id": 133, "geometry": {"type": "LineString", "coordinates": [[-95.3782769494307, 29.7669640092453], [-95.3794129843462, 29.7669577176975]]}, "properties": {"OBJECTID": 133, "Id": null, "BLOCK": "2000", "STREET": "DECATUR ", "TIME": "11PM-5AM", "DAYS": "WED-SAT", "zip": "77007", "APP_": "04290922143", "Type": "Existing", "CHKD": "OK", "AREA": "OLD SIXTH WARD HISTORICAL DISTRICT", "Shape__Length": 360.42334944315286}}, {"type": "Feature", "id": 134, "geometry": {"type": "LineString", "coordinates": [[-95.3771384378239, 29.7662331212092], [-95.3771824703539, 29.7669758981674]]}, "properties": {"OBJECTID": 134, "Id": null, "BLOCK": "800", "STREET": "SILVER ", "TIME": "11PM-5AM", "DAYS": "WED-SAT", "zip": "77007", "APP_": "04290922143", "Type": "Existing", "CHKD": "OK", "AREA": "OLD SIXTH WARD HISTORICAL DISTRICT", "Shape__Length": 270.4614544389555}}, {"type": "Feature", "id": 135, "geometry": {"type": "LineString", "coordinates": [[-95.3805179969042, 29.7662120004115], [-95.381243963273, 29.7662124814418], [-95.3815488522574, 29.7662007585448]]}, "properties": {"OBJECTID": 135, "Id": null, "BLOCK": "2200", "STREET": "KANE", "TIME": "11PM-5AM", "DAYS": "WED-SAT", "zip": "77007", "APP_": "04290922143", "Type": "Existing", "CHKD": "OK", "AREA": "OLD SIXTH WARD HISTORICAL DISTRICT", "Shape__Length": 327.14339601388605}}, {"type": "Feature", "id": 136, "geometry": {"type": "LineString", "coordinates": [[-95.3771824703539, 29.7669758981674], [-95.3771998743804, 29.7677917323891]]}, "properties": {"OBJECTID": 136, "Id": null, "BLOCK": "900", "STREET": "SILVER", "TIME": "11PM-5AM", "DAYS": "WED-SAT", "zip": "77007", "APP_": "04290922143", "Type": "Existing", "CHKD": "OK", "AREA": "OLD SIXTH WARD HISTORICAL DISTRICT", "Shape__Length": 296.71813025330096}}, {"type": "Feature", "id": 137, "geometry": {"type": "LineString", "coordinates": [[-95.3771824703539, 29.7669758981674], [-95.3782769494307, 29.7669640092453]]}, "properties": {"OBJECTID": 137, "Id": null, "BLOCK": "1900", "STREET": "DECATUR", "TIME": "11PM-5AM", "DAYS": "WED-SAT", "zip": "77007", "APP_": "04290922143", "Type": "Existing", "CHKD": "OK", "AREA": "OLD SIXTH WARD HISTORICAL DISTRICT", "Shape__Length": 347.25905016589076}}, {"type": "Feature", "id": 138, "geometry": {"type": "LineString", "coordinates": [[-95.3794179012801, 29.7676709331059], [-95.3794254808618, 29.7680299253929]]}, "properties": {"OBJECTID": 138, "Id": null, "BLOCK": "900", "STREET": "HENDERSON", "TIME": "11PM-5AM", "DAYS": "WED-SAT", "zip": "77007", "APP_": "04290922143", "Type": "Existing", "CHKD": "OK", "AREA": "OLD SIXTH WARD HISTORICAL DISTRICT", "Shape__Length": 130.56470783889944}}, {"type": "Feature", "id": 143, "geometry": {"type": "LineString", "coordinates": [[-95.4061182173332, 29.769773030106], [-95.4066180664698, 29.7697753595625], [-95.4072506557332, 29.7697614398927]]}, "properties": {"OBJECTID": 143, "Id": null, "BLOCK": "4500", "STREET": "LILLIAN", "TIME": "10PM-5AM", "DAYS": "WED-SUN", "zip": "77007", "APP_": "09300922151", "Type": "Existing", "CHKD": "OK", "AREA": "LILLIAN COURTYARD", "Shape__Length": 359.33125503451384}}, {"type": "Feature", "id": 144, "geometry": {"type": "LineString", "coordinates": [[-95.4072506557332, 29.7697614398927], [-95.4072441192313, 29.7703273765371], [-95.4072499146787, 29.7704925345398]]}, "properties": {"OBJECTID": 144, "Id": null, "BLOCK": "900", "STREET": "FOWLER (EAST SIDE)", "TIME": "10PM-5AM", "DAYS": "WED-SUN", "zip": "77007", "APP_": "09300922151", "Type": "Existing", "CHKD": "OK", "AREA": "LILLIAN COURTYARD", "Shape__Length": 265.8911759422885}}, {"type": "Feature", "id": 145, "geometry": {"type": "LineString", "coordinates": [[-95.4061194840363, 29.769476261927], [-95.4061182173332, 29.769773030106]]}, "properties": {"OBJECTID": 145, "Id": null, "BLOCK": "900", "STREET": "PATTERSON (WEST SIDE)", "TIME": "10PM-5AM", "DAYS": "WED-SUN", "zip": "77007", "APP_": "09300922151", "Type": "Existing", "CHKD": "OK", "AREA": "LILLIAN COURTYARD", "Shape__Length": 107.91643144006562}}, {"type": "Feature", "id": 146, "geometry": {"type": "LineString", "coordinates": [[-95.4061182173332, 29.769773030106], [-95.4061248372268, 29.7702973588564], [-95.4061299854974, 29.7705061456915]]}, "properties": {"OBJECTID": 146, "Id": null, "BLOCK": "900", "STREET": "PATTERSON (WEST SIDE)", "TIME": "10PM-5PM", "DAYS": "WED-SUN", "zip": "77007", "APP_": "09300922151", "Type": "Existing", "CHKD": "OK", "AREA": "LILLIAN COURTYARD", "Shape__Length": 266.61661137118654}}, {"type": "Feature", "id": 147, "geometry": {"type": "LineString", "coordinates": [[-95.412483305892, 29.7696844434064], [-95.4134108857362, 29.7696673267593]]}, "properties": {"OBJECTID": 147, "Id": null, "BLOCK": "5100", "STREET": "LILLIAN", "TIME": "10PM-5AM", "DAYS": "WED-SUN", "zip": "77007", "APP_": "09230922148", "Type": "Existing", "CHKD": "OK", "AREA": "RICE MILITARY", "Shape__Length": 294.3400503329937}}, {"type": "Feature", "id": 148, "geometry": {"type": "LineString", "coordinates": [[-95.4163770589321, 29.7697410356679], [-95.4163977942039, 29.7696563661755], [-95.4164256509933, 29.7696253187624], [-95.4176906217206, 29.769607231801]]}, "properties": {"OBJECTID": 148, "Id": null, "BLOCK": "5400", "STREET": "LILLIAN", "TIME": "10PM-5AM", "DAYS": "WED-SUN", "zip": "77007", "APP_": "09230922148", "Type": "Existing", "CHKD": "OK", "AREA": "RICE MILITARY", "Shape__Length": 447.1868121860781}}, {"type": "Feature", "id": 149, "geometry": {"type": "LineString", "coordinates": [[-95.4115116579522, 29.7697010397547], [-95.412483305892, 29.7696844434064]]}, "properties": {"OBJECTID": 149, "Id": null, "BLOCK": "5000", "STREET": "LILLIAN", "TIME": "10PM-5AM", "DAYS": "WED-SUN", "zip": "77007", "APP_": "09230922148", "Type": "Existing", "CHKD": "OK", "AREA": "RICE MILITARY", "Shape__Length": 308.3138343537795}}, {"type": "Feature", "id": 150, "geometry": {"type": "LineString", "coordinates": [[-95.4149718518988, 29.7698168610238], [-95.4163478405371, 29.7698644034074], [-95.4163770589321, 29.7697410356679]]}, "properties": {"OBJECTID": 150, "Id": null, "BLOCK": "5300", "STREET": "LILLIAN", "TIME": "10PM-5AM", "DAYS": "WED-SUN", "zip": "77007", "APP_": "08091122183", "Type": "Existing", "CHKD": "OK", "AREA": "RICE MILITARY", "Shape__Length": 482.6818392005411}}, {"type": "Feature", "id": 151, "geometry": {"type": "LineString", "coordinates": [[-95.4134108857362, 29.7696673267593], [-95.4134551572934, 29.7697421681713], [-95.4149718518988, 29.7698168610238]]}, "properties": {"OBJECTID": 151, "Id": null, "BLOCK": "5200", "STREET": "LILLIAN", "TIME": "10PM-5AM", "DAYS": "WED-SUN", "zip": "77007", "APP_": "08261122188", "Type": "Existing", "CHKD": "OK", "AREA": "RICE MILITARY", "Shape__Length": 512.5616408189915}}, {"type": "Feature", "id": 152, "geometry": {"type": "LineString", "coordinates": [[-95.411488091593, 29.7682381799091], [-95.4124641006371, 29.7682261247589]]}, "properties": {"OBJECTID": 152, "Id": null, "BLOCK": "5000", "STREET": "FLOYD", "TIME": "10PM-5AM", "DAYS": "WED-SUN", "zip": "77007", "APP_": "09230922148", "Type": "Existing", "CHKD": "OK", "AREA": "RICE MILITARY", "Shape__Length": 309.67378209798966}}, {"type": "Feature", "id": 153, "geometry": {"type": "LineString", "coordinates": [[-95.4133992472998, 29.768575798791], [-95.4133870151289, 29.7689509808786]]}, "properties": {"OBJECTID": 153, "Id": null, "BLOCK": "700", "STREET": "REINERMAN", "TIME": "10PM-5AM", "DAYS": "WED-SUN", "zip": "77007", "APP_": "09230922148", "Type": "Existing", "CHKD": "OK", "AREA": "RICE MILITARY", "Shape__Length": 136.4849747455331}}, {"type": "Feature", "id": 154, "geometry": {"type": "LineString", "coordinates": [[-95.4124641006371, 29.7682261247589], [-95.4133907044155, 29.7681963732934]]}, "properties": {"OBJECTID": 154, "Id": null, "BLOCK": "5100", "STREET": "FLOYD", "TIME": "10PM-5AM", "DAYS": "WED-SUN", "zip": "77007", "APP_": "09230922148", "Type": "Existing", "CHKD": "OK", "AREA": "RICE MILITARY", "Shape__Length": 294.1678052095303}}, {"type": "Feature", "id": 155, "geometry": {"type": "LineString", "coordinates": [[-95.4124462561742, 29.7674890756032], [-95.4124641006371, 29.7682261247589]]}, "properties": {"OBJECTID": 155, "Id": null, "BLOCK": "600", "STREET": "ROY", "TIME": "10PM-5AM", "DAYS": "WED-SUN", "zip": "77007", "APP_": "09230922148", "Type": "Existing", "CHKD": "OK", "AREA": "RICE MILITARY", "Shape__Length": 268.07747906940455}}, {"type": "Feature", "id": 156, "geometry": {"type": "LineString", "coordinates": [[-95.4149718518988, 29.7698168610238], [-95.4149696557096, 29.7703560220595], [-95.4149541723411, 29.7705079450152]]}, "properties": {"OBJECTID": 156, "Id": null, "BLOCK": "900", "STREET": "LESTER", "TIME": "10PM-5AM", "DAYS": "WED-SUN", "zip": "77007", "APP_": "08261122185", "Type": "Existing", "CHKD": "OK", "AREA": "RICE MILITARY", "Shape__Length": 251.522449867073}}, {"type": "Feature", "id": 157, "geometry": {"type": "LineString", "coordinates": [[-95.4124643098112, 29.7689531217688], [-95.4133870151289, 29.7689509808786]]}, "properties": {"OBJECTID": 157, "Id": null, "BLOCK": "5100", "STREET": "ROSE", "TIME": "10PM-5AM", "DAYS": "WED-SUN", "zip": "77007", "APP_": "09230922148", "Type": "Existing", "CHKD": "OK", "AREA": "RICE MILITARY", "Shape__Length": 292.73090370862343}}, {"type": "Feature", "id": 158, "geometry": {"type": "LineString", "coordinates": [[-95.411488091593, 29.7682381799091], [-95.411506121115, 29.7689697758225]]}, "properties": {"OBJECTID": 158, "Id": null, "BLOCK": "700", "STREET": "SANDMAN", "TIME": "10PM-5AM", "DAYS": "WED-SUN", "zip": "77007", "APP_": "09230922148", "Type": "Existing", "CHKD": "OK", "AREA": "RICE MILITARY", "Shape__Length": 266.0962395493683}}, {"type": "Feature", "id": 159, "geometry": {"type": "LineString", "coordinates": [[-95.411506121115, 29.7689697758225], [-95.4124643098112, 29.7689531217688]]}, "properties": {"OBJECTID": 159, "Id": null, "BLOCK": "5000", "STREET": "ROSE", "TIME": "10PM-5AM", "DAYS": "WED-SUN", "zip": "77007", "APP_": "09230922148", "Type": "Existing", "CHKD": "OK", "AREA": "RICE MILITARY", "Shape__Length": 304.0473219825012}}, {"type": "Feature", "id": 160, "geometry": {"type": "LineString", "coordinates": [[-95.4114765015012, 29.7675012979223], [-95.411488091593, 29.7682381799091]]}, "properties": {"OBJECTID": 160, "Id": null, "BLOCK": "600", "STREET": "SANDMAN", "TIME": "10PM-5AM", "DAYS": "WED-SUN", "zip": "77007", "APP_": "09230922148", "Type": "Existing", "CHKD": "OK", "AREA": "RICE MILITARY", "Shape__Length": 267.9821353033902}}, {"type": "Feature", "id": 161, "geometry": {"type": "LineString", "coordinates": [[-95.4133870151289, 29.7689509808786], [-95.4134107681426, 29.7690630284709], [-95.4134108857362, 29.7696673267593]]}, "properties": {"OBJECTID": 161, "Id": null, "BLOCK": "800", "STREET": "REINERMAN", "TIME": "10PM-5AM", "DAYS": "WED-SUN", "zip": "77007", "APP_": "09230922148", "Type": "Existing", "CHKD": "OK", "AREA": "RICE MILITARY", "Shape__Length": 261.1803472394161}}, {"type": "Feature", "id": 162, "geometry": {"type": "LineString", "coordinates": [[-95.412483305892, 29.7696844434064], [-95.4124920553181, 29.7699716538825], [-95.4125132385432, 29.7702628520363], [-95.4125004887332, 29.7704320850645]]}, "properties": {"OBJECTID": 162, "Id": null, "BLOCK": "900", "STREET": "ROY", "TIME": "10PM-5AM", "DAYS": "WED-SUN", "zip": "77007", "APP_": "09230922148", "Type": "Existing", "CHKD": "OK", "AREA": "RICE MILITARY", "Shape__Length": 272.25238636522937}}, {"type": "Feature", "id": 163, "geometry": {"type": "LineString", "coordinates": [[-95.4149714177102, 29.7691280210396], [-95.4152058850883, 29.769126619918], [-95.415259589455, 29.7691139065329]]}, "properties": {"OBJECTID": 163, "Id": null, "BLOCK": "5200", "STREET": "ROSE", "TIME": "10PM-5AM", "DAYS": "WED-SUN", "zip": "77007", "APP_": "09230922148", "Type": "Existing", "CHKD": "OK", "AREA": "RICE MILITARY", "Shape__Length": 92.04064967033446}}, {"type": "Feature", "id": 164, "geometry": {"type": "LineString", "coordinates": [[-95.4149714177102, 29.7691280210396], [-95.4149718518988, 29.7698168610238]]}, "properties": {"OBJECTID": 164, "Id": null, "BLOCK": "800", "STREET": "LESTER", "TIME": "10PM-5AM", "DAYS": "WED-SUN", "zip": "77007", "APP_": "080091122183", "Type": "Existing", "CHKD": "OK", "AREA": "RICE MILITARY", "Shape__Length": 250.48725172821068}}, {"type": "Feature", "id": 165, "geometry": {"type": "LineString", "coordinates": [[-95.4133870151289, 29.7689509808786], [-95.4134496880035, 29.7690063508144], [-95.4149714177102, 29.7691280210396]]}, "properties": {"OBJECTID": 165, "Id": null, "BLOCK": "5200", "STREET": "ROSE", "TIME": "10PM-5AM", "DAYS": "WED-SUN", "zip": "77007", "APP_": "09230922148", "Type": "Existing", "CHKD": "OK", "AREA": "RICE MILITARY", "Shape__Length": 513.0912464874841}}, {"type": "Feature", "id": 166, "geometry": {"type": "LineString", "coordinates": [[-95.4133907044155, 29.7681963732934], [-95.4133992472998, 29.768575798791]]}, "properties": {"OBJECTID": 166, "Id": null, "BLOCK": "700", "STREET": "REINERMAN", "TIME": "10PM-5AM", "DAYS": "WED-SUN", "zip": "77007", "APP_": "09230922148", "Type": "Existing", "CHKD": "OK", "AREA": "RICE MILITARY", "Shape__Length": 137.99945334414875}}, {"type": "Feature", "id": 167, "geometry": {"type": "LineString", "coordinates": [[-95.4124641006371, 29.7682261247589], [-95.4124643098112, 29.7689531217688]]}, "properties": {"OBJECTID": 167, "Id": null, "BLOCK": "700", "STREET": "ROY", "TIME": "10PM-5AM", "DAYS": "WED-SUN", "zip": "77007", "APP_": "09230922148", "Type": "Existing", "CHKD": "OK", "AREA": "RICE MILITARY", "Shape__Length": 264.3624352289608}}, {"type": "Feature", "id": 168, "geometry": {"type": "LineString", "coordinates": [[-95.411506121115, 29.7689697758225], [-95.4115116579522, 29.7697010397547]]}, "properties": {"OBJECTID": 168, "Id": null, "BLOCK": "800", "STREET": "SANDMAN", "TIME": "10PM-5AM", "DAYS": "WED-SUN", "zip": "77007", "APP_": "09230922148", "Type": "Existing", "CHKD": "OK", "AREA": "RICE MILITARY", "Shape__Length": 265.9198920761141}}, {"type": "Feature", "id": 169, "geometry": {"type": "LineString", "coordinates": [[-95.4072883677538, 29.7719748914678], [-95.4082988841361, 29.7719520147558], [-95.4083762086935, 29.7719562679494]]}, "properties": {"OBJECTID": 169, "Id": null, "BLOCK": "4600", "STREET": "NETT", "TIME": "11PM-5AM", "DAYS": "WED-SUN", "zip": "77007", "APP_": "04271022156", "Type": "Existing", "CHKD": "OK", "AREA": null, "Shape__Length": 345.26587161614333}}, {"type": "Feature", "id": 170, "geometry": {"type": "LineString", "coordinates": [[-95.4061748628788, 29.7719832227151], [-95.4072883677538, 29.7719748914678]]}, "properties": {"OBJECTID": 170, "Id": null, "BLOCK": "4500", "STREET": "NETT", "TIME": "11PM-5AM", "DAYS": "WED-SUN", "zip": "77007", "APP_": "04271022156", "Type": "Existing", "CHKD": "OK", "AREA": null, "Shape__Length": 353.26387081006624}}, {"type": "Feature", "id": 207, "geometry": {"type": "LineString", "coordinates": [[-95.4256842149127, 29.7729796118572], [-95.426542053946, 29.7739513270119]]}, "properties": {"OBJECTID": 207, "Id": null, "BLOCK": "6300-6400", "STREET": "WESTCOTT", "TIME": "6PM-2AM", "DAYS": "MON-SUN", "zip": "77007", "APP_": "051511-22-176", "Type": "Existing", "CHKD": "OK", "AREA": null, "Shape__Length": 446.0007952718057}}, {"type": "Feature", "id": 231, "geometry": {"type": "LineString", "coordinates": [[-95.4125055373479, 29.7711721100851], [-95.4125284363207, 29.77189373922]]}, "properties": {"OBJECTID": 231, "Id": null, "BLOCK": "1100", "STREET": "ROY", "TIME": "7PM-5AM", "DAYS": "MON-SUN", "zip": "77007", "APP_": "042213-22-217", "Type": "Existing", "CHKD": "OK", "AREA": null, "Shape__Length": 262.51122862151294}}, {"type": "Feature", "id": 238, "geometry": {"type": "LineString", "coordinates": [[-95.387778356202, 29.7795027506731], [-95.3886200456641, 29.7816145895872]]}, "properties": {"OBJECTID": 238, "Id": null, "BLOCK": "500", "STREET": "THRELKELD", "TIME": "5PM-2AM", "DAYS": "MON-SUN", "zip": "77007", "APP_": "071213-15-224", "Type": "Existing", "CHKD": "OK", "AREA": null, "Shape__Length": 813.0344045223736}}, {"type": "Feature", "id": 254, "geometry": {"type": "LineString", "coordinates": [[-95.4105863356882, 29.7689833301546], [-95.411506121115, 29.7689697758225]]}, "properties": {"OBJECTID": 254, "Id": null, "BLOCK": "4900", "STREET": "ROSE", "TIME": "10PM-5AM", "DAYS": "WED-SUN", "zip": "77007", "APP_": null, "Type": "Existing", "CHKD": "OK", "AREA": "RICE MILITARY", "Shape__Length": 291.8450814889742}}, {"type": "Feature", "id": 277, "geometry": {"type": "LineString", "coordinates": [[-95.4032315314962, 29.7695168590475], [-95.4039696517316, 29.7695042699197]]}, "properties": {"OBJECTID": 277, "Id": null, "BLOCK": "4200", "STREET": "LILLIAN", "TIME": "10PM-5AM", "DAYS": "WED-SUN", "zip": "77007", "APP_": "020516-22-261", "Type": "Existing", "CHKD": "OK", "AREA": "Magnolia Grove", "Shape__Length": 234.21339099510612}}, {"type": "Feature", "id": 278, "geometry": {"type": "LineString", "coordinates": [[-95.4039696517316, 29.7695042699197], [-95.4045183089223, 29.769500959294], [-95.4048592479816, 29.7694942520926]]}, "properties": {"OBJECTID": 278, "Id": null, "BLOCK": "4300", "STREET": "LILLIAN", "TIME": "10PM-5AM", "DAYS": "WED-SUN", "zip": "77007", "APP_": "020516-22-261", "Type": "Existing", "CHKD": "OK", "AREA": "Magnolia Grove", "Shape__Length": 282.25609964645605}}, {"type": "Feature", "id": 279, "geometry": {"type": "LineString", "coordinates": [[-95.4031942421397, 29.7683301992171], [-95.4031961828627, 29.7684177295535], [-95.4032004119474, 29.7689994254921], [-95.4032131525865, 29.7690800785916]]}, "properties": {"OBJECTID": 279, "Id": null, "BLOCK": "800", "STREET": "OLIVE", "TIME": "10PM-5AM", "DAYS": "WED-SUN", "zip": "77007", "APP_": "020516-22-261", "Type": "Existing", "CHKD": "OK", "AREA": "Magnolia Grove", "Shape__Length": 272.97072084412184}}, {"type": "Feature", "id": 280, "geometry": {"type": "LineString", "coordinates": [[-95.4032131525865, 29.7690800785916], [-95.4032315314962, 29.7695168590475]]}, "properties": {"OBJECTID": 280, "Id": null, "BLOCK": "800", "STREET": "OLIVE", "TIME": "10PM-5AM", "DAYS": "WED-SUN", "zip": "77007", "APP_": "020516-22-261", "Type": "Existing", "CHKD": "OK", "AREA": "Magnolia Grove", "Shape__Length": 158.9362038954686}}, {"type": "Feature", "id": 281, "geometry": {"type": "LineString", "coordinates": [[-95.4031825216954, 29.7676773740401], [-95.4031942421397, 29.7683301992171]]}, "properties": {"OBJECTID": 281, "Id": null, "BLOCK": "700", "STREET": "OLIVE", "TIME": "10PM-5AM", "DAYS": "WED-SUN", "zip": "77007", "APP_": "020516-22-261", "Type": "Existing", "CHKD": "OK", "AREA": "Magnolia Grove", "Shape__Length": 237.41994386117636}}, {"type": "Feature", "id": 288, "geometry": {"type": "LineString", "coordinates": [[-95.3999033422051, 29.7815312055808], [-95.399905707761, 29.7820106026796], [-95.3999406503828, 29.7834266637891]]}, "properties": {"OBJECTID": 288, "Id": null, "BLOCK": "600", "STREET": "ALLSTON (WEST SIDE)", "TIME": "5PM-5AM", "DAYS": "MON-SUN", "zip": "77007", "APP_": "071216-15-271", "Type": "Existing", "CHKD": "OK", "AREA": null, "Shape__Length": 689.3808378726361}}, {"type": "Feature", "id": 291, "geometry": {"type": "LineString", "coordinates": [[-95.4008927081511, 29.7694361932304], [-95.4018421635387, 29.769430022709], [-95.4018990256423, 29.7694742956613]]}, "properties": {"OBJECTID": 291, "Id": null, "BLOCK": "4000", "STREET": "LILLIAN", "TIME": "10PM-5AM", "DAYS": "MON-SUN", "zip": "77007", "APP_": "112816-22-272", "Type": "Existing", "CHKD": "OK", "AREA": null, "Shape__Length": 325.40202022537164}}, {"type": "Feature", "id": 292, "geometry": {"type": "LineString", "coordinates": [[-95.3913063350424, 29.7574920681112], [-95.3913728894062, 29.7574240540782], [-95.3913507828904, 29.7555186453043]]}, "properties": {"OBJECTID": 292, "Id": null, "BLOCK": "900-1200", "STREET": "COLUMBUS (WEST SIDE)", "TIME": "6PM-6AM", "DAYS": "MON-SUN", "zip": "77019", "APP_": "012417-24-281", "Type": "Existing", "CHKD": "OK", "AREA": null, "Shape__Length": 725.4296254913995}}, {"type": "Feature", "id": 303, "geometry": {"type": "LineString", "coordinates": [[-95.4003223977826, 29.7579217880734], [-95.4002966690856, 29.7573121399295], [-95.4002895598709, 29.7572228112639]]}, "properties": {"OBJECTID": 303, "Id": null, "BLOCK": "900", "STREET": "ROCHOW", "TIME": "10AM-10PM", "DAYS": "MON-SUN", "zip": "77019", "APP_": "040418-24-305", "Type": "Existing", "CHKD": "OK", "AREA": null, "Shape__Length": 254.4009553629823}}, {"type": "Feature", "id": 308, "geometry": {"type": "LineString", "coordinates": [[-95.4040070025131, 29.7711202750873], [-95.4040288154491, 29.7715878302922]]}, "properties": {"OBJECTID": 308, "Id": null, "BLOCK": "1102-1112", "STREET": "THOMPSON (EAST SIDE)", "TIME": "10PM-5AM", "DAYS": "WED-SUN", "zip": "77007", "APP_": "061118-22-311", "Type": "Existing", "CHKD": "OK", "AREA": null, "Shape__Length": 170.16089777431233}}, {"type": "Feature", "id": 323, "geometry": {"type": "LineString", "coordinates": [[-95.4221747514115, 29.7613798476617], [-95.4221459741822, 29.7608029658773], [-95.422146678982, 29.7605363118286], [-95.4223017637455, 29.7603895063495], [-95.4227309792467, 29.760154421102], [-95.4231206887636, 29.7600591643707], [-95.4235939103057, 29.7600491570996]]}, "properties": {"OBJECTID": 323, "Id": null, "BLOCK": "6000", "STREET": "GLENCOVE", "TIME": "7AM-4PM", "DAYS": "MON-FRI", "zip": "77007", "APP_": "101918-22-316", "Type": "Existing", "CHKD": "OK", "AREA": null, "Shape__Length": 818.9228408829091}}, {"type": "Feature", "id": 343, "geometry": {"type": "LineString", "coordinates": [[-95.4134492276013, 29.7718895565057], [-95.4143654077321, 29.7718872398581]]}, "properties": {"OBJECTID": 343, "Id": null, "BLOCK": "5200", "STREET": "NETT (NORTH SIDE)", "TIME": "10PM-5AM", "DAYS": "WED-SUN", "zip": "77007", "APP_": "081321-22-352", "Type": "Existing", "CHKD": "OK", "AREA": null, "Shape__Length": 290.65259768670205}}, {"type": "Feature", "id": 351, "geometry": {"type": "LineString", "coordinates": [[-95.411589009919, 29.7726343510741], [-95.4125445908718, 29.7726343943046]]}, "properties": {"OBJECTID": 351, "Id": null, "BLOCK": "5000", "STREET": "SCHULER (NORTH SIDE)", "TIME": "10PM-5AM", "DAYS": "WED-SUN", "zip": "77007", "APP_": "110920-22-342 ", "Type": "Existing", "CHKD": "OK", "AREA": null, "Shape__Length": 303.148780462919}}, {"type": "Feature", "id": 352, "geometry": {"type": "LineString", "coordinates": [[-95.411589009919, 29.7726343510741], [-95.4115905830144, 29.773071392962]]}, "properties": {"OBJECTID": 352, "Id": null, "BLOCK": "1300", "STREET": "SANDMAN", "TIME": "10PM-5AM", "DAYS": "WED-SUN", "zip": "77007", "APP_": "110920-22-342 ", "Type": "Existing", "CHKD": "OK", "AREA": null, "Shape__Length": 158.92522521833195}}, {"type": "Feature", "id": 354, "geometry": {"type": "LineString", "coordinates": [[-95.4143593349958, 29.7725713694852], [-95.4143416713899, 29.7737573841119]]}, "properties": {"OBJECTID": 354, "Id": null, "BLOCK": "1300", "STREET": "MOY", "TIME": "10PM-5AM", "DAYS": "WED-SUN", "zip": "77007", "APP_": "072721-22-350", "Type": "Existing", "CHKD": "OK", "AREA": null, "Shape__Length": 431.3148085878187}}, {"type": "Feature", "id": 355, "geometry": {"type": "LineString", "coordinates": [[-95.4143416713899, 29.7737573841119], [-95.4154444131483, 29.774061191219]]}, "properties": {"OBJECTID": 355, "Id": null, "BLOCK": "5200", "STREET": "ALLEN", "TIME": "10PM-5AM", "DAYS": "WED-SUN", "zip": "77007", "APP_": "072721-22-350", "Type": "Existing", "CHKD": "OK", "AREA": null, "Shape__Length": 366.8591977417412}}, {"type": "Feature", "id": 356, "geometry": {"type": "LineString", "coordinates": [[-95.413465376253, 29.7735115767409], [-95.4143416713899, 29.7737573841119]]}, "properties": {"OBJECTID": 356, "Id": null, "BLOCK": "5200", "STREET": "ALLEN", "TIME": "10PM-5AM", "DAYS": "WED-SUN", "zip": "77007", "APP_": "072721-22-350", "Type": "Existing", "CHKD": "OK", "AREA": null, "Shape__Length": 292.0101614619003}}, {"type": "Feature", "id": 362, "geometry": {"type": "LineString", "coordinates": [[-95.415259577273, 29.7691138998885], [-95.415678379533, 29.7691196484244]]}, "properties": {"OBJECTID": 362, "Id": null, "BLOCK": "5300", "STREET": "ROSE", "TIME": "10PM-5AM", "DAYS": "WED-SUN", "zip": "77007", "APP_": "011322-22-359", "Type": "Existing", "CHKD": "OK", "AREA": null, "Shape__Length": 132.88197457857154}}]}