{"type":"FeatureCollection","features":[{"type":"Feature","id":315,"geometry":{"type":"Point","coordinates":[-95.38811439873939,29.777226950184907]},"properties":{"OBJECTID":315}},{"type":"Feature","id":316,"geometry":{"type":"Point","coordinates":[-95.38901453872813,29.776332309977953]},"properties":{"OBJECTID":316}},{"type":"Feature","id":370,"geometry":{"type":"Point","coordinates":[-95.41073534505516,29.777989729161924]},"properties":{"OBJECTID":370}},{"type":"Feature","id":371,"geometry":{"type":"Point","coordinates":[-95.41071253452766,29.777051479086627]},"properties":{"OBJECTID":371}},{"type":"Feature","id":373,"geometry":{"type":"Point","coordinates":[-95.4096291845459,29.777993589225648]},"properties":{"OBJECTID":373}},{"type":"Feature","id":374,"geometry":{"type":"Point","coordinates":[-95.4096063740489,29.777064738917232]},"properties":{"OBJECTID":374}},{"type":"Feature","id":375,"geometry":{"type":"Point","coordinates":[-95.40630112353581,29.777706389157185]},"properties":{"OBJECTID":375}},{"type":"Feature","id":376,"geometry":{"type":"Point","coordinates":[-95.40627231375673,29.776818749648697]},"properties":{"OBJECTID":376}},{"type":"Feature","id":377,"geometry":{"type":"Point","coordinates":[-95.39744501064281,29.776957939097542]},"properties":{"OBJECTID":377}},{"type":"Feature","id":378,"geometry":{"type":"Point","coordinates":[-95.39743747129599,29.776128289655308]},"properties":{"OBJECTID":378}},{"type":"Feature","id":379,"geometry":{"type":"Point","coordinates":[-95.38124774679422,29.777200250147835]},"properties":{"OBJECTID":379}},{"type":"Feature","id":380,"geometry":{"type":"Point","coordinates":[-95.38110286724087,29.77829116003524]},"properties":{"OBJECTID":380}},{"type":"Feature","id":570,"geometry":{"type":"Point","coordinates":[-95.38768470882465,29.781632131062764]},"properties":{"OBJECTID":570}},{"type":"Feature","id":769,"geometry":{"type":"Point","coordinates":[-95.41059037445676,29.770467487915905]},"properties":{"OBJECTID":769}},{"type":"Feature","id":774,"geometry":{"type":"Point","coordinates":[-95.40949509344246,29.771201998125132]},"properties":{"OBJECTID":774}},{"type":"Feature","id":775,"geometry":{"type":"Point","coordinates":[-95.4094706440325,29.77047567754026]},"properties":{"OBJECTID":775}},{"type":"Feature","id":776,"geometry":{"type":"Point","coordinates":[-95.4093909533355,29.766078666557437]},"properties":{"OBJECTID":776}},{"type":"Feature","id":777,"geometry":{"type":"Point","coordinates":[-95.40896185356374,29.761664865721816]},"properties":{"OBJECTID":777}},{"type":"Feature","id":903,"geometry":{"type":"Point","coordinates":[-95.4180597060402,29.777936358909066]},"properties":{"OBJECTID":903}},{"type":"Feature","id":904,"geometry":{"type":"Point","coordinates":[-95.41808251635857,29.77693303870358]},"properties":{"OBJECTID":904}},{"type":"Feature","id":983,"geometry":{"type":"Point","coordinates":[-95.41744459633165,29.770657767649794]},"properties":{"OBJECTID":983}},{"type":"Feature","id":984,"geometry":{"type":"Point","coordinates":[-95.39182526893806,29.768966118038197]},"properties":{"OBJECTID":984}},{"type":"Feature","id":985,"geometry":{"type":"Point","coordinates":[-95.42148086636985,29.76132671547839]},"properties":{"OBJECTID":985}},{"type":"Feature","id":988,"geometry":{"type":"Point","coordinates":[-95.39857898125145,29.769712408208672]},"properties":{"OBJECTID":988}},{"type":"Feature","id":989,"geometry":{"type":"Point","coordinates":[-95.38269826742297,29.773641169780866]},"properties":{"OBJECTID":989}},{"type":"Feature","id":990,"geometry":{"type":"Point","coordinates":[-95.37243617444715,29.78066736084699]},"properties":{"OBJECTID":990}},{"type":"Feature","id":991,"geometry":{"type":"Point","coordinates":[-95.37248938430272,29.76401074758524]},"properties":{"OBJECTID":991}},{"type":"Feature","id":992,"geometry":{"type":"Point","coordinates":[-95.37248161451195,29.76357956797484]},"properties":{"OBJECTID":992}},{"type":"Feature","id":994,"geometry":{"type":"Point","coordinates":[-95.37239780483249,29.77373292998976]},"properties":{"OBJECTID":994}},{"type":"Feature","id":995,"geometry":{"type":"Point","coordinates":[-95.37231987396864,29.765446837862584]},"properties":{"OBJECTID":995}},{"type":"Feature","id":996,"geometry":{"type":"Point","coordinates":[-95.37211541384977,29.764018527704213]},"properties":{"OBJECTID":996}},{"type":"Feature","id":997,"geometry":{"type":"Point","coordinates":[-95.37213936405537,29.763570967711132]},"properties":{"OBJECTID":997}},{"type":"Feature","id":1000,"geometry":{"type":"Point","coordinates":[-95.36730573402552,29.779516190777645]},"properties":{"OBJECTID":1000}},{"type":"Feature","id":1051,"geometry":{"type":"Point","coordinates":[-95.38311200679726,29.761043196771105]},"properties":{"OBJECTID":1051}},{"type":"Feature","id":1063,"geometry":{"type":"Point","coordinates":[-95.38580395784417,29.761075907117625]},"properties":{"OBJECTID":1063}},{"type":"Feature","id":1064,"geometry":{"type":"Point","coordinates":[-95.39815627072417,29.759568046035866]},"properties":{"OBJECTID":1064}},{"type":"Feature","id":1065,"geometry":{"type":"Point","coordinates":[-95.39826394082284,29.761411396492417]},"properties":{"OBJECTID":1065}},{"type":"Feature","id":1067,"geometry":{"type":"Point","coordinates":[-95.40234803123928,29.75723736495935]},"properties":{"OBJECTID":1067}},{"type":"Feature","id":1068,"geometry":{"type":"Point","coordinates":[-95.3830777869986,29.757680716012594]},"properties":{"OBJECTID":1068}},{"type":"Feature","id":1069,"geometry":{"type":"Point","coordinates":[-95.38571766759742,29.757625365646508]},"properties":{"OBJECTID":1069}},{"type":"Feature","id":1070,"geometry":{"type":"Point","coordinates":[-95.39812455000391,29.757337575674676]},"properties":{"OBJECTID":1070}},{"type":"Feature","id":1102,"geometry":{"type":"Point","coordinates":[-95.39243760946083,29.76136952642909]},"properties":{"OBJECTID":1102}},{"type":"Feature","id":1104,"geometry":{"type":"Point","coordinates":[-95.3922782193842,29.75746781593318]},"properties":{"OBJECTID":1104}},{"type":"Feature","id":1264,"geometry":{"type":"Point","coordinates":[-95.38770231918824,29.78254452091192]},"properties":{"OBJECTID":1264}},{"type":"Feature","id":1265,"geometry":{"type":"Point","coordinates":[-95.38776345932214,29.78622760179176]},"properties":{"OBJECTID":1265}},{"type":"Feature","id":1352,"geometry":{"type":"Point","coordinates":[-95.36739172324658,29.765564908043338]},"properties":{"OBJECTID":1352}},{"type":"Feature","id":1361,"geometry":{"type":"Point","coordinates":[-95.37008263385634,29.760070546961497]},"properties":{"OBJECTID":1361}},{"type":"Feature","id":1362,"geometry":{"type":"Point","coordinates":[-95.36726286252194,29.7635292778828]},"properties":{"OBJECTID":1362}},{"type":"Feature","id":1366,"geometry":{"type":"Point","coordinates":[-95.36874369345952,29.761715677284343]},"properties":{"OBJECTID":1366}},{"type":"Feature","id":1367,"geometry":{"type":"Point","coordinates":[-95.36764858292672,29.763051317759768]},"properties":{"OBJECTID":1367}},{"type":"Feature","id":1368,"geometry":{"type":"Point","coordinates":[-95.36950743294939,29.760809597311425]},"properties":{"OBJECTID":1368}},{"type":"Feature","id":1370,"geometry":{"type":"Point","coordinates":[-95.37069080300468,29.759322086856855]},"properties":{"OBJECTID":1370}},{"type":"Feature","id":1371,"geometry":{"type":"Point","coordinates":[-95.36836884312801,29.762118347587183]},"properties":{"OBJECTID":1371}},{"type":"Feature","id":1372,"geometry":{"type":"Point","coordinates":[-95.37127639353113,29.758579186857087]},"properties":{"OBJECTID":1372}},{"type":"Feature","id":1374,"geometry":{"type":"Point","coordinates":[-95.37270297407886,29.75973458710993]},"properties":{"OBJECTID":1374}},{"type":"Feature","id":1375,"geometry":{"type":"Point","coordinates":[-95.37325991468738,29.759856656480853]},"properties":{"OBJECTID":1375}},{"type":"Feature","id":1377,"geometry":{"type":"Point","coordinates":[-95.37042290289496,29.758033556236057]},"properties":{"OBJECTID":1377}},{"type":"Feature","id":1392,"geometry":{"type":"Point","coordinates":[-95.36838033271474,29.75906127693334]},"properties":{"OBJECTID":1392}},{"type":"Feature","id":1396,"geometry":{"type":"Point","coordinates":[-95.36751685292772,29.75852616717983]},"properties":{"OBJECTID":1396}},{"type":"Feature","id":1397,"geometry":{"type":"Point","coordinates":[-95.36779618240868,29.759795616794275]},"properties":{"OBJECTID":1397}},{"type":"Feature","id":1403,"geometry":{"type":"Point","coordinates":[-95.36897556274761,29.75828522652295]},"properties":{"OBJECTID":1403}},{"type":"Feature","id":1410,"geometry":{"type":"Point","coordinates":[-95.36719335281384,29.76054018679598]},"properties":{"OBJECTID":1410}},{"type":"Feature","id":1539,"geometry":{"type":"Point","coordinates":[-95.36957208330256,29.75755291656403]},"properties":{"OBJECTID":1539}},{"type":"Feature","id":1544,"geometry":{"type":"Point","coordinates":[-95.36870560315303,29.757036836829823]},"properties":{"OBJECTID":1544}},{"type":"Feature","id":1545,"geometry":{"type":"Point","coordinates":[-95.36783908231084,29.7565244067869]},"properties":{"OBJECTID":1545}},{"type":"Feature","id":1613,"geometry":{"type":"Point","coordinates":[-95.37220172325767,29.756781796065333]},"properties":{"OBJECTID":1613}},{"type":"Feature","id":1619,"geometry":{"type":"Point","coordinates":[-95.36903486272995,29.762149917558684]},"properties":{"OBJECTID":1619}},{"type":"Feature","id":1650,"geometry":{"type":"Point","coordinates":[-95.36928633255066,29.75629726597426]},"properties":{"OBJECTID":1650}},{"type":"Feature","id":1658,"geometry":{"type":"Point","coordinates":[-95.37036219289718,29.756516905861204]},"properties":{"OBJECTID":1658}},{"type":"Feature","id":1688,"geometry":{"type":"Point","coordinates":[-95.3672550427193,29.757263806977505]},"properties":{"OBJECTID":1688}},{"type":"Feature","id":1699,"geometry":{"type":"Point","coordinates":[-95.36812052245028,29.75777631618679]},"properties":{"OBJECTID":1699}},{"type":"Feature","id":2075,"geometry":{"type":"Point","coordinates":[-95.41809319659853,29.779114549274365]},"properties":{"OBJECTID":2075}},{"type":"Feature","id":2093,"geometry":{"type":"Point","coordinates":[-95.4100670436288,29.766058597317954]},"properties":{"OBJECTID":2093}},{"type":"Feature","id":2116,"geometry":{"type":"Point","coordinates":[-95.39884701219451,29.78330220065051]},"properties":{"OBJECTID":2116}},{"type":"Feature","id":2117,"geometry":{"type":"Point","coordinates":[-95.39732478029849,29.7704117082785]},"properties":{"OBJECTID":2117}},{"type":"Feature","id":2118,"geometry":{"type":"Point","coordinates":[-95.39751985095454,29.781471890235018]},"properties":{"OBJECTID":2118}},{"type":"Feature","id":2119,"geometry":{"type":"Point","coordinates":[-95.39727927037531,29.769561428007773]},"properties":{"OBJECTID":2119}},{"type":"Feature","id":2141,"geometry":{"type":"Point","coordinates":[-95.39879808196046,29.781451940163247]},"properties":{"OBJECTID":2141}},{"type":"Feature","id":2145,"geometry":{"type":"Point","coordinates":[-95.42983955995948,29.778081448729772]},"properties":{"OBJECTID":2145}},{"type":"Feature","id":2146,"geometry":{"type":"Point","coordinates":[-95.42894693964638,29.777083888838412]},"properties":{"OBJECTID":2146}},{"type":"Feature","id":2147,"geometry":{"type":"Point","coordinates":[-95.39872691099848,29.77688925978919]},"properties":{"OBJECTID":2147}},{"type":"Feature","id":2149,"geometry":{"type":"Point","coordinates":[-95.39859346147642,29.770522017753667]},"properties":{"OBJECTID":2149}},{"type":"Feature","id":2153,"geometry":{"type":"Point","coordinates":[-95.42731869866482,29.763511615568504]},"properties":{"OBJECTID":2153}},{"type":"Feature","id":2154,"geometry":{"type":"Point","coordinates":[-95.38274461658219,29.76831298838662]},"properties":{"OBJECTID":2154}},{"type":"Feature","id":2156,"geometry":{"type":"Point","coordinates":[-95.40851153361045,29.759748995258523]},"properties":{"OBJECTID":2156}},{"type":"Feature","id":2160,"geometry":{"type":"Point","coordinates":[-95.38275245734987,29.76909740868534]},"properties":{"OBJECTID":2160}},{"type":"Feature","id":2161,"geometry":{"type":"Point","coordinates":[-95.38148676657428,29.77510652989778]},"properties":{"OBJECTID":2161}},{"type":"Feature","id":2162,"geometry":{"type":"Point","coordinates":[-95.37439882454608,29.757783536152246]},"properties":{"OBJECTID":2162}},{"type":"Feature","id":2163,"geometry":{"type":"Point","coordinates":[-95.3751444047282,29.757775746360373]},"properties":{"OBJECTID":2163}},{"type":"Feature","id":2164,"geometry":{"type":"Point","coordinates":[-95.37531978452934,29.759938526710634]},"properties":{"OBJECTID":2164}},{"type":"Feature","id":2165,"geometry":{"type":"Point","coordinates":[-95.37274660400149,29.75781887617863]},"properties":{"OBJECTID":2165}},{"type":"Feature","id":2249,"geometry":{"type":"Point","coordinates":[-95.37232638470711,29.767279238651906]},"properties":{"OBJECTID":2249}},{"type":"Feature","id":2328,"geometry":{"type":"Point","coordinates":[-95.39144304943962,29.769791497974218]},"properties":{"OBJECTID":2328}},{"type":"Feature","id":2418,"geometry":{"type":"Point","coordinates":[-95.416216794878,29.761487275642473]},"properties":{"OBJECTID":2418}},{"type":"Feature","id":2448,"geometry":{"type":"Point","coordinates":[-95.39865824109252,29.774291539120753]},"properties":{"OBJECTID":2448}},{"type":"Feature","id":2466,"geometry":{"type":"Point","coordinates":[-95.39064732918857,29.77276549922156]},"properties":{"OBJECTID":2466}},{"type":"Feature","id":2469,"geometry":{"type":"Point","coordinates":[-95.4024480113515,29.75926819561116]},"properties":{"OBJECTID":2469}},{"type":"Feature","id":2470,"geometry":{"type":"Point","coordinates":[-95.3785740051932,29.760772196887974]},"properties":{"OBJECTID":2470}},{"type":"Feature","id":2479,"geometry":{"type":"Point","coordinates":[-95.39401169957091,29.76920260796851]},"properties":{"OBJECTID":2479}}]}