{"type":"FeatureCollection","features":[{"type":"Feature","geometry":{"type":"Polygon","coordinates":[[[-95.4013183697926,29.7782571031607],[-95.4013159356016,29.7781498746656],[-95.4011583460495,29.7781525988622],[-95.4013083900418,29.7778749590944],[-95.4012502301411,29.7774583468726],[-95.4013835806625,29.777454880576],[-95.4014160174184,29.7773980051225],[-95.4018140311606,29.7773890183517],[-95.4018121111522,29.7772514509957],[-95.4026228629468,29.7772390025847],[-95.4035258851415,29.7772248506608],[-95.4038581672535,29.7772868604366],[-95.4043556102806,29.7773997873134],[-95.4043638340272,29.7778532837029],[-95.4039491660052,29.7780563458997],[-95.4039280041598,29.7780231751254],[-95.4038725958972,29.7780038618689],[-95.4037744447272,29.7779755566886],[-95.4033665459826,29.7780804464921],[-95.4032612894638,29.7781321537665],[-95.4030491439661,29.7782363709496],[-95.4029638549926,29.7782789907067],[-95.4029405926628,29.7783191446534],[-95.4028690907873,29.7784425762087],[-95.4028686733203,29.7784536793824],[-95.4028659876206,29.7785252220591],[-95.4028648549187,29.7785554016801],[-95.4028940192071,29.7785963155425],[-95.4029521769346,29.7786779138986],[-95.4026393214714,29.7786826574984],[-95.4023258345954,29.7786874059855],[-95.4021666628403,29.7786898181195],[-95.4019933076885,29.7786924450409],[-95.4018005056197,29.7786613482019],[-95.4017204000634,29.7786427204491],[-95.4013891871076,29.778487381681],[-95.4013214937587,29.778394577361],[-95.4013183697926,29.7782571031607]]]},"properties":{"YW_DAY":"YW_TH","SECTION_NAME":"NW"}},{"type":"Feature","geometry":{"type":"Polygon","coordinates":[[[-95.3857176521581,29.7576253634248],[-95.3857228507723,29.7577960573809],[-95.3857613684062,29.7579188331272],[-95.3858055591607,29.7581145878459],[-95.3858178373771,29.7583135428458],[-95.3857569326002,29.7590078469964],[-95.3857577539433,29.7590834464173],[-95.3853173702606,29.7590910177354],[-95.3853192225035,29.759172841758],[-95.3851616086261,29.7591760268492],[-95.3851610218742,29.7591485303436],[-95.3848452683651,29.7591549074462],[-95.3848342111774,29.7586347671469],[-95.3844882954046,29.7586409388781],[-95.384401194204,29.7586323819045],[-95.3844028129601,29.7576534381978],[-95.3851892925487,29.7576351330668],[-95.3857176521581,29.7576253634248]]]},"properties":{"YW_DAY":"YW_MO","SECTION_NAME":"NW"}},{"type":"Feature","geometry":{"type":"Polygon","coordinates":[[[-95.384024859206,29.7576611867475],[-95.3830672483115,29.7576777109063],[-95.3822309013431,29.7577250165056],[-95.3822297416109,29.7570352413616],[-95.3813470068974,29.7570394295781],[-95.3804619386711,29.757050830744],[-95.3795693441645,29.757062487584],[-95.3786995662313,29.7570681503362],[-95.3787016932511,29.7573637124149],[-95.3786654455885,29.7573706229648],[-95.3784226265334,29.7573722699118],[-95.3781802524469,29.7573721935243],[-95.3779477609552,29.7573755016506],[-95.3778113292515,29.7573755930252],[-95.3778146987729,29.7570738644047],[-95.376937201175,29.7570874066582],[-95.376883768942,29.7570795827244],[-95.376044515634,29.7570814012976],[-95.3760386117385,29.7570250199797],[-95.3760364408259,29.7564556579902],[-95.3750910044004,29.7564578120244],[-95.3750840692139,29.7560902202752],[-95.3750776727464,29.755465769466],[-95.3750832227732,29.755198975855],[-95.3777993817736,29.7551780004956],[-95.3777916398953,29.7551302974375],[-95.3777921068674,29.7545517183173],[-95.3760255642384,29.7545428063226],[-95.3760199701692,29.7541745873265],[-95.3760383820601,29.7538145900576],[-95.3760708615721,29.7537454911054],[-95.3761954847756,29.7538080197893],[-95.3762642101217,29.75381261089],[-95.376311636432,29.7537862737572],[-95.3763465850527,29.7537492401489],[-95.376841881106,29.753121002824],[-95.3774343980187,29.7523625974257],[-95.3782614172595,29.7528550809424],[-95.3786583015331,29.7530985420049],[-95.3789298630282,29.7531793340942],[-95.3792673878372,29.7532463281615],[-95.3795427175823,29.7532748598683],[-95.3804240568863,29.7532902327531],[-95.3812962501769,29.7532718413614],[-95.3821871510812,29.7532622999927],[-95.3830658432505,29.7532525973485],[-95.3840211269252,29.7532506518158],[-95.3840016314597,29.753407952117],[-95.383933421351,29.7536657898794],[-95.3839262304567,29.7539099255021],[-95.3839277269537,29.7541172646493],[-95.3839296902872,29.7544858413122],[-95.3839430240722,29.7547219392392],[-95.3839788564753,29.7553824651371],[-95.3839934562103,29.7560206907559],[-95.3839903334363,29.7563902510645],[-95.3840163451057,29.7567325960436],[-95.3840042455151,29.757009854035],[-95.384024859206,29.7576611867475]]]},"properties":{"YW_DAY":"YW_MO","SECTION_NAME":"NW"}},{"type":"Feature","geometry":{"type":"Polygon","coordinates":[[[-95.3876797196197,29.7801700380197],[-95.3875311232124,29.7797784362989],[-95.3878815897493,29.7796781545043],[-95.3878300047163,29.7795472942527],[-95.3882726054522,29.7794194921216],[-95.3883446112175,29.7795045176557],[-95.3883984684886,29.7796298162744],[-95.3884372312076,29.7797199864957],[-95.3884897451228,29.779842142821],[-95.3885142409431,29.7799174093197],[-95.3885184183681,29.7800266350675],[-95.388549524346,29.7800132392742],[-95.388609885296,29.7801521328284],[-95.3886218130498,29.7802359075756],[-95.3887934269983,29.7802233208213],[-95.3888621087117,29.7802157747574],[-95.3894341148815,29.7801947627048],[-95.3898768015177,29.7801965944331],[-95.3907449068406,29.7801891163684],[-95.3907922925243,29.779915038922],[-95.3907880034386,29.7797146889293],[-95.3908195196532,29.7797149816208],[-95.3910463699484,29.7797171070299],[-95.3910430482338,29.7796215788097],[-95.3910410667394,29.7792799439684],[-95.3910656530572,29.779279625747],[-95.3910650326173,29.7792383829081],[-95.3912946905992,29.7792354356811],[-95.3912934213698,29.779160091967],[-95.3912875345733,29.7788034960273],[-95.3915218852846,29.7787984966856],[-95.3915141746354,29.7783110223751],[-95.3912791568471,29.7783142895665],[-95.3912733638022,29.7779705751699],[-95.3912761578328,29.7778771333462],[-95.39177315845,29.777876387604],[-95.3917851839853,29.7787921433216],[-95.3917925762475,29.779722344731],[-95.3918261499729,29.7815691874503],[-95.3906929506162,29.7815927828637],[-95.3899148848936,29.7816003411471],[-95.3886200456641,29.7816145895872],[-95.3876870381756,29.7816329755458],[-95.3875955310658,29.7812551158381],[-95.3874581515667,29.7809785442336],[-95.3871890390275,29.7803073695812],[-95.3876797196197,29.7801700380197]]]},"properties":{"YW_DAY":"YW_TH","SECTION_NAME":"NW"}},{"type":"Feature","geometry":{"type":"Polygon","coordinates":[[[-95.3814867523261,29.7751065231946],[-95.3803545295006,29.7751141788687],[-95.3792711352309,29.7751335952094],[-95.3781715455786,29.7751379627768],[-95.3770435588708,29.7751486016254],[-95.3759105547189,29.7751586177984],[-95.3759049663075,29.7744510329182],[-95.3758868116608,29.773705622334],[-95.3758768231601,29.772975406678],[-95.3758766605449,29.7722989609791],[-95.3758667162834,29.7721936068481],[-95.3758615167271,29.7714913684117],[-95.3758462287571,29.7707571437643],[-95.3758406079814,29.7700128367879],[-95.3760299442074,29.7700122387418],[-95.3760159279427,29.7699144181798],[-95.3760148781415,29.7697883437902],[-95.376010821036,29.7693011600007],[-95.3771477823326,29.7694199984487],[-95.3772324122872,29.7694495287144],[-95.3772165917537,29.7699353905046],[-95.3771731079602,29.7699787830052],[-95.376988662485,29.7700592271933],[-95.3769905198264,29.7701185290641],[-95.3769905489651,29.7707322652393],[-95.3769982750642,29.7714799613334],[-95.3770187300705,29.7721860537956],[-95.3781503455417,29.7721786255788],[-95.3781425537799,29.7729430197462],[-95.3792463289382,29.77292495091],[-95.3803398624377,29.7729259124088],[-95.3814537153708,29.7729172289257],[-95.3828043689873,29.7729220283226],[-95.3827890572564,29.7732996608388],[-95.382733872395,29.7735338811281],[-95.3826982543366,29.7736411594985],[-95.3825660260324,29.7738263175781],[-95.3822839812211,29.7741000803358],[-95.3821756397306,29.7741951528969],[-95.3819384534011,29.7743950489938],[-95.3817449740763,29.7746117633179],[-95.3816209162602,29.7747791176763],[-95.3815454841691,29.7749622653122],[-95.3814867523261,29.7751065231946]]]},"properties":{"YW_DAY":"YW_MO","SECTION_NAME":"NW"}},{"type":"Feature","geometry":{"type":"Polygon","coordinates":[[[-95.3679465233015,29.7737755823059],[-95.36900267068,29.7737840590828],[-95.3701166448633,29.7737783712566],[-95.3712152555831,29.7737594205002],[-95.3722299778304,29.7737498189022],[-95.3723976413291,29.7737327269783],[-95.3736108218539,29.77373067219],[-95.3747551475792,29.7737231169319],[-95.3758868116608,29.773705622334],[-95.3759049663075,29.7744510329182],[-95.3759105547189,29.7751586177984],[-95.3770435466905,29.7751485949775],[-95.3781715455786,29.7751379627768],[-95.3792711352309,29.7751335952094],[-95.3803545295006,29.7751141788687],[-95.3814867523261,29.7751065231946],[-95.381418707683,29.7755518528076],[-95.3813881603368,29.7759063058654],[-95.381248431387,29.7771999987381],[-95.3804337158041,29.7775287970869],[-95.3792524698499,29.7781934091609],[-95.3789580059782,29.7784245237723],[-95.377311590431,29.7788253804765],[-95.3766143431627,29.7789029157126],[-95.3759813692281,29.7788918498318],[-95.3754387779335,29.7788346297455],[-95.3748088706844,29.7787183161057],[-95.3743132025521,29.778582578992],[-95.3736183659118,29.7783235309247],[-95.3724383995373,29.7778263667649],[-95.3718628900621,29.777573685799],[-95.3709324191805,29.777122177489],[-95.370695758511,29.7769857105046],[-95.3704535751732,29.7768642744835],[-95.3701137637939,29.7766419462035],[-95.3698211272827,29.7764245109284],[-95.3695276961088,29.7761205142804],[-95.3692570279923,29.7757655410221],[-95.3685938583517,29.7747974045658],[-95.3683405589466,29.7744241000138],[-95.3680421511746,29.7739417068285],[-95.3679465233015,29.7737755823059]]]},"properties":{"YW_DAY":"YW_MO","SECTION_NAME":"NW"}},{"type":"Feature","geometry":{"type":"Polygon","coordinates":[[[-95.3723214333581,29.7654471219923],[-95.3724301292318,29.765201719839],[-95.3725020914935,29.7650518189572],[-95.3724970456658,29.7649871192731],[-95.3724969067362,29.7647317814524],[-95.3724893854644,29.7640107440061],[-95.37391907289,29.7639626977471],[-95.3742848485727,29.7639537620335],[-95.3753697955513,29.7639341350399],[-95.3755579899766,29.7639549309118],[-95.375773872361,29.7640062948897],[-95.3760863080553,29.7640241667871],[-95.3771203802093,29.7640071286854],[-95.3782418049334,29.7639822272593],[-95.37910407238,29.763976549802],[-95.3793661497056,29.7639840753835],[-95.3804084563013,29.7640045044869],[-95.3805077884141,29.7640290446686],[-95.380515353524,29.764726067774],[-95.3805147334449,29.7654736065146],[-95.3812892193913,29.7654703566048],[-95.3813570249985,29.765545603005],[-95.3815575011082,29.7655439369848],[-95.3823896879101,29.7655369888905],[-95.382393723356,29.7662023634048],[-95.3823373918346,29.7662027472643],[-95.3815453159088,29.7662005267519],[-95.3812439510935,29.7662124747943],[-95.3805179847247,29.7662119937639],[-95.379409168721,29.7662290710922],[-95.3782724060722,29.7662272395157],[-95.3771356437588,29.7662329346424],[-95.3755959224988,29.7662485056968],[-95.3755932782314,29.7654902228327],[-95.3754341944246,29.7654719972595],[-95.375288056263,29.7654575969272],[-95.3746444753184,29.7654530163281],[-95.3739354592217,29.7654535736968],[-95.373896790622,29.7654371089223],[-95.3738748331659,29.7654270990609],[-95.3723214333581,29.7654471219923]]]},"properties":{"YW_DAY":"YW_MO","SECTION_NAME":"NW"}},{"type":"Feature","geometry":{"type":"Polygon","coordinates":[[[-95.4019005412058,29.7700742219703],[-95.40190837943,29.7695192987131],[-95.4019053868209,29.7694326987347],[-95.4018908648416,29.7690123920733],[-95.4018887626115,29.7688044077614],[-95.4018624411549,29.7683444391939],[-95.401854922801,29.768199336528],[-95.4018549320046,29.7676882072908],[-95.4018549262564,29.7675946611805],[-95.4018374055933,29.7669319383007],[-95.4019855601799,29.7668976698254],[-95.4033045122318,29.7668948377569],[-95.4048058976634,29.7668747424348],[-95.4048184367481,29.7675981553651],[-95.4048302940311,29.7682757508832],[-95.4048455394048,29.7683348650327],[-95.4048530668498,29.7690652443908],[-95.4048608659629,29.7694944336056],[-95.4048683752282,29.7702631425983],[-95.4048902862101,29.7703692210637],[-95.4040009292924,29.7702960190507],[-95.4032588773311,29.7702198666704],[-95.4022286648069,29.7701104759303],[-95.4019005412058,29.7700742219703]]]},"properties":{"YW_DAY":"YW_MO","SECTION_NAME":"NW"}},{"type":"Feature","geometry":{"type":"Polygon","coordinates":[[[-95.4008292111227,29.7663541557773],[-95.4008214060941,29.765980598827],[-95.4008064261628,29.765646274508],[-95.4011117989415,29.7656304772096],[-95.4018180701115,29.7656135321545],[-95.4018114828159,29.7654103078745],[-95.4017862211278,29.764241678002],[-95.4017709278271,29.763541649641],[-95.4027016602109,29.7635263549655],[-95.4028695960815,29.7635341199601],[-95.403037281924,29.7635701592027],[-95.4031443327892,29.7636217365171],[-95.403268490535,29.763702654347],[-95.4035224178404,29.7638710428072],[-95.4036286886843,29.7639219885838],[-95.4037400029412,29.7639502874531],[-95.4038698763164,29.7639622190407],[-95.4046701179684,29.7639498328267],[-95.4047006490186,29.763959443872],[-95.4047234638343,29.7639822442184],[-95.4047391726281,29.7640012730642],[-95.4047462710846,29.764022490014],[-95.4047744129449,29.7646763382661],[-95.4047611551362,29.7654098733746],[-95.404784637965,29.7660994354389],[-95.4047921701973,29.7661489460468],[-95.4048059098445,29.7668747490802],[-95.4033045122318,29.7668948377569],[-95.4019855601799,29.7668976698254],[-95.4018374055933,29.7669319383007],[-95.4018243252356,29.7663340171367],[-95.4017097950235,29.7663205684731],[-95.4008292111227,29.7663541557773]]]},"properties":{"YW_DAY":"YW_MO","SECTION_NAME":"NW"}},{"type":"Feature","geometry":{"type":"Polygon","coordinates":[[[-95.4162133207587,29.7614874255412],[-95.4162233818687,29.7620576445899],[-95.4162520194591,29.762746957476],[-95.4162607231288,29.7630819298509],[-95.4162643855279,29.7634711116911],[-95.4162822790497,29.7644201736292],[-95.4176172937979,29.7643961335621],[-95.4184183635161,29.7643808449065],[-95.4192423161873,29.7643637438311],[-95.4201271833953,29.7643655698197],[-95.4205317131554,29.7643466518769],[-95.4209816436271,29.7643466219794],[-95.4216454230172,29.7643541616784],[-95.4217281286629,29.7658765695405],[-95.4209904042276,29.7658632175177],[-95.4201313436538,29.7658692603776],[-95.4192576130585,29.7658781381371],[-95.4184412065514,29.7658895334472],[-95.4176476006852,29.7659029748634],[-95.4163278522942,29.7659335557474],[-95.4151006559656,29.7659766696717],[-95.4133541350326,29.766015080639],[-95.4133583194969,29.7653404618027],[-95.4134209444716,29.7652918203762],[-95.4134157212819,29.7650262810832],[-95.4133906289082,29.763755197356],[-95.4133837663018,29.763435393362],[-95.4133701782489,29.7631722531477],[-95.4133510856631,29.7628976282232],[-95.4134199027273,29.7629006959744],[-95.4142826593532,29.7627207456902],[-95.4144923557489,29.7625889609596],[-95.414598048599,29.7625314239374],[-95.4147791074927,29.7623748844547],[-95.4150974007928,29.7620935973096],[-95.4153640798374,29.761886987329],[-95.4155830129339,29.7617168613318],[-95.415683935859,29.7616806149917],[-95.415838794456,29.7616108812018],[-95.416010225795,29.7615514402761],[-95.4162133207587,29.7614874255412]]]},"properties":{"YW_DAY":"YW_MO","SECTION_NAME":"NW"}},{"type":"Feature","geometry":{"type":"Polygon","coordinates":[[[-95.4234492361743,29.7708657750063],[-95.4233153023998,29.7705765294133],[-95.4231343725387,29.7703203110698],[-95.422621992932,29.7696069140602],[-95.4223550550941,29.7692580286018],[-95.4221184034657,29.768865109203],[-95.4218249317732,29.7681363307],[-95.4217752441955,29.76736968754],[-95.4240946353653,29.7673106100996],[-95.4253000714482,29.7672742979858],[-95.4254221085481,29.7672820657068],[-95.426306994278,29.7672323102279],[-95.4273294133532,29.7672151953274],[-95.4273447065129,29.7687772639914],[-95.4273602246478,29.7697935657612],[-95.4266141820438,29.7700165280963],[-95.4254640340363,29.7703638510577],[-95.4246131965619,29.7706257376005],[-95.4240716488723,29.7707673157985],[-95.4237308267213,29.7709548489765],[-95.4236460274205,29.7708886827837],[-95.4235868338206,29.7708637334329],[-95.4234492361743,29.7708657750063]]]},"properties":{"YW_DAY":"YW_MO","SECTION_NAME":"NW"}},{"type":"Feature","geometry":{"type":"Polygon","coordinates":[[[-95.4179835032825,29.7747588061206],[-95.4179682205159,29.7740492033475],[-95.4179242234426,29.7730726300798],[-95.4178171276631,29.7724998375554],[-95.4185174296704,29.7724910095703],[-95.4193491046131,29.7724775543154],[-95.420211112934,29.7724718356439],[-95.4211037146436,29.772467952057],[-95.4218366586121,29.7724683406242],[-95.4219928821937,29.7724871879264],[-95.4218703154326,29.7725483782869],[-95.4218820260798,29.7732156994388],[-95.4218895603551,29.773969100355],[-95.4218973113197,29.7747300422174],[-95.4219048767507,29.7754111557908],[-95.421897307702,29.7760920050693],[-95.4211037259007,29.77580771601],[-95.420228349302,29.7754926593707],[-95.4193796912495,29.7752089999332],[-95.4185479562084,29.7749228861055],[-95.4179835032825,29.7747588061206]]]},"properties":{"YW_DAY":"YW_MO","SECTION_NAME":"NW"}},{"type":"Feature","geometry":{"type":"Polygon","coordinates":[[[-95.4217281286629,29.7658765695405],[-95.4217434331765,29.7666143118326],[-95.4217752441955,29.76736968754],[-95.4210122317141,29.7673831293075],[-95.4201654911084,29.767384980375],[-95.419280430024,29.7673924998391],[-95.4184564894486,29.7673963908797],[-95.4176547567888,29.7674238430643],[-95.4163326701865,29.7674326315184],[-95.4152460762729,29.7674521649479],[-95.4133881830315,29.767467918917],[-95.4133675845474,29.7667518072792],[-95.4133541350326,29.766015080639],[-95.4151006559656,29.7659766696717],[-95.4163278522942,29.7659335557474],[-95.4176476006852,29.7659029748634],[-95.4184412065514,29.7658895334472],[-95.4192576130585,29.7658781381371],[-95.4201313314719,29.7658692537337],[-95.4209904042276,29.7658632175177],[-95.4217281286629,29.7658765695405]]]},"properties":{"YW_DAY":"YW_MO","SECTION_NAME":"NW"}},{"type":"Feature","geometry":{"type":"Polygon","coordinates":[[[-95.3857176521581,29.7576253634248],[-95.3889541695508,29.7575510806298],[-95.3889543093659,29.7576692339081],[-95.3889667913277,29.7578455371409],[-95.3889942782041,29.7579029470512],[-95.3890129645363,29.757990485354],[-95.3890438959856,29.7580883569497],[-95.3890765033154,29.7581712678362],[-95.3891118619752,29.7582412472951],[-95.3891746884028,29.7584910316867],[-95.3891785174927,29.7585717191494],[-95.3896287228244,29.7585655886574],[-95.3896348782243,29.7607417890142],[-95.3889556709247,29.7605558950802],[-95.3883575353785,29.7605933873653],[-95.3882760120429,29.76060445373],[-95.387930995658,29.7606512866774],[-95.387205416705,29.7608968790554],[-95.3866319684092,29.7609910169504],[-95.3857986869827,29.7610755510194],[-95.3857797322392,29.7603791889099],[-95.3857651212859,29.7596970027935],[-95.3857577539433,29.7590834464173],[-95.3857569326002,29.7590078469964],[-95.3858178373771,29.7583135428458],[-95.3858055591607,29.7581145878459],[-95.3857613684062,29.7579188331272],[-95.3857228507723,29.7577960573809],[-95.3857176521581,29.7576253634248]]]},"properties":{"YW_DAY":"YW_MO","SECTION_NAME":"NW"}},{"type":"Feature","geometry":{"type":"Polygon","coordinates":[[[-95.4143416835724,29.7737573907564],[-95.4154444131483,29.774061191219],[-95.4163355453846,29.7743062023507],[-95.4179835032825,29.7747588061206],[-95.4180138282332,29.7754606715836],[-95.4186319333742,29.7754453732454],[-95.4188455245767,29.7754624777997],[-95.4190743686347,29.7755083643994],[-95.420066252891,29.77585927103],[-95.4210633054128,29.7761694677115],[-95.4219429580036,29.7765097815065],[-95.4219659988948,29.7765689145502],[-95.4219429805345,29.7768283281708],[-95.4219279050498,29.7768643945429],[-95.4218895591576,29.7768874200693],[-95.4200737680598,29.7769045640741],[-95.4188843877789,29.7769124504065],[-95.418085781389,29.7769338192038],[-95.4169193936238,29.7769513860112],[-95.4158738262996,29.7769597579219],[-95.41584711187,29.7762254848754],[-95.4135811267795,29.7762503628342],[-95.4135583203429,29.7755311601943],[-95.4126047960942,29.775535037907],[-95.4125850440201,29.7748130650471],[-95.4125718314678,29.7740740282207],[-95.4125588993535,29.7736487609106],[-95.4125511385505,29.7732615325727],[-95.4134668190729,29.7735114158679],[-95.4143416835724,29.7737573907564]]]},"properties":{"YW_DAY":"YW_MO","SECTION_NAME":"NW"}},{"type":"Feature","geometry":{"type":"Polygon","coordinates":[[[-95.431128096507,29.7807921567901],[-95.4304762382981,29.7808038831698],[-95.4289789605851,29.7808190063412],[-95.4288205214646,29.780818889946],[-95.4266931190593,29.7808414537265],[-95.4265409374319,29.7808475835136],[-95.4243233825935,29.7808684019179],[-95.4243157200969,29.7805055332464],[-95.4243080154281,29.7801387630659],[-95.4243004166853,29.7797770008575],[-95.424292916615,29.7790463955091],[-95.4243157344616,29.7789720194497],[-95.4243080322239,29.7786177264853],[-95.4243004171428,29.7783655461655],[-95.4243005123657,29.7783188248889],[-95.4243254756257,29.7782756573749],[-95.4243712779381,29.7782486688849],[-95.4243739367267,29.7781758987575],[-95.4243732825066,29.7778284327429],[-95.4253224177762,29.7778050162555],[-95.4260831595869,29.7781631457243],[-95.426654591688,29.7783921588509],[-95.4277887063352,29.7789264085493],[-95.4280682694919,29.7790826440745],[-95.428338598524,29.7792241652617],[-95.4289373571377,29.7795580593549],[-95.4295274079067,29.7798664228665],[-95.4304632028925,29.7803796493945],[-95.4304981221286,29.7804376005251],[-95.431128096507,29.7807921567901]]]},"properties":{"YW_DAY":"YW_TH","SECTION_NAME":"NW"}},{"type":"Feature","geometry":{"type":"Polygon","coordinates":[[[-95.4183449032407,29.7820246916373],[-95.4183330459761,29.7812979143324],[-95.4181400759797,29.7805721810291],[-95.4181320089823,29.7802066955272],[-95.4243080154281,29.7801387630659],[-95.4243157200969,29.7805055332464],[-95.4243233825935,29.7808684019179],[-95.4243311732808,29.781237384898],[-95.4243365340316,29.7819628507907],[-95.4243436693006,29.7824178240662],[-95.421987283136,29.7823473159444],[-95.4202218713566,29.7822944830463],[-95.4200542923746,29.7822898345771],[-95.4183274464795,29.7822383795942],[-95.4183449032407,29.7820246916373]]]},"properties":{"YW_DAY":"YW_TH","SECTION_NAME":"NW"}},{"type":"Feature","geometry":{"type":"Polygon","coordinates":[[[-95.4180596171972,29.7779368557004],[-95.4190362711459,29.7779344971769],[-95.420089930173,29.7779225100123],[-95.4218674213114,29.7779036675843],[-95.4219593353799,29.7779195899499],[-95.422009316709,29.7779686889351],[-95.4219963492981,29.7783408941834],[-95.4220014986462,29.7786510168215],[-95.4243080322239,29.7786177264853],[-95.4243157344616,29.7789720194497],[-95.424292916615,29.7790463955091],[-95.4243004166853,29.7797770008575],[-95.4243080154281,29.7801387630659],[-95.4181320089823,29.7802066955272],[-95.4181216154771,29.7798433448572],[-95.4180931874846,29.7791145436149],[-95.4180703669978,29.7783750196498],[-95.4180596171972,29.7779368557004]]]},"properties":{"YW_DAY":"YW_TH","SECTION_NAME":"NW"}},{"type":"Feature","geometry":{"type":"Polygon","coordinates":[[[-95.4136943946944,29.7813207719927],[-95.4136663617584,29.7812550454618],[-95.4136480351553,29.7806384805567],[-95.4136297813586,29.7799025590322],[-95.4136194708224,29.7791723641988],[-95.4136117921875,29.7784439808522],[-95.4136037397314,29.7779894753101],[-95.4143806617935,29.7779757741737],[-95.415892588758,29.7779658798762],[-95.4180596293805,29.7779368623446],[-95.4180703669978,29.7783750196498],[-95.4180931874846,29.7791145436149],[-95.4181216154771,29.7798433448572],[-95.4181320089823,29.7802066955272],[-95.4181400759797,29.7805721810291],[-95.4181379747657,29.7816620400601],[-95.4181139209822,29.7818792065422],[-95.4180598819223,29.7821836963952],[-95.4180499015628,29.7822224123831],[-95.4179966763781,29.7823949159857],[-95.4179148752188,29.7827164558986],[-95.4178249714294,29.7830879863413],[-95.4177820707416,29.7832667837446],[-95.4148931434359,29.7831776183666],[-95.4148937970774,29.7830139908338],[-95.4149011356227,29.7829454052062],[-95.4149160262355,29.7828956495753],[-95.4149371794662,29.7828546601041],[-95.4148966041068,29.7828406776906],[-95.4148696098539,29.7828141623905],[-95.4148712836187,29.78273896677],[-95.4148617887169,29.7821477378303],[-95.4148543739469,29.781338500348],[-95.4137704673458,29.7813540943386],[-95.4136943946944,29.7813207719927]]]},"properties":{"YW_DAY":"YW_TH","SECTION_NAME":"NW"}},{"type":"Feature","geometry":{"type":"Polygon","coordinates":[[[-95.4163539056029,29.7901304026949],[-95.4153430954095,29.7901482956271],[-95.414328204601,29.7902188306718],[-95.4134074234757,29.7902970313402],[-95.4124620800893,29.7903416857208],[-95.411807201652,29.7903843645757],[-95.4118038800694,29.7900230130347],[-95.4117425033129,29.788121717785],[-95.4117346298525,29.7862894306757],[-95.41170162334,29.7853412267015],[-95.4116447839287,29.7848196204938],[-95.4115346111083,29.7843823633003],[-95.4136211387773,29.7843720841604],[-95.414290326108,29.784364245208],[-95.4145744239445,29.7846611780605],[-95.4142597520136,29.7849799559308],[-95.4142842218331,29.785005910943],[-95.4141686973918,29.7851239964461],[-95.4140600093399,29.785198620749],[-95.4138989937337,29.7852818363319],[-95.4136340931408,29.7853948784355],[-95.4135003431922,29.7854470661007],[-95.4133152569924,29.7855160213279],[-95.4132422479937,29.7856475405724],[-95.4132502680826,29.785928282451],[-95.4133050560489,29.7861525640287],[-95.4133812042493,29.786304740334],[-95.4134578058493,29.7863763835036],[-95.4135637787477,29.7864294507202],[-95.4136158780336,29.7864584667631],[-95.4137952944311,29.786514005338],[-95.4140588402025,29.7866120283081],[-95.4141721570639,29.7866594621998],[-95.414271707793,29.7867091968442],[-95.4144591557392,29.7868255541328],[-95.4146880012284,29.7869745679053],[-95.4147748531441,29.7870771140479],[-95.4148552818647,29.7871721326315],[-95.414889711412,29.7871826920434],[-95.4150486012184,29.7872000168075],[-95.416132127437,29.7862891907168],[-95.4162308250809,29.7863813860549],[-95.4163432264778,29.7864607518948],[-95.4165729839808,29.7865729948406],[-95.4167976312001,29.7866280380239],[-95.4171276864819,29.7867464888546],[-95.4174543271918,29.7868039458957],[-95.4176443904651,29.7868658386449],[-95.417863229359,29.7869588291555],[-95.4181027814147,29.7870918005083],[-95.4183065848636,29.7872379886005],[-95.4184493061568,29.7874066511934],[-95.4185112575597,29.787535825487],[-95.4185435834538,29.7876729231994],[-95.4185476269478,29.7877134852138],[-95.4185480282043,29.7877837697793],[-95.4185256937946,29.7879228189285],[-95.4184696286774,29.7880520747699],[-95.4183848644899,29.7881988387099],[-95.4183547687041,29.7883065634494],[-95.4181400337841,29.7886685096997],[-95.4179180379201,29.7890390605706],[-95.4177969172208,29.7891736921757],[-95.4176685616352,29.7892446931348],[-95.4175397991373,29.7892776942676],[-95.4174054396373,29.7892875868335],[-95.4172957663554,29.7893187384423],[-95.4171921639397,29.7893845712943],[-95.4171159212548,29.7894816006832],[-95.4170811821874,29.7896250623153],[-95.4170861017699,29.789974627689],[-95.417077185892,29.7901248652285],[-95.4163539056029,29.7901304026949]]]},"properties":{"YW_DAY":"YW_TH","SECTION_NAME":"NW"}},{"type":"Feature","geometry":{"type":"Polygon","coordinates":[[[-95.4033112933272,29.7869239477745],[-95.4032780787367,29.7850916731912],[-95.4032205416023,29.7834334560031],[-95.4042178026374,29.7834220390738],[-95.4055427486529,29.7834204440204],[-95.4064647481501,29.7834045096478],[-95.4064775028601,29.7840576412571],[-95.4068858041027,29.7840588600012],[-95.406889497557,29.7843979082801],[-95.4086373028054,29.7843680546657],[-95.4086421379842,29.7845299483235],[-95.4087416783276,29.7845363551924],[-95.408784165675,29.7875217125279],[-95.4080793280358,29.7875329723052],[-95.4080709826034,29.7868461926982],[-95.4076990934635,29.7868551427627],[-95.4069055100524,29.7868647118131],[-95.4061043774079,29.7868857026007],[-95.4054711917715,29.7868895625592],[-95.4044128502233,29.7869001680533],[-95.4033112933272,29.7869239477745]]]},"properties":{"YW_DAY":"YW_TH","SECTION_NAME":"NW"}},{"type":"Feature","geometry":{"type":"Polygon","coordinates":[[[-95.4033112811439,29.786923941129],[-95.4044128502233,29.7869001680533],[-95.4054711917715,29.7868895625592],[-95.4061043774079,29.7868857026007],[-95.4069055100524,29.7868647118131],[-95.4076990934635,29.7868551427627],[-95.4080709826034,29.7868461926982],[-95.4080793280358,29.7875329723052],[-95.408784165675,29.7875217125279],[-95.4093402374108,29.7875160138243],[-95.4093559241931,29.7886708745989],[-95.4091530715049,29.7886723798076],[-95.4088800583286,29.7886822030919],[-95.4079318457544,29.7886974510166],[-95.4069817118004,29.7887129106296],[-95.4061405350358,29.7887319719404],[-95.4055214667733,29.7887325651629],[-95.4044487383867,29.7887489272638],[-95.4033425903813,29.7887549052792],[-95.4033112811439,29.786923941129]]]},"properties":{"YW_DAY":"YW_TH","SECTION_NAME":"NW"}},{"type":"Feature","geometry":{"type":"Polygon","coordinates":[[[-95.3976249139831,29.7870136683075],[-95.3989098661547,29.7869849561083],[-95.4000160721393,29.7869810865082],[-95.4011224970594,29.7869619109994],[-95.4022133952688,29.786942959502],[-95.4033112811439,29.786923941129],[-95.4033425903813,29.7887549052792],[-95.4033654068638,29.7906240961633],[-95.4022898214119,29.7906432361938],[-95.4011681303651,29.7906526158946],[-95.4000847766833,29.790662179115],[-95.3989785908849,29.7906870303239],[-95.3977044516669,29.7906927510972],[-95.3976816632955,29.7897752922862],[-95.397660998168,29.7888588768805],[-95.3976249139831,29.7870136683075]]]},"properties":{"YW_DAY":"YW_TH","SECTION_NAME":"NW"}},{"type":"Feature","geometry":{"type":"Polygon","coordinates":[[[-95.3975198530219,29.7814718902907],[-95.3962314451161,29.7814966175345],[-95.3951333906859,29.7814956141911],[-95.3940347754736,29.7815127165975],[-95.392933175587,29.7815494138926],[-95.3918261621549,29.7815691940968],[-95.3917925762475,29.779722344731],[-95.3917851839853,29.7787921433216],[-95.39177315845,29.777876387604],[-95.3917535047987,29.7774003830711],[-95.3917688100995,29.7771048996842],[-95.3922463602633,29.7770994195266],[-95.3928443591036,29.7771027598662],[-95.3939507732073,29.7770761287191],[-95.394645150456,29.7770667614535],[-95.3950368811606,29.7770633441223],[-95.396155614672,29.7770608229029],[-95.3969042362469,29.7770296321323],[-95.3974450137438,29.776957939181],[-95.397452792016,29.7777989899678],[-95.3974908731486,29.779643527981],[-95.3975198530219,29.7814718902907]]]},"properties":{"YW_DAY":"YW_TH","SECTION_NAME":"NW"}},{"type":"Feature","geometry":{"type":"Polygon","coordinates":[[[-95.3877660874453,29.7859310446456],[-95.3877481530379,29.785253196699],[-95.3878042538123,29.7852986246798],[-95.3897394099967,29.7852796886261],[-95.3898584850366,29.7852659631048],[-95.3918026014646,29.785264052398],[-95.3919012609103,29.7852556409133],[-95.3929970289806,29.7852471780765],[-95.3941109899945,29.7852225417753],[-95.3952096358995,29.7852072519459],[-95.3963157945971,29.7851785268538],[-95.3975869687079,29.7851610403244],[-95.3976249139831,29.7870136683075],[-95.3963412872652,29.7870294372332],[-95.3952554719661,29.7870440420695],[-95.3941400715215,29.7870596456975],[-95.3930389887431,29.787088486377],[-95.3919491161499,29.7870970600436],[-95.3898992733501,29.7871208742432],[-95.3885492596549,29.7871412660884],[-95.3878587717989,29.7871527249665],[-95.3877884618831,29.7872496067741],[-95.3877783166421,29.7869997518659],[-95.3877635161055,29.786635919543],[-95.3877634614535,29.786227600044],[-95.3877660874453,29.7859310446456]]]},"properties":{"YW_DAY":"YW_TH","SECTION_NAME":"NW"}},{"type":"Feature","geometry":{"type":"Polygon","coordinates":[[[-95.3877193262743,29.7834658007614],[-95.3896289865349,29.7834394516657],[-95.390112643945,29.7834534434164],[-95.3902313360892,29.7834062991122],[-95.3911330532308,29.7833909907847],[-95.3918581748178,29.783409272599],[-95.3929666941381,29.7833894048568],[-95.3940653546391,29.7833761725366],[-95.3951637431729,29.7833494806717],[-95.396273378247,29.7833335827988],[-95.3975589950666,29.7833252511516],[-95.3975869687079,29.7851610403244],[-95.3963157945971,29.7851785268538],[-95.3952096358995,29.7852072519459],[-95.3941109899945,29.7852225417753],[-95.3929970289806,29.7852471780765],[-95.3919012609103,29.7852556409133],[-95.3918026014646,29.785264052398],[-95.3898584850366,29.7852659631048],[-95.3897394099967,29.7852796886261],[-95.3878042538123,29.7852986246798],[-95.3877481530379,29.785253196699],[-95.3877476082861,29.7848048427705],[-95.387732895977,29.7843776470286],[-95.3877193262743,29.7834658007614]]]},"properties":{"YW_DAY":"YW_TH","SECTION_NAME":"NW"}},{"type":"Feature","geometry":{"type":"Polygon","coordinates":[[[-95.3807336330809,29.7847799699788],[-95.3820246300401,29.78477195101],[-95.3842876306448,29.7847560534918],[-95.3842913667007,29.7848427858604],[-95.3859974131253,29.7848232527908],[-95.3877476082861,29.7848048427705],[-95.3877481530379,29.785253196699],[-95.3877660874453,29.7859310446456],[-95.3877634614535,29.786227600044],[-95.3877635161055,29.786635919543],[-95.3877783166421,29.7869997518659],[-95.3807662930017,29.7870706461902],[-95.3807617311763,29.7867153256484],[-95.3807546154836,29.7860046168149],[-95.3807364553265,29.7852870003355],[-95.3807336330809,29.7847799699788]]]},"properties":{"YW_DAY":"YW_TH","SECTION_NAME":"NW"}},{"type":"Feature","geometry":{"type":"Polygon","coordinates":[[[-95.3918261499729,29.7815691874503],[-95.3929331877691,29.7815494205391],[-95.3940347754736,29.7815127165975],[-95.3951333906859,29.7814956141911],[-95.3962314451161,29.7814966175345],[-95.3975198530219,29.7814718902907],[-95.3975589950666,29.7833252511516],[-95.3962733904295,29.783333589445],[-95.3951637431729,29.7833494806717],[-95.3940653546391,29.7833761725366],[-95.3929666941381,29.7833894048568],[-95.3918581748178,29.783409272599],[-95.3911330532308,29.7833909907847],[-95.3902313360892,29.7834062991122],[-95.390112643945,29.7834534434164],[-95.3896289865349,29.7834394516657],[-95.3877193262743,29.7834658007614],[-95.387702318282,29.782544517277],[-95.3876870381756,29.7816329755458],[-95.3886200456641,29.7816145895872],[-95.3899148848936,29.7816003411471],[-95.3906929506162,29.7815927828637],[-95.3918261499729,29.7815691874503]]]},"properties":{"YW_DAY":"YW_TH","SECTION_NAME":"NW"}},{"type":"Feature","geometry":{"type":"Polygon","coordinates":[[[-95.387702318282,29.782544517277],[-95.3859539281262,29.7825610029427],[-95.3842416664142,29.7825838618642],[-95.3838446959499,29.7826369136857],[-95.3834907758425,29.7826683718153],[-95.382513154705,29.7826800733677],[-95.3823210997683,29.7827405596393],[-95.3821069702631,29.7828191149204],[-95.3820105398677,29.7829212788256],[-95.3807231985742,29.7829298759635],[-95.3807093878828,29.7822051568185],[-95.3807125559579,29.7815004358723],[-95.380723171729,29.7814442729945],[-95.3807543414509,29.7810655711791],[-95.3808138735448,29.7805751034785],[-95.3811761588832,29.7805983466704],[-95.3820634071185,29.7806408621446],[-95.3830768184009,29.7806888942227],[-95.3842251267574,29.7807361259822],[-95.385392506021,29.7807865503345],[-95.3854059700654,29.7800496687377],[-95.3854585206956,29.7794190793322],[-95.3857166358599,29.7793873759702],[-95.3863046910087,29.7794151474987],[-95.3863743966141,29.7794169520707],[-95.3866173639369,29.7790832543092],[-95.3868862485086,29.7791945519591],[-95.387053375314,29.7792415554916],[-95.3870385708668,29.7794392870111],[-95.3870613240625,29.7798104773792],[-95.3871147871617,29.7801222124939],[-95.3874581515667,29.7809785442336],[-95.3875955310658,29.7812551158381],[-95.3876870381756,29.7816329755458],[-95.387702318282,29.782544517277]]]},"properties":{"YW_DAY":"YW_TH","SECTION_NAME":"NW"}},{"type":"Feature","geometry":{"type":"Polygon","coordinates":[[[-95.3807231985742,29.7829298759635],[-95.3820105398677,29.7829212788256],[-95.3821069702631,29.7828191149204],[-95.3823210997683,29.7827405596393],[-95.3825131668865,29.7826800800151],[-95.3834907758425,29.7826683718153],[-95.3838446959499,29.7826369136857],[-95.3842416785958,29.7825838685114],[-95.3859539281262,29.7825610029427],[-95.387702318282,29.782544517277],[-95.3877193262743,29.7834658007614],[-95.387732895977,29.7843776470286],[-95.3877476082861,29.7848048427705],[-95.3859974131253,29.7848232527908],[-95.3842913667007,29.7848427858604],[-95.3842876306448,29.7847560534918],[-95.3820246300401,29.78477195101],[-95.3807336330809,29.7847799699788],[-95.3807316567989,29.7844225381938],[-95.3807294555863,29.7836391098754],[-95.3807231985742,29.7829298759635]]]},"properties":{"YW_DAY":"YW_TH","SECTION_NAME":"NW"}},{"type":"Feature","geometry":{"type":"Polygon","coordinates":[[[-95.3807316567989,29.7844225381938],[-95.3807336330809,29.7847799699788],[-95.3807364553265,29.7852870003355],[-95.3807546154836,29.7860046168149],[-95.3807617311763,29.7867153256484],[-95.3807662930017,29.7870706461902],[-95.3806784021253,29.7870670714236],[-95.3745618557123,29.7871215528515],[-95.3745669308872,29.7874722474645],[-95.3741753553767,29.7874769073899],[-95.3741525273949,29.7867750432793],[-95.3741473244043,29.7860470201577],[-95.374137243965,29.7853539955202],[-95.3741212971641,29.7847202358989],[-95.3741736230676,29.7846286324327],[-95.3749454975728,29.7846237116974],[-95.3764032347193,29.7846122057928],[-95.3778300007884,29.7845969052812],[-95.3779520744716,29.7845891332128],[-95.3786692219573,29.7845873463177],[-95.3787402327529,29.7845831801317],[-95.3788065597488,29.7845567280062],[-95.3788749866231,29.7845054074834],[-95.378972763685,29.7844512205056],[-95.3792020075957,29.7844430425548],[-95.3792963193138,29.7844333512321],[-95.3807316567989,29.7844225381938]]]},"properties":{"YW_DAY":"YW_TH","SECTION_NAME":"NW"}},{"type":"Feature","geometry":{"type":"Polygon","coordinates":[[[-95.3734426740647,29.7815300750494],[-95.3738011265005,29.7817166574029],[-95.3738875642044,29.7817611755563],[-95.3740228096466,29.7817783158646],[-95.3741561975408,29.7817947044149],[-95.3746471280106,29.7817617028755],[-95.3749536231891,29.7817700654165],[-95.3753892990078,29.7819018185059],[-95.3758926178086,29.7819028256646],[-95.3760827791345,29.7818607864998],[-95.3763337291703,29.7818091272633],[-95.3773741537661,29.7813537775084],[-95.3776814172633,29.7812361731649],[-95.3785852513123,29.7808774738052],[-95.379523680462,29.7804713349584],[-95.3796609597204,29.7803672857083],[-95.3797726028148,29.7802513689193],[-95.3800172914549,29.7799071670456],[-95.3801721454619,29.7797656017776],[-95.3803691181491,29.7796517111496],[-95.3806361214696,29.7795746010705],[-95.3806679976874,29.7798094157663],[-95.3806764972508,29.7800315973886],[-95.3806837156417,29.7802390301556],[-95.3806822750843,29.7804711352326],[-95.3806888115975,29.7805209967977],[-95.3807398344949,29.7805544659933],[-95.3808138613637,29.780575096831],[-95.3807543414509,29.7810655711791],[-95.380723171729,29.7814442729945],[-95.3807125559579,29.7815004358723],[-95.3807093878828,29.7822051568185],[-95.3807231985742,29.7829298759635],[-95.3807294555863,29.7836391098754],[-95.3807316567989,29.7844225381938],[-95.3792963193138,29.7844333512321],[-95.3792020075957,29.7844430425548],[-95.378972763685,29.7844512205056],[-95.3788749866231,29.7845054074834],[-95.3788065597488,29.7845567280062],[-95.3787402327529,29.7845831801317],[-95.3786692219573,29.7845873463177],[-95.3779520744716,29.7845891332128],[-95.3778300007884,29.7845969052812],[-95.3764032347193,29.7846122057928],[-95.3749454975728,29.7846237116974],[-95.3741736230676,29.7846286324327],[-95.3741212971641,29.7847202358989],[-95.3741479065544,29.7845488746112],[-95.3742059260154,29.7843641542778],[-95.3742593236478,29.7840951476363],[-95.3742745935324,29.7837481235106],[-95.3742721535405,29.7827668764904],[-95.3740801298546,29.7823330843253],[-95.3737911366915,29.7818633401727],[-95.3734426740647,29.7815300750494]]]},"properties":{"YW_DAY":"YW_TH","SECTION_NAME":"NW"}},{"type":"Feature","geometry":{"type":"Polygon","coordinates":[[[-95.3741212971641,29.7847202358989],[-95.3740835336047,29.7848495681925],[-95.373107287105,29.7848695623562],[-95.3721153855685,29.7848791404509],[-95.3721154035924,29.7851424747328],[-95.3706056216411,29.7851629930587],[-95.3704634765752,29.7851686677746],[-95.3700725114922,29.7852628452039],[-95.3699384670095,29.7853456390756],[-95.3697224211769,29.7854630231579],[-95.3692926857712,29.7848296394173],[-95.3689767255163,29.7842127544902],[-95.3688054467562,29.783806322745],[-95.3687290148357,29.7835053872853],[-95.3686589196098,29.7831491982458],[-95.3686784489138,29.7829368772154],[-95.3687134890133,29.7825489177991],[-95.3687300198269,29.7822462854818],[-95.3688250863757,29.7816438173039],[-95.3689418779018,29.780992602616],[-95.3690942084014,29.7805456958353],[-95.3692087057158,29.780286301043],[-95.3695644927559,29.7795735039398],[-95.3696674520949,29.7794094675031],[-95.3700703185325,29.7795475547331],[-95.3704171274201,29.7796926211302],[-95.3711053271757,29.7800200892419],[-95.3724361756091,29.7806673572679],[-95.3728600281765,29.7809708802116],[-95.3731218913239,29.7812387454786],[-95.3734426862456,29.7815300816976],[-95.3737911366915,29.7818633401727],[-95.3740801298546,29.7823330843253],[-95.3742721535405,29.7827668764904],[-95.3742745935324,29.7837481235106],[-95.3742593236478,29.7840951476363],[-95.3742059260154,29.7843641542778],[-95.3741479065544,29.7845488746112],[-95.3741212971641,29.7847202358989]]]},"properties":{"YW_DAY":"YW_TH","SECTION_NAME":"NW"}},{"type":"Feature","geometry":{"type":"Polygon","coordinates":[[[-95.3697224211769,29.7854630231579],[-95.3699384670095,29.7853456390756],[-95.3700725114922,29.7852628452039],[-95.3704634765752,29.7851686677746],[-95.3706056216411,29.7851629930587],[-95.3721154035924,29.7851424747328],[-95.3721153855685,29.7848791404509],[-95.373107287105,29.7848695623562],[-95.3740835336047,29.7848495681925],[-95.3741212971641,29.7847202358989],[-95.374137243965,29.7853539955202],[-95.3741473122229,29.7860470135096],[-95.3741525273949,29.7867750432793],[-95.3741753553767,29.7874769073899],[-95.3741749995625,29.7885693346089],[-95.3741781148835,29.789402798869],[-95.3741793920028,29.7895592107848],[-95.3741843623839,29.7897741290796],[-95.3741923521321,29.7901307163306],[-95.374196144106,29.7906326135566],[-95.3727554535915,29.7906429379155],[-95.372115871781,29.7901799010385],[-95.3721307177082,29.789792373718],[-95.3721163075403,29.7889832197386],[-95.3721702896746,29.7885959012729],[-95.3721315955936,29.7882354648907],[-95.3718523460166,29.7879043146843],[-95.3715901296152,29.7876283341886],[-95.3709830989977,29.7869616890135],[-95.3701067720402,29.7860250836958],[-95.3697224211769,29.7854630231579]]]},"properties":{"YW_DAY":"YW_TH","SECTION_NAME":"NW"}},{"type":"Feature","geometry":{"type":"Polygon","coordinates":[[[-95.4143814159178,29.7704824367416],[-95.4149541723411,29.7705079450152],[-95.4153622171153,29.7705267306606],[-95.4163531997011,29.770602920407],[-95.4163584217013,29.7711671503122],[-95.4163431665834,29.7718881720935],[-95.4163468706514,29.7719977204647],[-95.4167378424437,29.7720023086312],[-95.4167419384642,29.7721463623153],[-95.4163551274083,29.7721450167398],[-95.4163685915255,29.7725638030903],[-95.4160068790511,29.772569281091],[-95.416012874252,29.7728731505408],[-95.4157289658805,29.7728796795296],[-95.41570065356,29.7728601200466],[-95.4154453597294,29.772823376949],[-95.4154427805171,29.7735749998365],[-95.4154444131483,29.774061191219],[-95.4143416835724,29.7737573907564],[-95.4143593349958,29.7725713694852],[-95.4143654077321,29.7718872398581],[-95.4143594137245,29.771169220277],[-95.4143814159178,29.7704824367416]]]},"properties":{"YW_DAY":"YW_MO","SECTION_NAME":"NW"}},{"type":"Feature","geometry":{"type":"MultiPolygon","coordinates":[[[[-95.388874135443,29.7554992082194],[-95.388931037884,29.7555262167369],[-95.388938309744,29.756177400683],[-95.3889458344232,29.7568639675797],[-95.3889541695508,29.7575510806298],[-95.3857176521581,29.7576253634248],[-95.3857129291111,29.7569195770468],[-95.3857104518382,29.7562356080099],[-95.3857035930101,29.7555667774766],[-95.388874135443,29.7554992082194]]],[[[-95.3769325920222,29.7577515716516],[-95.3770248998482,29.7577498160169],[-95.3770240391945,29.7578333560947],[-95.3770214280721,29.7580688053343],[-95.3768582257994,29.7580690177177],[-95.3768627976602,29.7578323469258],[-95.3768616315741,29.7577529205516],[-95.3769325920222,29.7577515716516]]],[[[-95.3789168145057,29.7579097305668],[-95.3793785991062,29.7579034871297],[-95.3802789319968,29.7578978084383],[-95.3802876473016,29.7582437228853],[-95.3797734878587,29.7582477339142],[-95.379310864447,29.758252705896],[-95.3789168991051,29.7582531147039],[-95.3789168145057,29.7579097305668]]]]},"properties":{"YW_DAY":"YW_MO","SECTION_NAME":"NW"}},{"type":"Feature","geometry":{"type":"Polygon","coordinates":[[[-95.3889230384007,29.7548060748561],[-95.3889077193259,29.7541213447301],[-95.3888948190461,29.7533954080666],[-95.3897088493622,29.7533868392387],[-95.3913270427265,29.7533588083954],[-95.3913507828904,29.7555186453043],[-95.3921890880557,29.7554924764506],[-95.3922799088151,29.757468633197],[-95.3913745976034,29.7574894103923],[-95.3907300780373,29.7575102632626],[-95.3897622557225,29.7575373036155],[-95.3895942795435,29.7575430110981],[-95.3889541695508,29.7575510806298],[-95.3889458344232,29.7568639675797],[-95.388938309744,29.756177400683],[-95.3889310257052,29.75552621009],[-95.3889230384007,29.7548060748561]]]},"properties":{"YW_DAY":"YW_MO","SECTION_NAME":"NW"}},{"type":"Feature","geometry":{"type":"MultiPolygon","coordinates":[[[[-95.4062973689931,29.7789383415055],[-95.4062855380376,29.7785548760063],[-95.4062936178907,29.777997694372],[-95.4063011193689,29.7777063899482],[-95.4069882643883,29.7777929045237],[-95.4073874925926,29.7778432181869],[-95.4074092214975,29.7785266079947],[-95.4086018201578,29.778511261916],[-95.4086046357535,29.7788386951521],[-95.4082112904215,29.7788718360836],[-95.40786400555,29.7789462331385],[-95.4078179544111,29.7789062903798],[-95.4078169898162,29.7788650494033],[-95.40734423338,29.7788734343217],[-95.4073421472866,29.7787840789564],[-95.406995240088,29.7787903218664],[-95.4067464818325,29.778897987153],[-95.4067474020639,29.778935952134],[-95.4062973689931,29.7789383415055]]],[[[-95.4063106050341,29.7803732085925],[-95.4063084161967,29.7798572847626],[-95.4066616379341,29.7798429382178],[-95.4066710069358,29.7803653721709],[-95.4063676545891,29.7803769127931],[-95.4063106050341,29.7803732085925]]]]},"properties":{"YW_DAY":"YW_TH","SECTION_NAME":"NW"}},{"type":"Feature","geometry":{"type":"Polygon","coordinates":[[[-95.4258988205048,29.7892764040332],[-95.4254059800649,29.7892737465301],[-95.4231621350567,29.7892842497903],[-95.4226616450546,29.7893068967832],[-95.4218022720651,29.7894890310369],[-95.4211268926595,29.7897116866841],[-95.4210324976967,29.7896167460331],[-95.420722078488,29.7894392350896],[-95.4206084170837,29.7893003794565],[-95.4203710328912,29.7888995723514],[-95.4201872179083,29.7888668020348],[-95.4198272255729,29.7887982764919],[-95.4193816343778,29.7886354790153],[-95.4194611765205,29.7885699820577],[-95.4195583239776,29.7884426194142],[-95.4196163281747,29.7883536865769],[-95.4196594356009,29.788215481944],[-95.419639527581,29.7881508161499],[-95.4195803865586,29.788044410081],[-95.4194780504071,29.7879831532032],[-95.4194069384681,29.7879480252674],[-95.4191320222166,29.7879058783597],[-95.4188370882007,29.7878982223844],[-95.4186746842174,29.7878769611775],[-95.418590275575,29.7877804431765],[-95.4185476269478,29.7877134852138],[-95.4185435834538,29.7876729231994],[-95.418792133268,29.7872918599645],[-95.4191109826829,29.7868586428572],[-95.4198393015889,29.7866175191044],[-95.4199021873719,29.7865396214128],[-95.4199187513447,29.7863491113985],[-95.4198107371647,29.7856944132586],[-95.4206640545604,29.7860061317423],[-95.4208037360356,29.7861770530226],[-95.4210399991228,29.7862717240054],[-95.4213264954579,29.7860870024725],[-95.4214918045126,29.786234433455],[-95.4216806554441,29.7862483340359],[-95.4218732104724,29.7861566621],[-95.4220977954947,29.7862892104459],[-95.4222675625647,29.7863715792653],[-95.422426563883,29.7862644484764],[-95.4225913220099,29.7862207557616],[-95.42284728958,29.7861826627419],[-95.4230184586464,29.7858733624441],[-95.4231516374809,29.7857370703749],[-95.4236181995632,29.7857134489978],[-95.4241214692268,29.7856601812407],[-95.4242780436397,29.7856392973874],[-95.4250960905547,29.7855549470056],[-95.4253949815193,29.7855254201178],[-95.4258284478308,29.7854692986314],[-95.4258655927795,29.7875345739092],[-95.4264988266607,29.7875241351298],[-95.4280328317837,29.7875104463993],[-95.4280537084148,29.7883173351424],[-95.4274181304484,29.7883402647817],[-95.4274212892422,29.7883964637458],[-95.4265330017088,29.7884046286866],[-95.4265335861853,29.7883464263224],[-95.4258837128231,29.7883471695769],[-95.4259028402262,29.789140153944],[-95.4258988205048,29.7892764040332]]]},"properties":{"YW_DAY":"YW_TH","SECTION_NAME":"NW"}},{"type":"Feature","geometry":{"type":"MultiPolygon","coordinates":[[[[-95.4019053868209,29.7694326987347],[-95.4008936051579,29.7694353435499],[-95.4008858627385,29.7691893385499],[-95.4001839800237,29.7691969085005],[-95.4000694772216,29.7691644799963],[-95.4000390978558,29.7690901199114],[-95.3992455326463,29.7690939654607],[-95.3992109723939,29.7671704675116],[-95.399928854349,29.7671345155033],[-95.3999243183892,29.7670005556977],[-95.4008249583923,29.7669806537514],[-95.4008096581073,29.7663550062585],[-95.4008292111227,29.7663541557773],[-95.4017097950235,29.7663205684731],[-95.4018243252356,29.7663340171367],[-95.4018374055933,29.7669319383007],[-95.4018549262564,29.7675946611805],[-95.4018549320046,29.7676882072908],[-95.401854922801,29.768199336528],[-95.4018624411549,29.7683444391939],[-95.4018887626115,29.7688044077614],[-95.4018908648416,29.7690123920733],[-95.4019053868209,29.7694326987347]]],[[[-95.3986618198377,29.7665342493224],[-95.398097761583,29.7665537422379],[-95.3981012628638,29.7663034037592],[-95.3986702351883,29.7662931110326],[-95.3986618198377,29.7665342493224]]],[[[-95.3971173529134,29.7685593293328],[-95.3971222023344,29.7680260177426],[-95.3981353672618,29.7680160651333],[-95.3981353345983,29.7685158748658],[-95.3981755847711,29.7686636042758],[-95.3981546593929,29.7696641621211],[-95.3972240525658,29.7695312615594],[-95.3971851562551,29.7690249540956],[-95.3971173529134,29.7685593293328]]]]},"properties":{"YW_DAY":"YW_MO","SECTION_NAME":"NW"}},{"type":"Feature","geometry":{"type":"Polygon","coordinates":[[[-95.4061739520828,29.7721369574195],[-95.4061748628788,29.7719832227151],[-95.4065985681657,29.7719764331522],[-95.4065852285755,29.7716297006334],[-95.4070631163847,29.7716115411857],[-95.4070558843246,29.7715830445492],[-95.4070457236033,29.7712504444206],[-95.4061987391719,29.7712637889752],[-95.406114380427,29.7713277833678],[-95.4045735890093,29.7711769770437],[-95.4045988148792,29.7716831570979],[-95.4049313551152,29.7717240495712],[-95.4049158834757,29.7718913243886],[-95.4052407286443,29.7719312784869],[-95.4052040533171,29.7721822446839],[-95.4040522159716,29.7720540586978],[-95.4022637892012,29.7718579635967],[-95.4022438749247,29.7718800558414],[-95.4021649407597,29.7718691403239],[-95.401533440191,29.7718047755255],[-95.401522602991,29.7708490663293],[-95.4022275295018,29.7709214811254],[-95.4022286648069,29.7701104759303],[-95.4032588773311,29.7702198666704],[-95.4040009292924,29.7702960190507],[-95.4048902740286,29.7703692144183],[-95.4061299854974,29.7705061456915],[-95.407249902497,29.7704925278946],[-95.4083475653154,29.7704787745916],[-95.4094689995075,29.7704748680276],[-95.4094918303887,29.7712016092129],[-95.4083628270864,29.7712340141249],[-95.4083778966526,29.7719568728337],[-95.4083932032808,29.7725291154475],[-95.4061739520828,29.7721369574195]]]},"properties":{"YW_DAY":"YW_MO","SECTION_NAME":"NW"}},{"type":"Feature","geometry":{"type":"Polygon","coordinates":[[[-95.4061808309131,29.7724661297711],[-95.4062036306438,29.7729676360022],[-95.4062036578782,29.7734465753054],[-95.4062189437296,29.7741673927836],[-95.4041581722837,29.7741933797813],[-95.4022677592175,29.7742408478669],[-95.4022562350359,29.7735039663403],[-95.4022514964888,29.7730231010736],[-95.4041190116944,29.772984313143],[-95.4040505387689,29.7722287370751],[-95.4041359312185,29.7722354414654],[-95.4061808309131,29.7724661297711]]]},"properties":{"YW_DAY":"YW_MO","SECTION_NAME":"NW"}},{"type":"Feature","geometry":{"type":"Polygon","coordinates":[[[-95.4048184367481,29.7675981553651],[-95.4049676354314,29.7676042413928],[-95.4060051138303,29.7675928561392],[-95.4060891073602,29.7675832469884],[-95.4072030409113,29.7675643203104],[-95.4083091878983,29.7675469900253],[-95.4094231339628,29.7675337211515],[-95.4094309105921,29.7682700601305],[-95.4094537237787,29.7689775901195],[-95.4094612760677,29.7697082017508],[-95.4094689995075,29.7704748680276],[-95.4083475653154,29.7704787745916],[-95.407249902497,29.7704925278946],[-95.4061299854974,29.7705061456915],[-95.4048902740286,29.7703692144183],[-95.4048683752282,29.7702631425983],[-95.4048608659629,29.7694944336056],[-95.4048530668498,29.7690652443908],[-95.4048455394048,29.7683348650327],[-95.4048302940311,29.7682757508832],[-95.4048184367481,29.7675981553651]]]},"properties":{"YW_DAY":"YW_MO","SECTION_NAME":"NW"}},{"type":"Feature","geometry":{"type":"Polygon","coordinates":[[[-95.4062189437296,29.7741673927836],[-95.4062264718291,29.7748904672227],[-95.4062341948446,29.7751631242067],[-95.4062492715943,29.7757219174637],[-95.4062645698048,29.7763667268273],[-95.4062691135634,29.7768188624189],[-95.4043877240132,29.7765144809603],[-95.4036593220662,29.7764458094838],[-95.4028810065491,29.7763458388274],[-95.4018603558943,29.7762039319583],[-95.4010394283157,29.7761371542666],[-95.4010506186228,29.7760166948774],[-95.401031002395,29.7752336590508],[-95.4017634365684,29.7752318350571],[-95.4022667814835,29.7752260904088],[-95.4022667436794,29.7749474993715],[-95.4022677592175,29.7742408478669],[-95.4041581722837,29.7741933797813],[-95.4062189437296,29.7741673927836]]]},"properties":{"YW_DAY":"YW_MO","SECTION_NAME":"NW"}},{"type":"Feature","geometry":{"type":"Polygon","coordinates":[[[-95.4095299277808,29.7730669354699],[-95.4096978773628,29.7730974847313],[-95.4104061737654,29.7732436983938],[-95.4106516269954,29.7732729563824],[-95.4115976558111,29.7734694267667],[-95.4125588993535,29.7736487609106],[-95.4125718314678,29.7740740282207],[-95.4125850440201,29.7748130650471],[-95.4126047960942,29.775535037907],[-95.4126123368662,29.7762636007605],[-95.4126200935482,29.7770187406069],[-95.4116662894996,29.7770323152592],[-95.4107125324917,29.7770514781295],[-95.4096063751459,29.7770647371414],[-95.4095833368017,29.7764543770476],[-95.4095530019291,29.7763133624972],[-95.4095493302521,29.7755704781569],[-95.4095541369322,29.7748536926531],[-95.4095604834314,29.7741256416205],[-95.409529921715,29.7734064152587],[-95.4095299277808,29.7730669354699]]]},"properties":{"YW_DAY":"YW_MO","SECTION_NAME":"NW"}},{"type":"Feature","geometry":{"type":"Polygon","coordinates":[[[-95.4163881871481,29.7698659372803],[-95.4163829224036,29.7696294783214],[-95.4163584470682,29.7689431802146],[-95.4163431654663,29.7683537740198],[-95.4163520280682,29.7681910405638],[-95.4163265355131,29.767674768571],[-95.4163326701865,29.7674326315184],[-95.4176547567888,29.7674238430643],[-95.4184564894486,29.7673963908797],[-95.419280430024,29.7673924998391],[-95.4201654911084,29.767384980375],[-95.4210122317141,29.7673831293075],[-95.4217752441955,29.76736968754],[-95.4218249317732,29.7681363307],[-95.4217638259795,29.7682926207765],[-95.4217675152096,29.76888039451],[-95.4218028398791,29.7695755979765],[-95.4218775969684,29.7710468237823],[-95.4211571254393,29.7709670271082],[-95.420203592469,29.7709040664815],[-95.4193262602337,29.7708333196547],[-95.4184868233511,29.7707706042736],[-95.4174417857339,29.7706578703355],[-95.4163531997011,29.770602920407],[-95.4163881871481,29.7698659372803]]]},"properties":{"YW_DAY":"YW_MO","SECTION_NAME":"NW"}},{"type":"Feature","geometry":{"type":"Polygon","coordinates":[[[-95.4133881830315,29.767467918917],[-95.4133904264529,29.7679371948891],[-95.4133906922337,29.7681963666487],[-95.4133906016735,29.7689509071706],[-95.4134134123311,29.7690633907971],[-95.413413424658,29.7696680644797],[-95.4134209748094,29.7704329116735],[-95.4124880539136,29.7704322161429],[-95.4115317335113,29.770442278129],[-95.410590460192,29.77046713908],[-95.4105829375201,29.7697081997751],[-95.4105829597929,29.7689833272884],[-95.4105829510722,29.7682547782125],[-95.4114908613829,29.7682376474962],[-95.4114755502715,29.7675013392459],[-95.4124443535988,29.7674899264201],[-95.4133881830315,29.767467918917]]]},"properties":{"YW_DAY":"YW_MO","SECTION_NAME":"NW"}},{"type":"Feature","geometry":{"type":"MultiPolygon","coordinates":[[[[-95.411584449482,29.7722689585021],[-95.4115898811825,29.7726340548642],[-95.41254361486,29.7726340504434],[-95.4125511385505,29.7732615325727],[-95.4106363359218,29.7728953414651],[-95.4095223871914,29.7726949709448],[-95.4094995684017,29.771943622256],[-95.4106210445272,29.7719283567802],[-95.4106270493053,29.7722826855572],[-95.411584449482,29.7722689585021]]],[[[-95.4115976558111,29.7734694267667],[-95.4106516269954,29.7732729563824],[-95.4125588993535,29.7736487609106],[-95.4115976558111,29.7734694267667]]]]},"properties":{"YW_DAY":"YW_MO","SECTION_NAME":"NW"}},{"type":"Feature","geometry":{"type":"Polygon","coordinates":[[[-95.4134668190729,29.7735114158679],[-95.4125511385505,29.7732615325727],[-95.41254361486,29.7726340504434],[-95.4125283257146,29.7718938833917],[-95.4125055386773,29.7711728665444],[-95.4133675771196,29.7711614719506],[-95.4134515087049,29.771174928298],[-95.4143594137245,29.771169220277],[-95.4143654077321,29.7718872398581],[-95.4143593349958,29.7725713694852],[-95.4143416835724,29.7737573907564],[-95.4134668190729,29.7735114158679]]]},"properties":{"YW_DAY":"YW_MO","SECTION_NAME":"NW"}},{"type":"Feature","geometry":{"type":"Polygon","coordinates":[[[-95.4233087715701,29.77394995538],[-95.4233240620731,29.7747090508902],[-95.4233316261832,29.7753919784241],[-95.4233469198093,29.7760901836492],[-95.4233356942451,29.7766535734405],[-95.421897307702,29.7760920050693],[-95.4219048767507,29.7754111557908],[-95.4218973113197,29.7747300422174],[-95.4218895603551,29.773969100355],[-95.4233087715701,29.77394995538]]]},"properties":{"YW_DAY":"YW_MO","SECTION_NAME":"NW"}},{"type":"Feature","geometry":{"type":"Polygon","coordinates":[[[-95.4239113710613,29.7767596430026],[-95.4236758762145,29.7767421787545],[-95.4236147921409,29.7767374950333],[-95.4234460320305,29.7766962382613],[-95.4233356942451,29.7766535734405],[-95.4233469198093,29.7760901836492],[-95.4233316261832,29.7753919784241],[-95.4233240620731,29.7747090508902],[-95.4233087715701,29.77394995538],[-95.423297558387,29.7731986645159],[-95.4232778588038,29.7724775654152],[-95.4232440760974,29.772410764854],[-95.423235587828,29.7717949900355],[-95.4232329383716,29.7716027557766],[-95.4234605218165,29.7714774038028],[-95.4236365323607,29.7718023859884],[-95.4241936627129,29.7724127468222],[-95.4248804700067,29.7732327867054],[-95.4248903380714,29.7744513096718],[-95.426170348632,29.7759384790262],[-95.4261755172496,29.7763022129293],[-95.4267341921122,29.776299960356],[-95.426734834207,29.7766813457099],[-95.426422949041,29.7766734828598],[-95.4264196270063,29.7768302241005],[-95.426215056097,29.7768521184718],[-95.4260703597575,29.7768912458287],[-95.4249864170594,29.7769171209637],[-95.4249765226443,29.7766751952738],[-95.4249107953668,29.7766756913476],[-95.4248879703821,29.7767137835509],[-95.424842126645,29.7767423317828],[-95.4239113710613,29.7767596430026]]]},"properties":{"YW_DAY":"YW_MO","SECTION_NAME":"NW"}},{"type":"Feature","geometry":{"type":"Polygon","coordinates":[[[-95.4062691135634,29.7768188624189],[-95.4062645698048,29.7763667268273],[-95.4062492715943,29.7757219174637],[-95.4062341948446,29.7751631242067],[-95.4062264718291,29.7748904672227],[-95.4062189437296,29.7741673927836],[-95.4062036578782,29.7734465753054],[-95.4073023082025,29.7734349584801],[-95.4084084702035,29.7734235330691],[-95.4083949786479,29.7728843330664],[-95.4095299277808,29.7730669354699],[-95.409529921715,29.7734064152587],[-95.4095604834314,29.7741256416205],[-95.4095541247498,29.7748536860082],[-95.4095493302521,29.7755704781569],[-95.4084539351717,29.7755976555666],[-95.4084707714858,29.7763262654479],[-95.4084696324993,29.7770742834148],[-95.4079842190815,29.777056946768],[-95.4073674672204,29.7770075168603],[-95.4062691135634,29.7768188624189]]]},"properties":{"YW_DAY":"YW_MO","SECTION_NAME":"NW"}},{"type":"Feature","geometry":{"type":"MultiPolygon","coordinates":[[[[-95.3981245479685,29.7573375747174],[-95.3971807389738,29.757362100576],[-95.3963769735469,29.757386720545],[-95.3955986812036,29.7573999297907],[-95.3948177718444,29.757420350391],[-95.3947103240315,29.757423008923],[-95.3940194851152,29.7574401011098],[-95.3930353454838,29.7574610608199],[-95.3922799088151,29.757468633197],[-95.3921890880557,29.7554924764506],[-95.3923797169326,29.7554935905566],[-95.3929150113456,29.7554571118306],[-95.3929812239916,29.7554449210941],[-95.3929581533529,29.7547306913165],[-95.3947290678536,29.7547068131582],[-95.3959420559655,29.7546839972607],[-95.3980706922762,29.7546420156121],[-95.3980532997798,29.7539586929187],[-95.3980335105313,29.7532168339469],[-95.4002527088246,29.7532020085061],[-95.4019100518347,29.7531679928887],[-95.402290619558,29.753160010018],[-95.4022820442423,29.7533067527554],[-95.4023050744821,29.7545598945502],[-95.4023126297988,29.7552541816696],[-95.4023507328639,29.7572379077831],[-95.402350709034,29.757766156096],[-95.4023957237712,29.7591450555533],[-95.4020516897545,29.7594055895774],[-95.4016438956323,29.759812553124],[-95.4012685637274,29.7605114343602],[-95.4009255748493,29.7607783438701],[-95.4004658473192,29.7609600261351],[-95.4001491537652,29.7609664439464],[-95.3995624385032,29.7608685908078],[-95.3990839152736,29.760855732228],[-95.3981937715128,29.7611153923265],[-95.3981539408132,29.7595604904268],[-95.3981245479685,29.7573375747174]]],[[[-95.3982436618465,29.7524792732528],[-95.3985691513664,29.7524752553267],[-95.3985736836088,29.7526583647095],[-95.3981454453113,29.752666007802],[-95.3981617954204,29.7526222530154],[-95.3981842862726,29.7525795776993],[-95.3982134261678,29.7525242876945],[-95.3982436618465,29.7524792732528]]]]},"properties":{"YW_DAY":"YW_MO","SECTION_NAME":"NW"}},{"type":"Feature","geometry":{"type":"MultiPolygon","coordinates":[[[[-95.378323049907,29.7690623378977],[-95.3783257751675,29.768662981678],[-95.3772346950046,29.768554132051],[-95.3760046778468,29.7684269986854],[-95.3758156565104,29.768409236843],[-95.3757166330969,29.7683825560183],[-95.3756501915236,29.7683532206037],[-95.3756049633519,29.7683448997098],[-95.375600161109,29.76837513812],[-95.3755963867139,29.7685314422689],[-95.3742108341116,29.768554577338],[-95.3739696053464,29.7685549691544],[-95.3739685769142,29.7684029860604],[-95.3739512167658,29.7681545528496],[-95.374241747758,29.7681833286837],[-95.3742440088627,29.767480333214],[-95.3746713717633,29.7675202717588],[-95.3754021762669,29.7676090565283],[-95.3754093483509,29.767187513556],[-95.3750843522002,29.767189667384],[-95.3750753858459,29.7666006562001],[-95.3746636530398,29.7666048324214],[-95.3739207807883,29.766613966395],[-95.3739061035366,29.766139665224],[-95.3723274150618,29.7661671706118],[-95.3723214333581,29.7654471219923],[-95.3738748331659,29.7654270990609],[-95.373896790622,29.7654371089223],[-95.3739354592217,29.7654535736968],[-95.3746444874973,29.7654530229763],[-95.375288068442,29.7654576035753],[-95.3754341944246,29.7654719972595],[-95.3755932782314,29.7654902228327],[-95.3755959224988,29.7662485056968],[-95.3771356437588,29.7662329346424],[-95.3782724060722,29.7662272395157],[-95.379409168721,29.7662290710922],[-95.3805179847247,29.7662119937639],[-95.3812439510935,29.7662124747943],[-95.3815453159088,29.7662005267519],[-95.3823373918346,29.7662027472643],[-95.3823418340679,29.7665647795785],[-95.38191150624,29.7665685509666],[-95.3821481294167,29.7667097936328],[-95.3822854736321,29.7668165837699],[-95.3823694533629,29.7668870921791],[-95.3824609870658,29.7669806436044],[-95.3825449175922,29.7670931559296],[-95.3826058471954,29.7672017435555],[-95.3826745348757,29.7673486852444],[-95.3827279323639,29.7675298700382],[-95.3827432024583,29.7676405278986],[-95.3827407542804,29.7677616405152],[-95.3834532851928,29.7677622114845],[-95.3834662817021,29.7683300536454],[-95.3838370247882,29.7683432477594],[-95.3845322440592,29.768367985664],[-95.3847537778428,29.7683762533693],[-95.3854878753807,29.7684526500559],[-95.3862755303678,29.7685427189232],[-95.3862914432636,29.7692957853645],[-95.385509005631,29.7692156928798],[-95.3850167261342,29.7691569389405],[-95.3846886406107,29.7691343938509],[-95.3838541700421,29.7691207553224],[-95.3827524540888,29.7690974131107],[-95.382178338704,29.7690682061321],[-95.3819193018184,29.7690424128876],[-95.3816409590622,29.7690103388784],[-95.3805458916276,29.7688975444527],[-95.3794319993592,29.7687868392967],[-95.3794304086585,29.7691642354106],[-95.378323049907,29.7690623378977]]],[[[-95.3715962672082,29.767608128264],[-95.3715993377876,29.7672718480066],[-95.3716035732993,29.7671695319529],[-95.3718108779637,29.7672095968976],[-95.3718153826409,29.7670935992248],[-95.3718151647205,29.766912230007],[-95.3720800252904,29.7669104220825],[-95.3723311336621,29.7669169637902],[-95.3723263856443,29.7672792413854],[-95.3723274981879,29.7676118617001],[-95.3721853066576,29.7676072297291],[-95.3715962672082,29.767608128264]]],[[[-95.3723369330112,29.7682861967724],[-95.3723337727436,29.7681453507156],[-95.3728202752942,29.7681963478437],[-95.3728294475007,29.7683326537171],[-95.3723369330112,29.7682861967724]]]]},"properties":{"YW_DAY":"YW_MO","SECTION_NAME":"NW"}},{"type":"Feature","geometry":{"type":"Polygon","coordinates":[[[-95.3650847786882,29.7833470389323],[-95.3655618452376,29.7831815429203],[-95.3659202247556,29.783049118637],[-95.366334049177,29.7829037955706],[-95.3663806775124,29.7828655746119],[-95.3663528514548,29.7828053600838],[-95.3671772595059,29.7828075512267],[-95.3683159986734,29.7828068400244],[-95.3683268045668,29.7829317451934],[-95.3684153918283,29.7834138313792],[-95.3685251481054,29.7837672236511],[-95.3686222843271,29.7840834010592],[-95.3689920470231,29.7848209760202],[-95.3694974181567,29.7855805930388],[-95.3700041130454,29.7863037527095],[-95.3701670224237,29.7866308818396],[-95.3704965542604,29.7873285187849],[-95.3712768849887,29.7889890169692],[-95.3714375494744,29.7893292142745],[-95.371459392354,29.7894300675055],[-95.3714677316961,29.7896476020035],[-95.370498135824,29.7889189604641],[-95.3700020920436,29.7885392506686],[-95.3694681692442,29.7881196714418],[-95.3688808939797,29.7876807032735],[-95.3683767384976,29.7872975682175],[-95.3682244015706,29.7871907521195],[-95.368056661498,29.7870536322757],[-95.3676065060735,29.7867216271425],[-95.3669840175527,29.7862390784127],[-95.3662516816194,29.7856727323504],[-95.366128916026,29.7855253401495],[-95.3659571074382,29.7851598178617],[-95.3659375650208,29.7851182647515],[-95.3658365775341,29.7849325535125],[-95.3653831646691,29.7839515647433],[-95.3650847786882,29.7833470389323]]]},"properties":{"YW_DAY":"YW_FR","SECTION_NAME":"NE"}},{"type":"Feature","geometry":{"type":"Polygon","coordinates":[[[-95.3680611143568,29.7816450285921],[-95.3671772595059,29.7828075512267],[-95.3663528514548,29.7828053600838],[-95.3663806775124,29.7828655746119],[-95.366334049177,29.7829037955706],[-95.3659202247556,29.783049118637],[-95.3655618452376,29.7831815429203],[-95.3650847786882,29.7833470389323],[-95.3646989517499,29.7825303970913],[-95.3644326457162,29.781962910077],[-95.3642877462498,29.7816596403565],[-95.3638608151345,29.7807757376908],[-95.3646920749181,29.7804713443437],[-95.3651727884996,29.7802995227969],[-95.3659127847281,29.7800268568482],[-95.3665537305589,29.7797922965102],[-95.3673057217488,29.7795161868344],[-95.3673776373033,29.7795634380198],[-95.3674417034967,29.7796661444892],[-95.3674834293191,29.7800413106115],[-95.367677868993,29.7804331554424],[-95.3679709349279,29.7810150391066],[-95.3679775530388,29.7810993961683],[-95.3680611143568,29.7816450285921]]]},"properties":{"YW_DAY":"YW_FR","SECTION_NAME":"NE"}},{"type":"Feature","geometry":{"type":"Polygon","coordinates":[[[-95.3616174205655,29.7761052366688],[-95.362433862912,29.7758115925633],[-95.3628609681283,29.7756532563495],[-95.3634866333601,29.7754264373536],[-95.3645393843682,29.7750506242192],[-95.3649089543106,29.7749128478346],[-95.3650077572822,29.7748762582902],[-95.3652802228703,29.7754647453613],[-95.364591614965,29.7757163881838],[-95.3646630492933,29.7760214052323],[-95.3651738342365,29.7758372217593],[-95.3652988118465,29.776142147056],[-95.3648102513567,29.7763211622307],[-95.3653262945404,29.7773769063826],[-95.36536681519,29.7774779581256],[-95.3667246495239,29.7770387109349],[-95.366442445555,29.7784141732825],[-95.366629503878,29.7783845589849],[-95.366713882777,29.7783846972925],[-95.3668778237956,29.7786564543349],[-95.3670639138809,29.7788851154539],[-95.3671969573204,29.7791867872695],[-95.367305733929,29.7795161934832],[-95.3665537305589,29.7797922965102],[-95.3659127847281,29.7800268568482],[-95.3651727884996,29.7802995227969],[-95.3646920749181,29.7804713443437],[-95.3638608273146,29.7807757443399],[-95.3635781371437,29.780192721661],[-95.3632883357525,29.7796015302069],[-95.3630211420033,29.7790254184375],[-95.3627389182003,29.7784551778778],[-95.3624641840683,29.7778544384293],[-95.3621819551355,29.7772725662715],[-95.3619074380963,29.7766928109184],[-95.3616174205655,29.7761052366688]]]},"properties":{"YW_DAY":"YW_FR","SECTION_NAME":"NE"}},{"type":"Feature","geometry":{"type":"Polygon","coordinates":[[[-95.3662652813249,29.7872731175978],[-95.3665229876258,29.7870068596993],[-95.3663276322978,29.7868890650569],[-95.3666082277895,29.7866279453524],[-95.3659574377147,29.786151881869],[-95.365752848275,29.7863539934787],[-95.3656386138366,29.7854983679013],[-95.3659571074382,29.7851598178617],[-95.366128916026,29.7855253401495],[-95.3662516816194,29.7856727323504],[-95.3669840175527,29.7862390784127],[-95.3676065060735,29.7867216271425],[-95.368056661498,29.7870536322757],[-95.3682244015706,29.7871907521195],[-95.3683767384976,29.7872975682175],[-95.368006764128,29.7881636251381],[-95.3679837366079,29.788213524815],[-95.3679741940036,29.7898106396864],[-95.3672672529236,29.7898177632686],[-95.3651557341465,29.7898378439114],[-95.3651295087685,29.7884856707429],[-95.3655001085187,29.7880396749102],[-95.3656393636128,29.7879110261579],[-95.3656804159831,29.7877718911521],[-95.3656626374997,29.7874667061055],[-95.3659229266579,29.787663636533],[-95.3662652813249,29.7872731175978]]]},"properties":{"YW_DAY":"YW_FR","SECTION_NAME":"NE"}},{"type":"Feature","geometry":{"type":"MultiPolygon","coordinates":[[[[-95.430795528974,29.7874956996094],[-95.4307783239051,29.7868905233812],[-95.4307557289768,29.7860286094058],[-95.4307580639964,29.7859650251549],[-95.4306267265154,29.7859085567395],[-95.4306301091024,29.7847064022572],[-95.43113306799,29.7847091435842],[-95.4311272997334,29.7844147527597],[-95.4311380321789,29.7843670051465],[-95.4311905416355,29.7843404339497],[-95.4325100002129,29.7843409118582],[-95.4363915445557,29.7843158579874],[-95.4364753966936,29.7846164186689],[-95.4365602596052,29.7849481843705],[-95.4366753489617,29.7851385988385],[-95.4371561313546,29.7854532251203],[-95.437593405548,29.785775706076],[-95.437666226207,29.7856901139791],[-95.4381034662523,29.7852386627688],[-95.4386733716028,29.785647875003],[-95.438148950683,29.7861854612742],[-95.4380144659272,29.7860867874887],[-95.438034898558,29.7873854356955],[-95.4374239588616,29.7873916255428],[-95.4374273561143,29.7874410958559],[-95.437336576649,29.7874384825462],[-95.430795528974,29.7874956996094]]],[[[-95.438781125893,29.7866586695398],[-95.4388525728818,29.7865512694762],[-95.4393007869402,29.7860983766228],[-95.4397291823449,29.7864419682553],[-95.4393186798971,29.7868551803938],[-95.4392370848756,29.7869481468164],[-95.438781125893,29.7866586695398]]]]},"properties":{"YW_DAY":"YW_TH","SECTION_NAME":"NW"}},{"type":"Feature","geometry":{"type":"Polygon","coordinates":[[[-95.3723826186978,29.7715240010303],[-95.3735713400907,29.7715090333649],[-95.3735574463401,29.7707838416824],[-95.3747079713106,29.7707691393919],[-95.374698111085,29.7703970505256],[-95.3749803773947,29.7703924398603],[-95.3749832820166,29.7706674270566],[-95.3749812074361,29.7707651022206],[-95.3758462287571,29.7707571437643],[-95.3758615167271,29.7714913684117],[-95.3758667162834,29.7721936068481],[-95.3758766605449,29.7722989609791],[-95.3758768231601,29.772975406678],[-95.3758868116608,29.773705622334],[-95.3747551475792,29.7737231169319],[-95.3736108218539,29.77373067219],[-95.3723976413291,29.7737327269783],[-95.3723825895386,29.7729925532658],[-95.3723901036837,29.7723058059438],[-95.3723891800039,29.7722165445938],[-95.3723826186978,29.7715240010303]]]},"properties":{"YW_DAY":"YW_MO","SECTION_NAME":"NW"}},{"type":"Feature","geometry":{"type":"Polygon","coordinates":[[[-95.3950139808305,29.7750947420542],[-95.3950266216005,29.776172127402],[-95.3949665702491,29.7761730078936],[-95.3945412960601,29.7761861910121],[-95.3940471351018,29.7762015090346],[-95.3940640159572,29.7761558058916],[-95.3940581475215,29.7755895468136],[-95.3941024655354,29.7754952869096],[-95.3942959678222,29.7751621268903],[-95.3944720376451,29.7751568977063],[-95.3945249632236,29.7750944694526],[-95.3950139808305,29.7750947420542]]]},"properties":{"YW_DAY":"YW_MO","SECTION_NAME":"NW"}},{"type":"Feature","geometry":{"type":"Polygon","coordinates":[[[-95.4035804527119,29.7589837910986],[-95.4033717024307,29.7589532665498],[-95.403048900937,29.758971024263],[-95.4027779850901,29.7590085567887],[-95.4023957237712,29.7591450555533],[-95.402350709034,29.757766156096],[-95.4023507328639,29.7572379077831],[-95.4023126297988,29.7552541816696],[-95.4023050744821,29.7545598945502],[-95.4047768625939,29.7545179031379],[-95.4047821233726,29.7547566262568],[-95.406024983456,29.754740392481],[-95.406039955378,29.7551419529838],[-95.4064171843997,29.755132113889],[-95.4083856545721,29.7550634373579],[-95.4083782047019,29.7538921759874],[-95.4107242901544,29.7538557856271],[-95.4107263046938,29.7540004635173],[-95.4107353818186,29.7545619173119],[-95.4106133122557,29.754804024979],[-95.4103387779609,29.7550520485352],[-95.4093088318319,29.7554983219746],[-95.4083856620221,29.7555174919761],[-95.4084096700824,29.756413496832],[-95.4084237692141,29.7571425663482],[-95.4064477953609,29.7571824813094],[-95.4053357980957,29.7571926154515],[-95.404143711995,29.7572034687812],[-95.4041642527209,29.7579587467551],[-95.4045985400888,29.7579585342398],[-95.4046320654614,29.7592684919357],[-95.404484597401,29.7592154122904],[-95.4041960718139,29.7591286782366],[-95.4035804527119,29.7589837910986]]]},"properties":{"YW_DAY":"YW_MO","SECTION_NAME":"NW"}},{"type":"Feature","geometry":{"type":"Polygon","coordinates":[[[-95.4133906289082,29.763755197356],[-95.4134157493254,29.7650277197631],[-95.4134209322902,29.7652918137315],[-95.4133583194969,29.7653404618027],[-95.4133541350326,29.766015080639],[-95.4133675845474,29.7667518072792],[-95.4133881830315,29.767467918917],[-95.4124443535988,29.7674899264201],[-95.4114755502715,29.7675013392459],[-95.4105598931586,29.7675145874752],[-95.4104837018446,29.766799487919],[-95.4100670356453,29.7660585889803],[-95.409953651598,29.7659368350535],[-95.4096284386609,29.765395415247],[-95.4094867185232,29.7653369387597],[-95.4104989707093,29.7653307513096],[-95.4114374415053,29.7653231842711],[-95.4114374695536,29.7646040322338],[-95.4114221656849,29.7638736312727],[-95.4123834533553,29.763850575563],[-95.4133083614976,29.7638306986716],[-95.4133906289082,29.763755197356]]]},"properties":{"YW_DAY":"YW_MO","SECTION_NAME":"NW"}},{"type":"Feature","geometry":{"type":"MultiPolygon","coordinates":[[[[-95.4107540634654,29.7792106891929],[-95.4117016987332,29.7791982831285],[-95.4116967823695,29.7784588020489],[-95.4126472871076,29.7784471532337],[-95.4126429132913,29.7780184751728],[-95.4132171773163,29.7779995464712],[-95.4132195755403,29.7784452786305],[-95.4136117921875,29.7784439808522],[-95.4136194708224,29.7791723641988],[-95.4136297813586,29.7799025590322],[-95.4136480351553,29.7806384805567],[-95.4136663617584,29.7812550454618],[-95.4136943946944,29.7813207719927],[-95.4135682773438,29.7813066331072],[-95.4135705846529,29.7814473810839],[-95.4136714156487,29.781450079226],[-95.4136751331632,29.7822480459615],[-95.4132188628114,29.7822415074566],[-95.4126421166914,29.7822255650376],[-95.4125129403548,29.7822129924546],[-95.4123767642477,29.7821847600389],[-95.4120329487588,29.7820530774035],[-95.4118465943504,29.7819327856008],[-95.4116540845986,29.781759879281],[-95.4115791536248,29.7816389469987],[-95.4109868667371,29.7806947973817],[-95.4109785816623,29.780435093895],[-95.4110710503187,29.780405992628],[-95.4109270843317,29.7799283499759],[-95.4107831300628,29.7799290009013],[-95.4107540634654,29.7792106891929]]],[[[-95.4107431256502,29.7784761773094],[-95.4096373926493,29.7784905820813],[-95.4096291854842,29.7779935919589],[-95.4107353419537,29.777989729079],[-95.4107431256502,29.7784761773094]]]]},"properties":{"YW_DAY":"YW_TH","SECTION_NAME":"NW"}},{"type":"Feature","geometry":{"type":"Polygon","coordinates":[[[-95.4243233825935,29.7808684019179],[-95.4265409374319,29.7808475835136],[-95.4266931190593,29.7808414537265],[-95.4288205214646,29.780818889946],[-95.4289789605851,29.7808190063412],[-95.4304762382981,29.7808038831698],[-95.431128096507,29.7807921567901],[-95.4312758347506,29.7808459881644],[-95.4316887513938,29.7810925569202],[-95.4317930339911,29.7811492890182],[-95.4319071157294,29.78121554577],[-95.4328815538373,29.7817916308408],[-95.4329060714512,29.7819081614624],[-95.4326584259008,29.7818733958679],[-95.4316255719717,29.7818839642987],[-95.4311898846409,29.7818885101637],[-95.4311898450001,29.7825388107163],[-95.4311942600927,29.7825885259816],[-95.4311074024668,29.7825977435508],[-95.4300265075327,29.7825730585316],[-95.4289210603979,29.7825413577762],[-95.4277266939968,29.7824906746211],[-95.426934697993,29.782474475951],[-95.4266423900996,29.7824683347292],[-95.4265611615012,29.7824838627163],[-95.4263682164722,29.7824777253328],[-95.4243436693006,29.7824178240662],[-95.4243365340316,29.7819628507907],[-95.4243311732808,29.781237384898],[-95.4243233825935,29.7808684019179]]]},"properties":{"YW_DAY":"YW_TH","SECTION_NAME":"NW"}},{"type":"Feature","geometry":{"type":"Polygon","coordinates":[[[-95.3723976413291,29.7737327269783],[-95.3722299778304,29.7737498189022],[-95.3712152555831,29.7737594205002],[-95.3701166448633,29.7737783712566],[-95.36900267068,29.7737840590828],[-95.3679465233015,29.7737755823059],[-95.3669959992138,29.7721103461133],[-95.3663018177368,29.770854310707],[-95.3661950964754,29.7706760544118],[-95.3662565621302,29.770306815248],[-95.3664840832502,29.7694965773394],[-95.3666208708744,29.7690189788666],[-95.3673929253101,29.7691932146163],[-95.3671502010895,29.769972735717],[-95.3673503286029,29.7700385933479],[-95.3674875740204,29.7700748547345],[-95.3678451955699,29.77009449101],[-95.3678897621128,29.770097689306],[-95.3678838213357,29.7697434662522],[-95.3680413595754,29.7697394414491],[-95.3680542166092,29.7700974102318],[-95.3687109417165,29.7700978690462],[-95.3689584435136,29.7700933481492],[-95.3700876253847,29.7700772435483],[-95.3705894959557,29.7700697596669],[-95.3711727838448,29.7700687690004],[-95.371513482871,29.7700663328728],[-95.3715107267547,29.7695734291493],[-95.3718841746644,29.769565149494],[-95.3723436759045,29.7695548953355],[-95.3723520385129,29.7700570838534],[-95.3723673016587,29.7707838205622],[-95.3723826186978,29.7715240010303],[-95.3723891800039,29.7722165445938],[-95.3723901036837,29.7723058059438],[-95.3723825895386,29.7729925532658],[-95.3723976413291,29.7737327269783]]]},"properties":{"YW_DAY":"YW_MO","SECTION_NAME":"NW"}},{"type":"Feature","geometry":{"type":"Polygon","coordinates":[[[-95.4089618514329,29.7616648674701],[-95.4092095536734,29.7627519565721],[-95.4093481074229,29.7634659723435],[-95.4093697626719,29.7639213153315],[-95.4094867185232,29.7653369387597],[-95.4096284498085,29.7653954218643],[-95.409953651598,29.7659368350535],[-95.4100670356453,29.7660585889803],[-95.4104837018446,29.766799487919],[-95.4105598931586,29.7675145874752],[-95.4094231339628,29.7675337211515],[-95.4083091878983,29.7675469900253],[-95.4072030409113,29.7675643203104],[-95.4060891073602,29.7675832469884],[-95.4060051138303,29.7675928561392],[-95.4049676354314,29.7676042413928],[-95.4048184367481,29.7675981553651],[-95.4048058976634,29.7668747424348],[-95.4047921701973,29.7661489460468],[-95.404784637965,29.7660994354389],[-95.4047611551362,29.7654098733746],[-95.4051502163372,29.7653943507334],[-95.4060815798693,29.7653802306666],[-95.4060274540491,29.7639654152963],[-95.4060222006809,29.7638281030349],[-95.4057056968196,29.7624743801664],[-95.40597069998,29.7622061911993],[-95.4059871015737,29.7621214870481],[-95.4059939863373,29.7616888781348],[-95.4075203505024,29.7616477795926],[-95.4089618514329,29.7616648674701]]]},"properties":{"YW_DAY":"YW_MO","SECTION_NAME":"NW"}},{"type":"Feature","geometry":{"type":"Polygon","coordinates":[[[-95.4234086787668,29.7713102131428],[-95.4234605218165,29.7714774038028],[-95.4232329383716,29.7716027557766],[-95.423235587828,29.7717949900355],[-95.4232440760974,29.772410764854],[-95.4232778588038,29.7724775654152],[-95.423297558387,29.7731986645159],[-95.4233087715701,29.77394995538],[-95.4218895603551,29.773969100355],[-95.4218820260798,29.7732156994388],[-95.4218703154326,29.7725483782869],[-95.4219928821937,29.7724871879264],[-95.4218366586121,29.7724683406242],[-95.4211037146436,29.772467952057],[-95.420211112934,29.7724718356439],[-95.4193491046131,29.7724775543154],[-95.4185174296704,29.7724910095703],[-95.4178171276631,29.7724998375554],[-95.4176723967371,29.7721229983842],[-95.4175942058905,29.7719169223699],[-95.4174706433801,29.7714122121546],[-95.417441787495,29.7710069793581],[-95.4174417857339,29.7706578703355],[-95.4184868233511,29.7707706042736],[-95.4193262602337,29.7708333196547],[-95.420203592469,29.7709040664815],[-95.4211571254393,29.7709670271082],[-95.4218775969684,29.7710468237823],[-95.4221567267477,29.7710603764332],[-95.4225825532388,29.7710849268427],[-95.4229562518736,29.7711040009062],[-95.4232842028438,29.7710899045101],[-95.4233259985273,29.7711960353403],[-95.4233559716058,29.7712312263022],[-95.4234086787668,29.7713102131428]],[[-95.422008126184,29.7721821414268],[-95.4220275770512,29.7717434505665],[-95.4219872729046,29.7717110714432],[-95.421173016839,29.7717138955281],[-95.4211807680933,29.7720824203785],[-95.4215804490566,29.7720772057527],[-95.4215817167161,29.7721872032768],[-95.422008126184,29.7721821414268]]]},"properties":{"YW_DAY":"YW_MO","SECTION_NAME":"NW"}},{"type":"Feature","geometry":{"type":"Polygon","coordinates":[[[-95.4214777305839,29.7613272482475],[-95.4221774755328,29.7613628828071],[-95.4223825071973,29.7614082047634],[-95.4227593433644,29.7615218593412],[-95.4229206655897,29.7616074877975],[-95.4236374842442,29.7619870327473],[-95.4241936514834,29.762557556781],[-95.4246057024443,29.7629657127486],[-95.4249377792348,29.7631499970493],[-95.4251930542592,29.7632846176053],[-95.4254520993256,29.7633821733089],[-95.4255980119039,29.7634313877126],[-95.4257839233056,29.7634790917782],[-95.4259889188117,29.7635109909487],[-95.426215129588,29.7635313366022],[-95.426365442303,29.7635329596248],[-95.4273218605253,29.7635110481541],[-95.4273294133532,29.7672151953274],[-95.426306994278,29.7672323102279],[-95.4254221085481,29.7672820657068],[-95.4253000714482,29.7672742979858],[-95.4240946353653,29.7673106100996],[-95.4217752441955,29.76736968754],[-95.4217434331765,29.7666143118326],[-95.4217281164808,29.7658765628967],[-95.4216454230172,29.7643541616784],[-95.4215920249312,29.7628397740738],[-95.4215310998271,29.7613940761998],[-95.4214777305839,29.7613272482475]]]},"properties":{"YW_DAY":"YW_MO","SECTION_NAME":"NW"}},{"type":"Feature","geometry":{"type":"Polygon","coordinates":[[[-95.4227593433644,29.7615218593412],[-95.4223825071973,29.7614082047634],[-95.4221774755328,29.7613628828071],[-95.4214777305839,29.7613272482475],[-95.4214306706341,29.7612699005466],[-95.4213610087162,29.7600865515903],[-95.4213986659975,29.7599175098629],[-95.4216212851907,29.7598883788778],[-95.4220495327275,29.7598054078014],[-95.4224951003606,29.7597228887712],[-95.4229072436281,29.7596450002408],[-95.4236219620426,29.759510294825],[-95.4247378181514,29.7594057767881],[-95.4247386916788,29.7593294626732],[-95.4251127343804,29.7593225582225],[-95.4253315088354,29.7593250143358],[-95.4255027152826,29.7593307893496],[-95.4254994855808,29.7592295491306],[-95.4269196032204,29.7592120202908],[-95.4272097971233,29.7592105123371],[-95.4272374943118,29.760897507599],[-95.4272793022577,29.7609691980204],[-95.4272974026991,29.7610183191603],[-95.4273020022672,29.7610638389061],[-95.4273035538418,29.7612605448134],[-95.4273021245479,29.7617826893923],[-95.4272892085781,29.7618421981033],[-95.4272791292326,29.7619238342426],[-95.4272454626796,29.7620176808145],[-95.4270935242345,29.7623286075148],[-95.42693320724,29.7622634777675],[-95.42671722358,29.7622339208963],[-95.4266592060423,29.7622254332671],[-95.4265731817899,29.762213615354],[-95.4264590278215,29.7622108382864],[-95.426287636642,29.7622086919764],[-95.4263212929075,29.7618648936107],[-95.4261752960759,29.7616891835302],[-95.425876990636,29.7615238262071],[-95.4257399784374,29.7612813756911],[-95.4253102435847,29.7610047633202],[-95.4250826371171,29.7607330692448],[-95.4248753276435,29.760479316718],[-95.4247531916565,29.7602705174877],[-95.4247534644962,29.7602376131197],[-95.4246951660815,29.7602427543954],[-95.4240270183525,29.7607296150163],[-95.4237585213078,29.7607594852585],[-95.4234808832677,29.7606039794296],[-95.4229206655897,29.7616074877975],[-95.4227593433644,29.7615218593412]]]},"properties":{"YW_DAY":"YW_MO","SECTION_NAME":"NW"}},{"type":"Feature","geometry":{"type":"Polygon","coordinates":[[[-95.4183877944043,29.7613748940181],[-95.4192117489558,29.7613691907305],[-95.4200815282378,29.7613596364433],[-95.4209268096608,29.7613641291257],[-95.4214777305839,29.7613272482475],[-95.4215310998271,29.7613940761998],[-95.4215920249312,29.7628397740738],[-95.4216454230172,29.7643541616784],[-95.4209816436271,29.7643466219794],[-95.4205317131554,29.7643466518769],[-95.4201271833953,29.7643655698197],[-95.4192423161873,29.7643637438311],[-95.4184183635161,29.7643808449065],[-95.4176172937979,29.7643961335621],[-95.4162822790497,29.7644201736292],[-95.4162643855279,29.7634711116911],[-95.4162607231288,29.7630819298509],[-95.4162520194591,29.762746957476],[-95.4162233818687,29.7620576445899],[-95.4162133207587,29.7614874255412],[-95.4169457732932,29.7614169100188],[-95.4175713974639,29.7613824687208],[-95.4183877944043,29.7613748940181]],[[-95.4184468015449,29.7618382873493],[-95.4184549262039,29.7623886715078],[-95.4186649371703,29.7623891033015],[-95.4186612236864,29.7622517383048],[-95.4191329174294,29.7622510896672],[-95.4191244222512,29.7618326376215],[-95.4184468015449,29.7618382873493]]]},"properties":{"YW_DAY":"YW_MO","SECTION_NAME":"NW"}},{"type":"Feature","geometry":{"type":"Polygon","coordinates":[[[-95.4205023327007,29.7607265138333],[-95.4200968067374,29.7607282985043],[-95.4200815282378,29.7613596364433],[-95.4192117489558,29.7613691907305],[-95.4183877944043,29.7613748940181],[-95.4183846094563,29.7611110495701],[-95.4183694331702,29.7598538738815],[-95.4183577637802,29.7594200844069],[-95.4183545506505,29.7590500588153],[-95.4183370055419,29.7575944198674],[-95.4183721769356,29.7575812767705],[-95.4188552707975,29.7580538843542],[-95.4189184777672,29.7581307684306],[-95.4192255848968,29.7587025783377],[-95.419283655127,29.7588078732124],[-95.4199062271178,29.7591610572487],[-95.4199575292589,29.7597259508129],[-95.4200732460917,29.7597236761565],[-95.4200842889434,29.7602186557119],[-95.4200845338338,29.7602296304101],[-95.4204775614508,29.7602478695203],[-95.4204975072848,29.7606528158928],[-95.4205023327007,29.7607265138333]]]},"properties":{"YW_DAY":"YW_MO","SECTION_NAME":"NW"}},{"type":"Feature","geometry":{"type":"Polygon","coordinates":[[[-95.4143814159178,29.7704824367416],[-95.4134209748094,29.7704329116735],[-95.413413424658,29.7696680644797],[-95.4134134123311,29.7690633907971],[-95.4133906016735,29.7689509071706],[-95.4133906922337,29.7681963666487],[-95.4133904264529,29.7679371948891],[-95.4133881708498,29.7674679122724],[-95.4152460762729,29.7674521649479],[-95.4163326701865,29.7674326315184],[-95.4163265355131,29.767674768571],[-95.4163520280682,29.7681910405638],[-95.4163431654663,29.7683537740198],[-95.4163584470682,29.7689431802146],[-95.4163829224036,29.7696294783214],[-95.4163881871481,29.7698659372803],[-95.4163531997011,29.770602920407],[-95.4153622171153,29.7705267306606],[-95.4149541723411,29.7705079450152],[-95.4143814159178,29.7704824367416]],[[-95.4141506223895,29.7687282564352],[-95.4141503398952,29.7687737570703],[-95.414370440663,29.7687664126541],[-95.4143706019333,29.7687758641434],[-95.4148034508092,29.7687831196115],[-95.4148076466646,29.768646877907],[-95.4148109160727,29.7681793483166],[-95.4143152734269,29.7682026445818],[-95.4141242006056,29.7682076216905],[-95.414151082966,29.7685980808035],[-95.4141506223895,29.7687282564352]]]},"properties":{"YW_DAY":"YW_MO","SECTION_NAME":"NW"}},{"type":"Feature","geometry":{"type":"MultiPolygon","coordinates":[[[[-95.3952123800703,29.7737157786857],[-95.3949957824314,29.7736972907681],[-95.3943260284502,29.7737046778545],[-95.3939764005043,29.7737149981592],[-95.3938831723166,29.7737236671652],[-95.3938793423854,29.7740682203275],[-95.3936766397559,29.7742659367632],[-95.3936831193653,29.7744647119659],[-95.3932638070954,29.7748891313223],[-95.393134419181,29.7750296454559],[-95.393134419339,29.7748099061991],[-95.3926330552996,29.7748041203371],[-95.3926234978353,29.7740771380678],[-95.3926638760219,29.7740742541641],[-95.3926581213216,29.7735930305992],[-95.3927970136182,29.7735921584126],[-95.3927960042114,29.7730653582613],[-95.3931919586716,29.7730680910749],[-95.3931574481924,29.7715180839902],[-95.3927546696156,29.7715310711577],[-95.3925107218592,29.7715578008169],[-95.392156432139,29.7716102829456],[-95.3907328706396,29.7715653969748],[-95.3905582697442,29.7714784360162],[-95.3902136762416,29.7714415961352],[-95.3895846058564,29.7713743417892],[-95.3892057980687,29.7713338415573],[-95.3890369548099,29.7713157892454],[-95.3890355234104,29.7712685443119],[-95.3890884135645,29.7712272926261],[-95.3892151088943,29.7711535407522],[-95.3893095113921,29.7711157679404],[-95.3894320066502,29.7710804841576],[-95.3895970487403,29.7710645567797],[-95.3898932320597,29.7710600982597],[-95.3901989656634,29.7710513000008],[-95.3904636794882,29.7710672582722],[-95.3908783691623,29.7711165717524],[-95.3909405454885,29.7709582689453],[-95.3910065574098,29.7708184376064],[-95.3911108022486,29.7705968259362],[-95.3912845192354,29.7702294894528],[-95.3914810625615,29.7697979808599],[-95.3915731119474,29.7695913468152],[-95.3917939848571,29.7690814388977],[-95.3918221658702,29.7689662114088],[-95.3922649393019,29.7690068252568],[-95.3931371365416,29.7691012372308],[-95.3940112183291,29.769202085017],[-95.3949067986033,29.7692895169151],[-95.3960107250462,29.7694104509378],[-95.3960335281872,29.7703012626342],[-95.397324781332,29.7704117083063],[-95.3980309989872,29.7704717603911],[-95.3980385890722,29.7710487153573],[-95.3980464368076,29.771461158903],[-95.3973266580369,29.7713857349549],[-95.3973334194311,29.7723615192365],[-95.3973340431481,29.7724552038034],[-95.3973779843337,29.774225673262],[-95.3962284025884,29.7742512559022],[-95.3961501663306,29.774242923708],[-95.3959967744766,29.7741866594342],[-95.3957415781103,29.7739773737007],[-95.3956626803982,29.7739126642387],[-95.3955876420621,29.7738511194368],[-95.3954994868163,29.7738053649086],[-95.3953035643621,29.7737427755302],[-95.3952123800703,29.7737157786857]]],[[[-95.3910226951011,29.7679620255541],[-95.391164399066,29.7672267459298],[-95.3911487963732,29.7667549008706],[-95.3911369932369,29.7648092360058],[-95.391206258196,29.7647618901606],[-95.3914115604856,29.7647479422862],[-95.3914283996817,29.76651744777],[-95.3914278139613,29.7669533218602],[-95.3914250065719,29.7670065031804],[-95.3914235810378,29.767099147176],[-95.3914130850448,29.767175968814],[-95.3914043824501,29.7672589199618],[-95.3913966191831,29.7673255257684],[-95.3913883366331,29.7673877126112],[-95.3913845778442,29.7674144429465],[-95.3913794513591,29.7674478098131],[-95.3913600932125,29.7675636304999],[-95.3913475638443,29.7676285273961],[-95.3913414912968,29.7676589225025],[-95.3913363152858,29.7676829265505],[-95.3913281170084,29.7677209424335],[-95.3913253111396,29.7677339554361],[-95.3913208799577,29.7677585761988],[-95.3913119238187,29.7678083333246],[-95.3913038683277,29.767850033193],[-95.3912974697078,29.7678817482301],[-95.3912915597408,29.7679106177034],[-95.3912722672634,29.7679968536678],[-95.3910226951011,29.7679620255541]]]]},"properties":{"YW_DAY":"YW_MO","SECTION_NAME":"NW"}},{"type":"Feature","geometry":{"type":"Polygon","coordinates":[[[-95.4274209231558,29.7749417822633],[-95.426542053946,29.7739513270119],[-95.4263300137039,29.7741082833904],[-95.4259044944438,29.774395285826],[-95.4250407323909,29.7733966387577],[-95.4248804700067,29.7732327867054],[-95.4241936627129,29.7724127468222],[-95.4246722065204,29.772116607003],[-95.4244132234777,29.7718048117579],[-95.4241880243219,29.7715312970661],[-95.4238842632368,29.7713458756919],[-95.4237755118893,29.7710858760597],[-95.4237522263483,29.7709853014114],[-95.4237308267213,29.7709548489765],[-95.4240716488723,29.7707673157985],[-95.4246131965619,29.7706257376005],[-95.4254640340363,29.7703638510577],[-95.4266141820438,29.7700165280963],[-95.4266581197255,29.77014287746],[-95.4277565659472,29.7708240007254],[-95.4288018318834,29.7714436918686],[-95.4299768999707,29.7721590280238],[-95.4294733010767,29.7727864716789],[-95.4289697527846,29.7734199156551],[-95.4302062352699,29.7741681827559],[-95.4303913841605,29.7742649553544],[-95.4288700983106,29.7761736651937],[-95.4286901152908,29.7764020132947],[-95.4274209231558,29.7749417822633]]]},"properties":{"YW_DAY":"YW_MO","SECTION_NAME":"NW"}},{"type":"Feature","geometry":{"type":"Polygon","coordinates":[[[-95.4033112933272,29.7869239477745],[-95.4022133952688,29.786942959502],[-95.4011224970594,29.7869619109994],[-95.4000160721393,29.7869810865082],[-95.3989098661547,29.7869849561083],[-95.3976249139831,29.7870136683075],[-95.3975869687079,29.7851610403244],[-95.3975590072492,29.7833252577976],[-95.3975198408395,29.7814718836447],[-95.3974908731486,29.779643527981],[-95.397452792016,29.7777989899678],[-95.3974450137438,29.776957939181],[-95.3977197332939,29.7769216441424],[-95.3979836549191,29.7769014767317],[-95.3987275122496,29.7768896676983],[-95.3987376890918,29.7777777558668],[-95.3987645767864,29.779632054021],[-95.3998560309654,29.7796396613917],[-95.3998821994902,29.7806689857994],[-95.4003963903178,29.7806542874991],[-95.4004039047764,29.7814309765808],[-95.4015395610976,29.7814162924047],[-95.4015364657508,29.7815193004532],[-95.4015463725885,29.7831847361038],[-95.4015648518762,29.7834740144225],[-95.4032205416023,29.7834334560031],[-95.4032780787367,29.7850916731912],[-95.4033112933272,29.7869239477745]]]},"properties":{"YW_DAY":"YW_TH","SECTION_NAME":"NW"}},{"type":"Feature","geometry":{"type":"Polygon","coordinates":[[[-95.3734303013224,29.7676534594534],[-95.3734151998167,29.7676509015197],[-95.3734179667426,29.7676384663836],[-95.3734330692801,29.7676410243449],[-95.3734303013224,29.7676534594534]]]},"properties":{"YW_DAY":"NONE","SECTION_NAME":"NOSERV"}}]}