{"type":"FeatureCollection","features":[{"type":"Feature","geometry":{"type":"Polygon","coordinates":[[[-95.3777993817736,29.7551780004956],[-95.3778029467898,29.7554812662258],[-95.3786879764669,29.7554687283245],[-95.3786872935275,29.7554104482171],[-95.3788936457054,29.7554085149537],[-95.378894552793,29.7554888117116],[-95.3795557207515,29.7554812737896],[-95.3795501649905,29.754836474284],[-95.3803881575013,29.7548305183472],[-95.3804950398377,29.7548422265147],[-95.3812830318746,29.7548350180867],[-95.3813759456717,29.7548522047809],[-95.3821675287825,29.7548470821234],[-95.3822581119539,29.7548248599138],[-95.3830825873163,29.7548112773807],[-95.3830788537244,29.7545178683172],[-95.3838724398223,29.7545028188985],[-95.3839333495533,29.7544854833204],[-95.3839445247302,29.7545672124836],[-95.3839449259117,29.7547211971237],[-95.3839486467602,29.7550901578476],[-95.3839694682447,29.7553856798088],[-95.3839844793291,29.7557506836762],[-95.3839990791519,29.7563889092288],[-95.3839986346992,29.7566416422735],[-95.3840004165992,29.7567091635957],[-95.3840064398242,29.7570060570721],[-95.3840197016267,29.7570720936961],[-95.3840295566427,29.7573809280799],[-95.384024859206,29.7576611867475],[-95.3839651669097,29.7576632695487],[-95.3830672483115,29.7576777109063],[-95.3829308187988,29.7576795433849],[-95.3824899609968,29.7577114634888],[-95.3822309013431,29.7577250165056],[-95.382244886621,29.7570641293377],[-95.3822385650672,29.7570275966273],[-95.3813470068974,29.7570394295781],[-95.3807290218822,29.7570473911157],[-95.3804619386711,29.757050830744],[-95.3798974711662,29.757056747129],[-95.3795693441645,29.757062487584],[-95.3786995662313,29.7570681503362],[-95.3787031318746,29.7573733114219],[-95.3782643397439,29.757373347091],[-95.377811079884,29.7573764393029],[-95.3778069593573,29.7571176601235],[-95.3778146987729,29.7570738644047],[-95.3769371577151,29.757083445489],[-95.376044515634,29.7570814012976],[-95.3760369863363,29.757033702992],[-95.3760341639551,29.7566650943485],[-95.3760364408259,29.7564556579902],[-95.3750910044004,29.7564578120244],[-95.3750840692139,29.7560902202752],[-95.3750832634863,29.7558339883689],[-95.3750785248888,29.7554666509556],[-95.3750832227732,29.755198975855],[-95.3760217375775,29.7551893820581],[-95.3769143177523,29.7551837028675],[-95.3777993817736,29.7551780004956]]]},"properties":{"SEC_NAME":"NWMO107","DAY":"MONDAY","QUAD":"NW","SERVICE_TYPE":null}},{"type":"Feature","geometry":{"type":"MultiPolygon","coordinates":[[[[-95.3644190923743,29.7872309104553],[-95.3642966675467,29.7869762464143],[-95.3637061238746,29.7871877373584],[-95.363498657142,29.7871280265547],[-95.3630719867903,29.7871016793294],[-95.3624467350591,29.7870151165248],[-95.362437263189,29.7871612242026],[-95.3616570402185,29.7870501472857],[-95.361297388427,29.7869992766657],[-95.3612853409533,29.7866636856807],[-95.3605366517427,29.7866838486038],[-95.3606867427197,29.7860902787911],[-95.3607856047808,29.785536550484],[-95.3608650649756,29.7849991560769],[-95.3609459347318,29.7847676561575],[-95.3610320460498,29.7846674824213],[-95.3611938085738,29.7845871702778],[-95.3612493845418,29.78458256179],[-95.3612993144974,29.7845784210285],[-95.3613725529636,29.7845723476704],[-95.3615512983674,29.7845575239509],[-95.3617461125828,29.7845276031798],[-95.3619586742858,29.7844652871037],[-95.3614653226236,29.7834038295533],[-95.3630030007094,29.7828588909526],[-95.3634986665657,29.7839070090321],[-95.3650813773707,29.7833482284652],[-95.3653831646691,29.7839515647433],[-95.3649846389433,29.7841036293696],[-95.3652250724115,29.7846382719913],[-95.3650910333494,29.7846074468837],[-95.3650949253638,29.7849649296105],[-95.3651012912718,29.7850347895145],[-95.3649313499464,29.7850351812864],[-95.3649567743957,29.7853049677078],[-95.3648958705532,29.7854832289257],[-95.3647915611236,29.7854716927618],[-95.3647948753152,29.786258320961],[-95.3649717313617,29.7862545296662],[-95.3650121387822,29.786852952387],[-95.3649227364302,29.7869603075288],[-95.3646597534632,29.7871547182875],[-95.3644190923743,29.7872309104553]]],[[[-95.3656804159831,29.7877718911521],[-95.365656555851,29.7875628487572],[-95.3656626374997,29.7874667061055],[-95.3659276232627,29.7876649571913],[-95.365992284801,29.7875943278394],[-95.3662912121637,29.7872926013597],[-95.3662652813249,29.7872731175978],[-95.3665229876258,29.7870068596993],[-95.366362981766,29.7868838979455],[-95.3666082277895,29.7866279453524],[-95.3660752061355,29.7862350506897],[-95.3659574377147,29.786151881869],[-95.365752848275,29.7863539934787],[-95.3656386138366,29.7854983679013],[-95.3659558992946,29.7851610813255],[-95.3661263359596,29.7855257838115],[-95.3662652995561,29.7856836572692],[-95.3669808272394,29.7862390776889],[-95.3676065060735,29.7867216271425],[-95.368056661498,29.7870536322757],[-95.3682244015706,29.7871907521195],[-95.3683744847174,29.7872958516724],[-95.3683415275787,29.7873797157443],[-95.368006764128,29.7881636251381],[-95.3679785749188,29.7882243026137],[-95.3679741940036,29.7898106396864],[-95.3672672529236,29.7898177632686],[-95.3651557341465,29.7898378439114],[-95.3651295087685,29.7884856707429],[-95.3654000432192,29.7881616784301],[-95.3654503071595,29.788091501992],[-95.3655288886933,29.7880097856325],[-95.3656007789857,29.7879528346162],[-95.3656393636128,29.7879110261579],[-95.3656610949131,29.787874328315],[-95.3656770242484,29.7878267892582],[-95.3656804159831,29.7877718911521]]],[[[-95.3695810225935,29.793105787359],[-95.3695824787905,29.7929740432257],[-95.3695810591853,29.7928368882926],[-95.3691887234725,29.7928430002992],[-95.3688369778633,29.7928487051291],[-95.3688315304567,29.7922477914269],[-95.3688380195177,29.7922471412861],[-95.3695749329214,29.7922452401915],[-95.3698579926034,29.7922432860188],[-95.3698566864504,29.7915788372229],[-95.3698503084476,29.7910768964768],[-95.370497529291,29.7910676229033],[-95.3711890781244,29.7910647817359],[-95.371465443242,29.7910615977367],[-95.3714579179595,29.7912189647382],[-95.3714159463852,29.7915027787282],[-95.3713829900667,29.7916312374537],[-95.3708490348102,29.791625526305],[-95.3708490610072,29.7922376925996],[-95.3712686677433,29.7922377029597],[-95.371274197265,29.7928116722588],[-95.3711985682963,29.7928092817914],[-95.370830942296,29.792811570512],[-95.370831147473,29.7928309877252],[-95.3707927150088,29.7928084819399],[-95.3705794180965,29.7930906878786],[-95.3704938457279,29.7930908567088],[-95.3703380015316,29.793084397196],[-95.3696802920041,29.7930940984636],[-95.3695810225935,29.793105787359]]]]},"properties":{"SEC_NAME":"NEFR117","DAY":"FRIDAY","QUAD":"NE","SERVICE_TYPE":null}},{"type":"Feature","geometry":{"type":"Polygon","coordinates":[[[-95.3650811078749,29.7833476894884],[-95.364699596662,29.7825312901661],[-95.3644326457162,29.781962910077],[-95.3642894887635,29.7816592931628],[-95.3638603712494,29.7807764044503],[-95.3635781371437,29.780192721661],[-95.3632883357525,29.7796015302069],[-95.3630207461649,29.779026333828],[-95.3627389182003,29.7784551778778],[-95.3624632025044,29.7778548044465],[-95.3623226492714,29.7775640633275],[-95.3631347195094,29.7772706093656],[-95.3641963759264,29.7768858032819],[-95.3643354669254,29.7771777447705],[-95.3650963916109,29.7769027059983],[-95.3653329662094,29.7773775521946],[-95.3653633314696,29.7774786200774],[-95.3660957643023,29.7772305887293],[-95.3661797380486,29.7772383547481],[-95.3662152877301,29.7772599147146],[-95.3667206936608,29.7770738021299],[-95.3666490065223,29.7774331395556],[-95.3664669632415,29.7783363171842],[-95.3664320221243,29.7784603678798],[-95.3666332120877,29.7783852931863],[-95.3667101145041,29.7783848939155],[-95.3667542174916,29.7784258373918],[-95.3669148342845,29.7787133902195],[-95.3670218065776,29.7788280793663],[-95.3671060212312,29.7789421515274],[-95.3671563078946,29.7790673779697],[-95.3673089479126,29.7795157561526],[-95.3673776373033,29.7795634380198],[-95.367438547191,29.7796663568182],[-95.367484405967,29.7800421576023],[-95.3676751902309,29.7804332362942],[-95.3679727190943,29.7810148581814],[-95.3679880223186,29.7810568124838],[-95.3679802349062,29.7810987927532],[-95.3679499231434,29.7811503500501],[-95.3680127539863,29.7814065437466],[-95.3680479990648,29.7815871357303],[-95.3680611143568,29.7816450285921],[-95.3674153649512,29.7824940783113],[-95.3671772595059,29.7828075512267],[-95.3683166302889,29.7828171447678],[-95.3683236494994,29.7829317165687],[-95.3684153918283,29.7834138313792],[-95.3685251481054,29.7837672236511],[-95.3686184097018,29.7840586507337],[-95.3687357082218,29.7843317938446],[-95.3689920470231,29.7848209760202],[-95.3694803274445,29.7855685823647],[-95.3700199419949,29.7863254877914],[-95.3702111293607,29.7867223540385],[-95.3704965542604,29.7873285187849],[-95.3712768849887,29.7889890169692],[-95.3713837003527,29.7892072045956],[-95.3714375494744,29.7893292142745],[-95.371459392354,29.7894300675055],[-95.3714669599385,29.7896475079955],[-95.3704956058514,29.7889186635823],[-95.3700020920436,29.7885392506686],[-95.369471232778,29.7881205316131],[-95.3688808939797,29.7876807032735],[-95.3683744847174,29.7872958516724],[-95.3682244015706,29.7871907521195],[-95.368056661498,29.7870536322757],[-95.3676065060735,29.7867216271425],[-95.3669808272394,29.7862390776889],[-95.3662222727225,29.7856505320343],[-95.3661950358363,29.7856286821583],[-95.3661263359596,29.7855257838115],[-95.3659558992946,29.7851610813255],[-95.3659355724008,29.7851175851793],[-95.3658365775341,29.7849325535125],[-95.3653831646691,29.7839515647433],[-95.3650811078749,29.7833476894884]]]},"properties":{"SEC_NAME":"NEFR117","DAY":"FRIDAY","QUAD":"NE","SERVICE_TYPE":null}},{"type":"Feature","geometry":{"type":"Polygon","coordinates":[[[-95.3758868238408,29.7737056289821],[-95.3758830612401,29.7733403644708],[-95.3737184229507,29.7733380002326],[-95.3735969450682,29.7733612757282],[-95.3723914387358,29.7733627283175],[-95.3723850767242,29.7729925294231],[-95.3723896767747,29.7723068125913],[-95.3723843784239,29.7715242987031],[-95.3735713400907,29.7715090333649],[-95.3735600995525,29.7707840064554],[-95.3747079713106,29.7707691393919],[-95.3746969883662,29.7703918722672],[-95.3749803773947,29.7703924398603],[-95.3749832820166,29.7706674270566],[-95.3749812074361,29.7707651022206],[-95.3758495632829,29.7707578766388],[-95.3758406079814,29.7700128367879],[-95.3760299442074,29.7700122387418],[-95.3760159279427,29.7699144181798],[-95.376010821036,29.7693011600007],[-95.3771477823326,29.7694199984487],[-95.3772324122872,29.7694495287144],[-95.3772165917537,29.7699353905046],[-95.3771731079602,29.7699787830052],[-95.3770949942742,29.7700123047303],[-95.3770274831552,29.7700348288744],[-95.376988662485,29.7700592271933],[-95.3769938305529,29.7707316923072],[-95.3769946644666,29.7711058800237],[-95.376995510342,29.7714800806609],[-95.3770158156239,29.7722242063399],[-95.3770805007325,29.7721899930338],[-95.3781488868763,29.7721797848907],[-95.3781406498753,29.7729437508981],[-95.378153239033,29.7736890068739],[-95.3781540462514,29.7740590547309],[-95.3758958951532,29.7740783278139],[-95.3758868238408,29.7737056289821]]]},"properties":{"SEC_NAME":"NWMO106","DAY":"MONDAY","QUAD":"NW","SERVICE_TYPE":null}},{"type":"Feature","geometry":{"type":"Polygon","coordinates":[[[-95.3723892525176,29.7722441211016],[-95.3723851604898,29.7722410053682],[-95.3689808487268,29.7722860312814],[-95.3690041880128,29.7737836678181],[-95.3685985097635,29.7737800711715],[-95.3683638489696,29.7737702027384],[-95.3679465233015,29.7737755823059],[-95.3672844909731,29.7726254738532],[-95.3669959992138,29.7721103461133],[-95.3662033792293,29.7706913219152],[-95.366266741583,29.7702613198457],[-95.3664847893152,29.7694963617909],[-95.3666241388744,29.7690074889882],[-95.3673904478306,29.7691930265009],[-95.3671502010895,29.769972735717],[-95.3672343785527,29.7700029109105],[-95.3673503286029,29.7700385933479],[-95.3674875740204,29.7700748547345],[-95.3678481693218,29.7700977697506],[-95.3678942310603,29.7700976813494],[-95.3678838213357,29.7697434662522],[-95.3680413595754,29.7697394414491],[-95.3680485766593,29.7700973828461],[-95.3684945532552,29.7701003170271],[-95.3688254056648,29.7700958823609],[-95.3700623461315,29.7700851404284],[-95.3705890150746,29.7700792905078],[-95.3713152287048,29.7700679467925],[-95.3714682276458,29.7700376439691],[-95.3715098650418,29.7699714489142],[-95.3715107267547,29.7695734291493],[-95.3718841746644,29.769565149494],[-95.3718882605968,29.7698342367258],[-95.3718924954846,29.7700616718528],[-95.3723486518629,29.7700567123502],[-95.3723638877492,29.7707834293662],[-95.3723843784239,29.7715242987031],[-95.3723892525176,29.7722441211016]]]},"properties":{"SEC_NAME":"NWMO106","DAY":"MONDAY","QUAD":"NW","SERVICE_TYPE":null}},{"type":"Feature","geometry":{"type":"MultiPolygon","coordinates":[[[[-95.3926638760219,29.7740742541641],[-95.3926581213216,29.7735930305992],[-95.3927970136182,29.7735921584126],[-95.392799333138,29.7731439592318],[-95.3931626198061,29.7731433052257],[-95.3931574481924,29.7715180839902],[-95.3927546696156,29.7715310711577],[-95.3925207950003,29.7715597112063],[-95.3921665052787,29.7716121933615],[-95.3919745065768,29.7716148764778],[-95.3907328706396,29.7715653969748],[-95.3899405272175,29.7715113116952],[-95.3895904200116,29.7714508552535],[-95.3891046381824,29.7714060076771],[-95.3890433628018,29.7714127215505],[-95.3890369548099,29.7713157892454],[-95.3890358779601,29.7712685538653],[-95.3891208555152,29.7712051904851],[-95.3892151088943,29.7711535407522],[-95.3893098659413,29.7711157774931],[-95.3894320066502,29.7710804841576],[-95.3895661771985,29.7710663247167],[-95.3903068284846,29.7710561551742],[-95.3904640330037,29.7710672677941],[-95.3908867131201,29.7711174644362],[-95.3909631644739,29.7708948624444],[-95.3910797496854,29.7706494794405],[-95.3912845192354,29.7702294894528],[-95.3914810625615,29.7697979808599],[-95.3915532190252,29.7696408572794],[-95.3917944864623,29.7690802744336],[-95.3918252679043,29.7689661180104],[-95.3922649393019,29.7690068252568],[-95.3931371365416,29.7691012372308],[-95.3940112183291,29.769202085017],[-95.3949067986033,29.7692895169151],[-95.3957456400042,29.769390788125],[-95.3960081258065,29.7694110137976],[-95.3960309348574,29.7703003398792],[-95.397324781332,29.7704117083063],[-95.3980298379816,29.7704736392077],[-95.3980294876653,29.7705702836142],[-95.3980470469902,29.7714538710036],[-95.3973266580369,29.7713857349549],[-95.3973334194311,29.7723615192365],[-95.3973784061304,29.7742722598644],[-95.3960822682452,29.774277620205],[-95.3959970750808,29.7742024856745],[-95.3957695716745,29.7739767536316],[-95.3956626803982,29.7739126642387],[-95.3954994868163,29.7738053649086],[-95.3953035643621,29.7737427755302],[-95.3952123800703,29.7737157786857],[-95.3949957824314,29.7736972907681],[-95.3943260284502,29.7737046778545],[-95.3939764005043,29.7737149981592],[-95.3939390784393,29.7737219354777],[-95.3938831723166,29.7737236671652],[-95.3938793423854,29.7740682203275],[-95.3936766397559,29.7742659367632],[-95.393676642929,29.774266022601],[-95.3936829640893,29.7744648603365],[-95.3932638070954,29.7748891313223],[-95.3930887225127,29.7751193628039],[-95.3930808484085,29.7748122086128],[-95.3926648546573,29.7748203241772],[-95.3926345927044,29.7747254581214],[-95.392626479729,29.7742513527054],[-95.3926234978353,29.7740771380678],[-95.3926638760219,29.7740742541641]]],[[[-95.391206258196,29.7647618901606],[-95.3914115604856,29.7647479422862],[-95.3914278226246,29.7669490118936],[-95.3914278408624,29.7669522105079],[-95.3914278517916,29.7669526034592],[-95.3914278139613,29.7669533218602],[-95.3914210720297,29.7670810462776],[-95.3914210390041,29.7670814533905],[-95.3914146486373,29.7671606070334],[-95.3914065554529,29.767240019016],[-95.3914058566679,29.7673345799667],[-95.391390814531,29.7674599478717],[-95.3913781663106,29.7675422719266],[-95.3913780007741,29.7675432369252],[-95.3913640445532,29.7676233738142],[-95.3913638112362,29.7676246754848],[-95.3913634957763,29.7676263396179],[-95.3913403062111,29.7677724036301],[-95.3912971797469,29.7679618261728],[-95.3912889724716,29.7680059149016],[-95.3911425374731,29.7679759522504],[-95.3910328231369,29.7679468754761],[-95.391164399066,29.7672267459298],[-95.391154543313,29.7664535320589],[-95.3911260456284,29.7648458644889],[-95.3911369932369,29.7648092360058],[-95.3911672312354,29.7647782685896],[-95.391206258196,29.7647618901606]]],[[[-95.378323049907,29.7690623378977],[-95.378327685405,29.7686628274972],[-95.3772344173918,29.76855396658],[-95.3760046778468,29.7684269986854],[-95.3758181251358,29.7684097612568],[-95.3757161561271,29.7683828473157],[-95.375648546448,29.7683510079141],[-95.375636622157,29.7685326198533],[-95.3739696053464,29.7685549691544],[-95.3739512167658,29.7681545528496],[-95.374241747758,29.7681833286837],[-95.3742303870271,29.7680092269875],[-95.3742477139446,29.767480679889],[-95.374247722868,29.76747964297],[-95.3746713688309,29.7675199467206],[-95.3753936063419,29.7676028292374],[-95.3756309439711,29.7676343110373],[-95.3771998622009,29.7677917257412],[-95.3783125321217,29.7679165994337],[-95.3795019602405,29.7680368435017],[-95.3805233113275,29.7681331436247],[-95.381623429011,29.7682332462184],[-95.3827446123515,29.7683129909805],[-95.3834612884156,29.7683299414542],[-95.3834613087598,29.76833135196],[-95.3836685657096,29.7683372521131],[-95.3838381266958,29.7683420796631],[-95.3847537778428,29.7683762533693],[-95.3854878753807,29.7684526500559],[-95.386273120911,29.7685436477772],[-95.3862914432636,29.7692957853645],[-95.385509005631,29.7692156928798],[-95.3850197660054,29.7691572863262],[-95.3846886406107,29.7691343938509],[-95.3838541700421,29.7691207553224],[-95.3827524540888,29.7690974131107],[-95.382178338704,29.7690682061321],[-95.3816409590622,29.7690103388784],[-95.3805473501405,29.7688974078272],[-95.3794296792057,29.7687859497729],[-95.3794304086585,29.7691642354106],[-95.378323049907,29.7690623378977]]],[[[-95.3814537153708,29.7729172289257],[-95.3828042395626,29.7729212431255],[-95.3827877884213,29.7732992321286],[-95.382698266517,29.7736411661459],[-95.3825660382129,29.7738263242255],[-95.3822494392465,29.7741379126043],[-95.381984171738,29.7743560372684],[-95.3817174222736,29.7746105663113],[-95.3816506358462,29.774727230929],[-95.3815847874238,29.7748572621543],[-95.3814867645067,29.775106529842],[-95.3803545416811,29.7751141855163],[-95.3792711474113,29.7751336018571],[-95.3781715394724,29.7751379599038],[-95.3781548545413,29.774429101675],[-95.3781540462514,29.7740590547309],[-95.378153239033,29.7736890068739],[-95.3781406498753,29.7729437508981],[-95.3792463289382,29.77292495091],[-95.3803372040096,29.7729252222824],[-95.3814537153708,29.7729172289257]]],[[[-95.3945124878746,29.7746577010197],[-95.3950123159249,29.7746487812101],[-95.3950228755061,29.7761712620846],[-95.3949665702491,29.7761730078936],[-95.3945412960601,29.7761861910121],[-95.3940647496038,29.776200962978],[-95.3940550246511,29.775580507529],[-95.3942139825751,29.7753141733738],[-95.3943678711166,29.7750287730253],[-95.3945124878746,29.7746577010197]]]]},"properties":{"SEC_NAME":"NWMO106","DAY":"MONDAY","QUAD":"NW","SERVICE_TYPE":null}},{"type":"Feature","geometry":{"type":"Polygon","coordinates":[[[-95.4218875868507,29.7739694944758],[-95.4233063168138,29.7739502057933],[-95.4233216711481,29.7747098409872],[-95.4233350504274,29.7753922015978],[-95.4233443000743,29.7760892950307],[-95.4233365082621,29.7766477396768],[-95.421899987256,29.7760918960798],[-95.4219053309579,29.77541136289],[-95.4219003159785,29.7747293362305],[-95.4218875868507,29.7739694944758]]]},"properties":{"SEC_NAME":"NWMO110","DAY":"MONDAY","QUAD":"NW","SERVICE_TYPE":null}},{"type":"Feature","geometry":{"type":"Polygon","coordinates":[[[-95.4232329505544,29.7716027624203],[-95.4234605339993,29.7714774104465],[-95.4236365323607,29.7718023859884],[-95.4241922210322,29.7724135550406],[-95.4248796082313,29.7732329018211],[-95.4248903380714,29.7744513096718],[-95.426170348632,29.7759384790262],[-95.4261755172496,29.7763022129293],[-95.426734790084,29.7763050130802],[-95.426734834207,29.7766813457099],[-95.426422949041,29.7766734828598],[-95.4264196270063,29.7768302241005],[-95.4260703597575,29.7768912458287],[-95.4249864170594,29.7769171209637],[-95.4249765226443,29.7766751952738],[-95.4249107953668,29.7766756913476],[-95.4248879396047,29.7767141302499],[-95.4248234815401,29.7767426783715],[-95.4238692697408,29.77675652112],[-95.4236758762145,29.7767421787545],[-95.4236147921409,29.7767374950333],[-95.4234460320305,29.7766962382613],[-95.4233365082621,29.7766477396768],[-95.4233370716561,29.776607331355],[-95.4233443000743,29.7760892950307],[-95.4233350504274,29.7753922015978],[-95.4233216711481,29.7747098409872],[-95.4233063168138,29.7739502057933],[-95.42329757057,29.7731986711596],[-95.4232778709867,29.7724775720589],[-95.4232440882804,29.7724107714978],[-95.4232356000109,29.7717949966793],[-95.4232329505544,29.7716027624203]]]},"properties":{"SEC_NAME":"NWMO110","DAY":"MONDAY","QUAD":"NW","SERVICE_TYPE":null}},{"type":"Feature","geometry":{"type":"Polygon","coordinates":[[[-95.4219928943767,29.7724871945702],[-95.4220299394118,29.7717453017908],[-95.4221431692779,29.7717009284476],[-95.4221581306557,29.7710606449937],[-95.4227204341983,29.7710955561042],[-95.4229562640564,29.77110400755],[-95.4232842028438,29.7710899045101],[-95.4233440262146,29.7712514780031],[-95.4234183373703,29.7713734416536],[-95.4234605339993,29.7714774104465],[-95.4232329505544,29.7716027624203],[-95.4232356000109,29.7717949966793],[-95.4232440882804,29.7724107714978],[-95.4232778709867,29.7724775720589],[-95.42329757057,29.7731986711596],[-95.4233063168138,29.7739502057933],[-95.4218875868507,29.7739694944758],[-95.4218817686771,29.773215633894],[-95.4218703276155,29.7725483849307],[-95.4219902447589,29.7724885175212],[-95.4219928943767,29.7724871945702]]]},"properties":{"SEC_NAME":"NWMO110","DAY":"MONDAY","QUAD":"NW","SERVICE_TYPE":null}},{"type":"Feature","geometry":{"type":"MultiPolygon","coordinates":[[[[-95.3753936063419,29.7676028292374],[-95.3754049616693,29.7674865312318],[-95.3754093483509,29.767187513556],[-95.3750843522002,29.767189667384],[-95.3750768690236,29.7666615159924],[-95.3750765082086,29.7666068337005],[-95.3746661765748,29.766604363608],[-95.3739536809545,29.7666155842004],[-95.3739366001767,29.7666475493047],[-95.3739232663845,29.7667241126154],[-95.3739061035366,29.766139665224],[-95.3723274150618,29.7661671706118],[-95.3723198739364,29.7654468387645],[-95.3738748453449,29.7654271057091],[-95.373896802801,29.7654371155705],[-95.3739354714006,29.765453580345],[-95.3746444874973,29.7654530229763],[-95.375288068442,29.7654576035753],[-95.3755932904103,29.7654902294808],[-95.3755959224988,29.7662485056968],[-95.3771384378239,29.7662331212092],[-95.3782721597478,29.7662269214395],[-95.3794058434829,29.7662283132784],[-95.3805179969042,29.7662120004115],[-95.381243963273,29.7662124814418],[-95.3815488522574,29.7662007585448],[-95.3823498102632,29.7662022800547],[-95.3823397086851,29.7666890593651],[-95.3823372281228,29.7668599348932],[-95.382440427055,29.7669607508485],[-95.3825280054574,29.7670715752955],[-95.3826755195144,29.7673491902344],[-95.3827364447428,29.7675896050732],[-95.3827426621417,29.7676407389791],[-95.3827429964717,29.7677560052452],[-95.3834532851928,29.7677622114845],[-95.3834612884156,29.7683299414542],[-95.3827446123515,29.7683129909805],[-95.381623429011,29.7682332462184],[-95.3805233113275,29.7681331436247],[-95.3795019602405,29.7680368435017],[-95.3783125321217,29.7679165994337],[-95.3771998622009,29.7677917257412],[-95.37669341914,29.7677408290893],[-95.3756309439711,29.7676343110373],[-95.3753936063419,29.7676028292374]]],[[[-95.4019009316994,29.7700710713523],[-95.4018990256423,29.7694742956613],[-95.4018726484468,29.7689119554003],[-95.4018599086916,29.7682696393345],[-95.4018539301439,29.767640145498],[-95.4018374177743,29.7669319449464],[-95.4019855723609,29.7668976764711],[-95.4033060895552,29.7668949974376],[-95.4048059098445,29.7668747490802],[-95.4048184489293,29.7675981620105],[-95.4049661058334,29.7676048114558],[-95.4060058868854,29.7675920283756],[-95.4060910129671,29.7675829577936],[-95.4061008080087,29.7683174733047],[-95.4061153664533,29.7690424796542],[-95.4061194840363,29.769476261927],[-95.4061182173332,29.769773030106],[-95.4061248372268,29.7702973588564],[-95.4061299854974,29.7705061456915],[-95.4048902862101,29.7703692210637],[-95.4040009292924,29.7702960190507],[-95.4022321543662,29.7701096335605],[-95.4019009316994,29.7700710713523]]]]},"properties":{"SEC_NAME":"NWMO108","DAY":"MONDAY","QUAD":"NW","SERVICE_TYPE":null}},{"type":"Feature","geometry":{"type":"MultiPolygon","coordinates":[[[[-95.3755932904103,29.7654902294808],[-95.375288068442,29.7654576035753],[-95.3746444874973,29.7654530229763],[-95.3739354714006,29.765453580345],[-95.373896802801,29.7654371155705],[-95.3738748453449,29.7654271057091],[-95.3723198739364,29.7654468387645],[-95.3725021036722,29.7650518256055],[-95.3724974995474,29.7647319563692],[-95.3724920788075,29.7640102699024],[-95.3739190850688,29.7639627043953],[-95.3753698077301,29.763934141688],[-95.3755579899766,29.7639549309118],[-95.375773872361,29.7640062948897],[-95.3760863080553,29.7640241667871],[-95.377122719907,29.764006736097],[-95.378239596413,29.7639831505682],[-95.3791070309537,29.7639756268881],[-95.3793661497056,29.7639840753835],[-95.3804084563013,29.7640045044869],[-95.3805077884141,29.7640290446686],[-95.3805133452416,29.7647263339739],[-95.3805147334449,29.7654736065146],[-95.3812892315707,29.7654703632524],[-95.381357037178,29.7655456096526],[-95.3813578237282,29.7655573555749],[-95.3814182256669,29.7655571289917],[-95.3823898001142,29.7655534871682],[-95.382393723356,29.7662023634048],[-95.3815488522574,29.7662007585448],[-95.381243963273,29.7662124814418],[-95.3805179969042,29.7662120004115],[-95.3794058434829,29.7662283132784],[-95.3782721597478,29.7662269214395],[-95.3771384378239,29.7662331212092],[-95.3755959224988,29.7662485056968],[-95.3755932904103,29.7654902294808]]],[[[-95.4048184489293,29.7675981620105],[-95.4048059098445,29.7668747490802],[-95.4033060895552,29.7668949974376],[-95.4019855723609,29.7668976764711],[-95.4018374177743,29.7669319449464],[-95.4018225145749,29.7663342546607],[-95.4017080935881,29.7663213757972],[-95.4008477720539,29.7663538301711],[-95.4008161978286,29.7656460432111],[-95.4017231651294,29.7656240109369],[-95.4017704699173,29.765590168689],[-95.4018048145331,29.7655173988408],[-95.4017680012045,29.7635414094784],[-95.4027049535233,29.7635255262754],[-95.4028688051385,29.7635331960702],[-95.4030342690657,29.7635704574449],[-95.4031470555099,29.7636215099183],[-95.403268490535,29.763702654347],[-95.4035224178404,29.7638710428072],[-95.4036286886843,29.7639219885838],[-95.4037400029412,29.7639502874531],[-95.4038698763164,29.7639622190407],[-95.4046778639387,29.7639568755765],[-95.4047267512435,29.7639813187361],[-95.4047544995168,29.7646876892801],[-95.4047611673171,29.76540988002],[-95.4052642138996,29.7653952099846],[-95.4060807816394,29.765380951242],[-95.4060737900964,29.7660688921717],[-95.4060501333708,29.7661301032098],[-95.4060713359567,29.7668648726267],[-95.4060910129671,29.7675829577936],[-95.4060058868854,29.7675920283756],[-95.4049661058334,29.7676048114558],[-95.4048184489293,29.7675981620105]]]]},"properties":{"SEC_NAME":"NWMO108","DAY":"MONDAY","QUAD":"NW","SERVICE_TYPE":null}},{"type":"Feature","geometry":{"type":"MultiPolygon","coordinates":[[[[-95.4008092991776,29.7663545055723],[-95.4017080935881,29.7663213757972],[-95.4018225145749,29.7663342546607],[-95.4018374177743,29.7669319449464],[-95.4018539301439,29.767640145498],[-95.4018599086916,29.7682696393345],[-95.4018726484468,29.7689119554003],[-95.4018990256423,29.7694742956613],[-95.4018421513576,29.7694300160633],[-95.4008936051579,29.7694353435499],[-95.4008858627385,29.7691893385499],[-95.4001839800237,29.7691969085005],[-95.4000707427663,29.7691650610035],[-95.4000404656749,29.7690904121082],[-95.3992465685532,29.7690946034915],[-95.3992305231801,29.7684831473587],[-95.399222318714,29.7678086092562],[-95.3992109723939,29.7671704675116],[-95.399928854349,29.7671345155033],[-95.3999243183892,29.7670005556977],[-95.4008257521317,29.7669803844144],[-95.4008092991776,29.7663545055723]]],[[[-95.3971222023344,29.7680260177426],[-95.3981353672618,29.7680160651333],[-95.3981353345983,29.7685158748658],[-95.3981755847711,29.7686636042758],[-95.3981393429814,29.768716336493],[-95.3981533270248,29.7696647996925],[-95.3972240525658,29.7695312615594],[-95.397116839797,29.768554875363],[-95.3971222023344,29.7680260177426]]]]},"properties":{"SEC_NAME":"NWMO108","DAY":"MONDAY","QUAD":"NW","SERVICE_TYPE":null}},{"type":"Feature","geometry":{"type":"Polygon","coordinates":[[[-95.4022438749247,29.7718800558414],[-95.4021649407597,29.7718691403239],[-95.401533440191,29.7718047755255],[-95.4015241761116,29.7708433640666],[-95.4022275295018,29.7709214811254],[-95.4022269590828,29.7701927433619],[-95.4022321543662,29.7701096335605],[-95.4040009292924,29.7702960190507],[-95.4048902862101,29.7703692210637],[-95.4061299854974,29.7705061456915],[-95.4061526561721,29.7712957537046],[-95.406114380427,29.7713277833678],[-95.4050725457692,29.7712307178266],[-95.4045735890093,29.7711769770437],[-95.4045897183525,29.7716241537952],[-95.4045988148792,29.7716831570979],[-95.4049313551152,29.7717240495712],[-95.4049158834757,29.7718913243886],[-95.4052407286443,29.7719312784869],[-95.4052040533171,29.7721822446839],[-95.4048915472395,29.7721472377171],[-95.4040505819918,29.7720543885525],[-95.4022438749247,29.7718800558414]]]},"properties":{"SEC_NAME":"NWMO108","DAY":"MONDAY","QUAD":"NW","SERVICE_TYPE":null}},{"type":"Feature","geometry":{"type":"MultiPolygon","coordinates":[[[[-95.4060737900964,29.7660688921717],[-95.4060807816394,29.765380951242],[-95.406023992924,29.7639259043407],[-95.4060222006809,29.7638281030349],[-95.4057056968196,29.7624743801664],[-95.40597069998,29.7622061911993],[-95.4060035042054,29.7620367820189],[-95.4059939863373,29.7616888781348],[-95.4062638785822,29.7616694034896],[-95.407690911494,29.7616448430116],[-95.4089618514329,29.7616648674701],[-95.4089906000704,29.7617989251148],[-95.4092080744945,29.7627519494301],[-95.4093481074229,29.7634659723435],[-95.4093681888791,29.7639220557638],[-95.4093904936743,29.7644286382094],[-95.4094867307044,29.7653369454047],[-95.4104960259401,29.7653307897742],[-95.4114405785288,29.7653233567398],[-95.4114544103713,29.7656851864283],[-95.4133562206482,29.7656777683517],[-95.4133541350326,29.766015080639],[-95.4133708774256,29.7666377673867],[-95.413365220515,29.766751276431],[-95.4133881769248,29.7674679160456],[-95.4124462561742,29.7674890756032],[-95.4114765015012,29.7675012979223],[-95.4105590549581,29.7675154153245],[-95.4094249523721,29.767533733768],[-95.4083072752648,29.7675463330802],[-95.4072001833625,29.7675647004412],[-95.4060910129671,29.7675829577936],[-95.4060713359567,29.7668648726267],[-95.4060501333708,29.7661301032098],[-95.4060737900964,29.7660688921717]]],[[[-95.4214751679259,29.761327103084],[-95.4214395243301,29.7612812829661],[-95.4214808714427,29.7613267183219],[-95.4214751679259,29.761327103084]]]]},"properties":{"SEC_NAME":"NWMO109","DAY":"MONDAY","QUAD":"NW","SERVICE_TYPE":null}},{"type":"Feature","geometry":{"type":"MultiPolygon","coordinates":[[[[-95.4287521289184,29.7763159933797],[-95.4286901152908,29.7764020132947],[-95.4274188806108,29.7749417548931],[-95.4265420529123,29.7739513269844],[-95.4264355507835,29.773830686821],[-95.4256279974712,29.7729151562268],[-95.4239743220004,29.7710054710517],[-95.4238607395148,29.7708751545857],[-95.4240909835843,29.7707780786162],[-95.4246132087448,29.7706257442441],[-95.4254640462192,29.7703638577012],[-95.4266141931931,29.7700165347122],[-95.4266545617378,29.7701436121229],[-95.4277576271796,29.7708243936846],[-95.4288028138895,29.7714439247442],[-95.4299790966703,29.7721590540472],[-95.4289664722906,29.7734201098675],[-95.4302062342363,29.7741681827283],[-95.4303824827214,29.7742534875039],[-95.4303308774201,29.7743202935997],[-95.4287521289184,29.7763159933797]]],[[[-95.4261740295082,29.7739234702167],[-95.4263285019177,29.7741089660992],[-95.4259044944438,29.774395285826],[-95.4257691357606,29.774238790465],[-95.4250407323909,29.7733966387577],[-95.4248796071976,29.7732329017935],[-95.4241922210322,29.7724135550406],[-95.4246722065204,29.772116607003],[-95.4261740295082,29.7739234702167]]]]},"properties":{"SEC_NAME":"NWMO110","DAY":"MONDAY","QUAD":"NW","SERVICE_TYPE":null}},{"type":"Feature","geometry":{"type":"Polygon","coordinates":[[[-95.4234492361743,29.7708657750063],[-95.4233153023998,29.7705765294133],[-95.4231343725387,29.7703203110698],[-95.4226194761763,29.7696079616499],[-95.4223578539061,29.7692577296242],[-95.4221201460588,29.7688646881548],[-95.4218249439555,29.7681363373438],[-95.4217766907549,29.7673695645912],[-95.4240918649385,29.7673101010935],[-95.4252973235817,29.7672736469876],[-95.4254250741165,29.7672815824607],[-95.4263091528248,29.7672327135078],[-95.4273322907983,29.7672147169111],[-95.4273467462725,29.768777396902],[-95.4273602368307,29.7697935724046],[-95.4266141942267,29.7700165347397],[-95.4254640462192,29.7703638577012],[-95.4246132087448,29.7706257442441],[-95.4240909835843,29.7707780786162],[-95.4238607395148,29.7708751545857],[-95.4237308389041,29.7709548556202],[-95.4236460396033,29.7708886894274],[-95.4235868338206,29.7708637334329],[-95.4234492361743,29.7708657750063]]]},"properties":{"SEC_NAME":"NWMO110","DAY":"MONDAY","QUAD":"NW","SERVICE_TYPE":null}},{"type":"Feature","geometry":{"type":"Polygon","coordinates":[[[-95.4217766907549,29.7673695645912],[-95.4217434453587,29.7666143184765],[-95.4217281286629,29.7658765695405],[-95.4216449706492,29.7643534022017],[-95.4215903319581,29.7628404645263],[-95.4215274835706,29.7613943560329],[-95.4214395243301,29.7612812829661],[-95.4214394985959,29.7612812497833],[-95.4214306706341,29.7612699005466],[-95.4214306595799,29.7612696258445],[-95.4213773659183,29.7599151519437],[-95.4217608401584,29.7598948551235],[-95.4220087713644,29.7598345998254],[-95.4224682826013,29.7597029354056],[-95.4228843270809,29.7596320374526],[-95.4235584469134,29.759515463353],[-95.4247378181514,29.7594057767881],[-95.4247310290385,29.7592399622975],[-95.4254090181898,29.7592175658274],[-95.4269196032204,29.7592120202908],[-95.4272097971233,29.7592105123371],[-95.4272338208161,29.7607347471173],[-95.4272024864387,29.760860879683],[-95.4272681759708,29.7609296097954],[-95.4273070612474,29.7612187390002],[-95.4272939384297,29.7617579866837],[-95.4272473333158,29.7620183851134],[-95.4271602446161,29.7621997140324],[-95.4271248556647,29.7622654313266],[-95.4270203431279,29.76226565407],[-95.42693320724,29.7622634777675],[-95.4267172225464,29.7622339208688],[-95.4265731807563,29.7622136153264],[-95.4264590278215,29.7622108382864],[-95.4262878632628,29.762206682397],[-95.4263212929075,29.7618648936107],[-95.42630511477,29.7618447184246],[-95.4261752960759,29.7616891835302],[-95.425876990636,29.7615238262071],[-95.4257475383106,29.7612862350322],[-95.4253102435847,29.7610047633202],[-95.4250826371171,29.7607330692448],[-95.4248753276435,29.760479316718],[-95.4247531916565,29.7602705174877],[-95.4247534644962,29.7602376131197],[-95.424753367309,29.7602376114293],[-95.4246962838226,29.760236631733],[-95.424027017319,29.7607296149887],[-95.4238798413696,29.7607482039247],[-95.4237578891731,29.7607595451131],[-95.4234808832677,29.7606039794296],[-95.4229156799239,29.7616065188481],[-95.4236374842442,29.7619870327473],[-95.4241908234991,29.762557217741],[-95.4246088789411,29.7629651114878],[-95.4250560194118,29.7632163706676],[-95.4258003266293,29.7635408546048],[-95.4273187008898,29.7635116111147],[-95.4273322907983,29.7672147169111],[-95.4263091528248,29.7672327135078],[-95.4254250741165,29.7672815824607],[-95.4252973235817,29.7672736469876],[-95.4240918649385,29.7673101010935],[-95.4217766907549,29.7673695645912]]]},"properties":{"SEC_NAME":"NWMO110","DAY":"MONDAY","QUAD":"NW","SERVICE_TYPE":null}},{"type":"Feature","geometry":{"type":"Polygon","coordinates":[[[-95.4179825790492,29.7747590197174],[-95.4179678630939,29.774049952924],[-95.4179242234426,29.7730726300798],[-95.4178171276631,29.7724998375554],[-95.4176723967371,29.7721229983842],[-95.4175979345053,29.7719173135997],[-95.4174706433801,29.7714122121546],[-95.4174449676332,29.7710062240044],[-95.4174445974918,29.7706577640703],[-95.4184894727065,29.7707705559291],[-95.4193245040396,29.7708332131552],[-95.4202064377355,29.7709046858828],[-95.4211565681406,29.7709678715495],[-95.4218526383989,29.7710467287592],[-95.4221567247354,29.7710605812813],[-95.4221581306557,29.7710606449937],[-95.4221431692779,29.7717009284476],[-95.4220299394118,29.7717453017908],[-95.4219872850874,29.771711078087],[-95.421173016839,29.7717138955281],[-95.4211807680933,29.7720824203785],[-95.4215804490566,29.7720772057527],[-95.4215817167161,29.7721872032768],[-95.421784504298,29.7721847965084],[-95.422008126184,29.7721821414268],[-95.4219928943767,29.7724871945702],[-95.4219902447589,29.7724885175212],[-95.4218703276155,29.7725483849307],[-95.4218817686771,29.773215633894],[-95.4218875807434,29.7739694916048],[-95.4210940250219,29.7739746447905],[-95.4202314202855,29.7739856521051],[-95.4195708796433,29.7739942382489],[-95.4195777185381,29.7742619983524],[-95.4197605299663,29.7742595834759],[-95.419766419725,29.7753381198289],[-95.4193785437344,29.7752083527637],[-95.4185464375534,29.7749231731833],[-95.4179825790492,29.7747590197174]]]},"properties":{"SEC_NAME":"NWMO111","DAY":"MONDAY","QUAD":"NW","SERVICE_TYPE":null}},{"type":"Feature","geometry":{"type":"MultiPolygon","coordinates":[[[[-95.4200721371345,29.776904865321],[-95.4188843877789,29.7769124504065],[-95.418085781389,29.7769338192038],[-95.4158738262996,29.7769597579219],[-95.4158486914147,29.7762245847503],[-95.4158275605829,29.7747761726592],[-95.4163979178325,29.7747612234708],[-95.4164269293688,29.7743313269253],[-95.4179825790492,29.7747590197174],[-95.4179835232875,29.7747593265824],[-95.418010837143,29.7754614022188],[-95.4186920961225,29.7754501908037],[-95.4188463974115,29.7754623431594],[-95.4190743686347,29.7755083643994],[-95.4210340015563,29.7762104877879],[-95.4219544779133,29.7765393484661],[-95.421949959391,29.7768495119349],[-95.421888405182,29.7768877819126],[-95.4200721371345,29.776904865321]]],[[[-95.421899987256,29.7760918960798],[-95.4197754993355,29.7753412978091],[-95.4197605299663,29.7742595834759],[-95.4195777185381,29.7742619983524],[-95.4195708796433,29.7739942382489],[-95.4202314202855,29.7739856521051],[-95.4210940250219,29.7739746447905],[-95.4218875807434,29.7739694916048],[-95.4219003159785,29.7747293362305],[-95.4219053309579,29.77541136289],[-95.421899987256,29.7760918960798]]],[[[-95.4197754993355,29.7753412978091],[-95.4179835232875,29.7747593265824],[-95.4179835032825,29.7747588061206],[-95.4197754993355,29.7753412978091]]]]},"properties":{"SEC_NAME":"NWMO111","DAY":"MONDAY","QUAD":"NW","SERVICE_TYPE":null}},{"type":"Feature","geometry":{"type":"Polygon","coordinates":[[[-95.4095506342587,29.7763137521971],[-95.4095493424345,29.7755704848018],[-95.4084539351717,29.7755976555666],[-95.4084422123666,29.7752130150342],[-95.4073419215484,29.7752269356008],[-95.4073330265779,29.7748798081935],[-95.4073273650542,29.7741513410599],[-95.4062167305285,29.7741667764961],[-95.4062046016016,29.7734462494802],[-95.4073442798187,29.7734343415426],[-95.4084084702035,29.7734235330691],[-95.4083949786479,29.7728843330664],[-95.4095263974342,29.7730660844614],[-95.409701585132,29.7730965875349],[-95.4104436494781,29.7732515226359],[-95.4106509066477,29.7732726978858],[-95.4109707644202,29.7733390044237],[-95.4116010701224,29.7734696653218],[-95.4120655739148,29.7735566685693],[-95.4125568811024,29.7736486906361],[-95.4125549162238,29.7732612654157],[-95.4134653884354,29.7735115833854],[-95.4143416835724,29.7737573907564],[-95.4154444253309,29.7740611978634],[-95.4163355453846,29.7743062023507],[-95.4164269293688,29.7743313269253],[-95.4163979178325,29.7747612234708],[-95.4158275605829,29.7747761726592],[-95.4158486914147,29.7762245847503],[-95.4135780961192,29.7762498042285],[-95.4135583203429,29.7755311601943],[-95.4126047960942,29.775535037907],[-95.4126200935482,29.7770187406069],[-95.4116679768874,29.777031762883],[-95.4107136494904,29.7770517860619],[-95.4096035031814,29.7770655195263],[-95.4095833649563,29.7764539887585],[-95.4095506342587,29.7763137521971]]]},"properties":{"SEC_NAME":"NWMO111","DAY":"MONDAY","QUAD":"NW","SERVICE_TYPE":null}},{"type":"Feature","geometry":{"type":"Polygon","coordinates":[[[-95.4058994231943,29.776751057796],[-95.4054334241141,29.7766986814896],[-95.404980339103,29.7766103605716],[-95.4043877361954,29.7765144876058],[-95.4038676161977,29.7764574791285],[-95.4035895283866,29.776429423691],[-95.4022031340869,29.7762486332262],[-95.4010380814895,29.7761498410208],[-95.4010335480401,29.7752337093602],[-95.4022667814835,29.7752260904088],[-95.4022677592175,29.7742408478669],[-95.4022562350359,29.7735039663403],[-95.4022544150337,29.773023783302],[-95.4041057753222,29.7729928482302],[-95.4040505387689,29.7722287370751],[-95.4061797660853,29.7724665453218],[-95.4062030290377,29.7729677372141],[-95.4062046016016,29.7734462494802],[-95.4062167305285,29.7741667764961],[-95.4073273650542,29.7741513410599],[-95.4073330265779,29.7748798081935],[-95.4073419215484,29.7752269356008],[-95.4084422123666,29.7752130150342],[-95.4084539351717,29.7755976555666],[-95.4084707714858,29.7763262654479],[-95.4084708089277,29.7770752248158],[-95.4079842190815,29.777056946768],[-95.4073674672204,29.7770075168603],[-95.4062728941212,29.7768195162192],[-95.4062691257458,29.7768188690641],[-95.4058994231943,29.776751057796]]]},"properties":{"SEC_NAME":"NWMO111","DAY":"MONDAY","QUAD":"NW","SERVICE_TYPE":null}},{"type":"Feature","geometry":{"type":"Polygon","coordinates":[[[-95.4184894665994,29.7707705530579],[-95.4184830924957,29.770214931982],[-95.4180829503975,29.7702252519257],[-95.4180748640462,29.7689265852741],[-95.4184698577926,29.7689223390443],[-95.4188897405669,29.768917882998],[-95.4188681117264,29.7673942949756],[-95.419282863635,29.7673921108322],[-95.4201662320143,29.7673842103464],[-95.4210149618156,29.7673836373007],[-95.4217766897213,29.7673695645636],[-95.4218249439555,29.7681363373438],[-95.4217638381618,29.7682926274203],[-95.4217712139357,29.7688811630396],[-95.4218410875023,29.7702203191046],[-95.4218526373652,29.7710467287316],[-95.4211565681406,29.7709678715495],[-95.4202064377355,29.7709046858828],[-95.419324503006,29.7708332131276],[-95.4184894665994,29.7707705530579]]]},"properties":{"SEC_NAME":"NWMO112","DAY":"MONDAY","QUAD":"NW","SERVICE_TYPE":null}},{"type":"Feature","geometry":{"type":"Polygon","coordinates":[[[-95.413424345545,29.7704334450892],[-95.413410884661,29.7696637675669],[-95.4134108204266,29.7693651715866],[-95.414971600656,29.7694379113847],[-95.4149714055282,29.7691280143951],[-95.4150886392022,29.7691273143365],[-95.4152327245745,29.7691202565699],[-95.415259577273,29.7691138998885],[-95.4152712722783,29.7690456715464],[-95.4152628515922,29.7684037372479],[-95.4152460884548,29.7674521715924],[-95.4163326823684,29.7674326381628],[-95.4176547567888,29.7674238430643],[-95.4184533844491,29.7673964830078],[-95.4188681117264,29.7673942949756],[-95.4188897405669,29.768917882998],[-95.4184698577926,29.7689223390443],[-95.4180748640462,29.7689265852741],[-95.4180829503975,29.7702252519257],[-95.4184830924957,29.770214931982],[-95.4184894665994,29.7707705530579],[-95.4174445964582,29.7706577640427],[-95.4163532118834,29.7706029270513],[-95.4153622170837,29.7705267315624],[-95.4149541723094,29.770507945917],[-95.4143814159178,29.7704824367416],[-95.413424345545,29.7704334450892]]]},"properties":{"SEC_NAME":"NWMO112","DAY":"MONDAY","QUAD":"NW","SERVICE_TYPE":null}},{"type":"Feature","geometry":{"type":"MultiPolygon","coordinates":[[[[-95.4114908613829,29.7682376474962],[-95.4114765015012,29.7675012979223],[-95.4124462561742,29.7674890756032],[-95.4133881830315,29.767467918917],[-95.4152460884548,29.7674521715924],[-95.4152628515922,29.7684037372479],[-95.4152712722783,29.7690456715464],[-95.415259577273,29.7691138998885],[-95.4152327245745,29.7691202565699],[-95.4150886392022,29.7691273143365],[-95.4149714055282,29.7691280143951],[-95.414971600656,29.7694379113847],[-95.4134108245612,29.7693651716972],[-95.413410884661,29.7696637675669],[-95.413424345545,29.7704334450892],[-95.4125004887332,29.7704320850645],[-95.4115317456932,29.7704422847737],[-95.4105903763652,29.7704674924805],[-95.4105829510722,29.7682547782125],[-95.4114908613829,29.7682376474962]]],[[[-95.4141503398635,29.768773757972],[-95.414370440663,29.7687664126541],[-95.4143706019333,29.7687758641434],[-95.4148034508092,29.7687831196115],[-95.4148076466646,29.768646877907],[-95.4148109160727,29.7681793483166],[-95.4143152733952,29.7682026454836],[-95.4141242006056,29.7682076216905],[-95.4141510829343,29.7685980817052],[-95.4141462582518,29.7687715509866],[-95.4141503398635,29.768773757972]]],[[[-95.4094249462655,29.7675337308964],[-95.4094706428399,29.7704756820217],[-95.4094950865557,29.7712019880116],[-95.4083636471606,29.7712173360921],[-95.4083510979913,29.7704784107236],[-95.407249908572,29.7704925316681],[-95.4072506435516,29.7697614332476],[-95.4072326444977,29.769029834221],[-95.4072194144637,29.7686744479942],[-95.4061080866883,29.7686799764844],[-95.4061008080087,29.7683174733047],[-95.4060910129671,29.7675829577936],[-95.4072001833625,29.7675647004412],[-95.4083072752648,29.7675463330802],[-95.4094249462655,29.7675337308964]]],[[[-95.4114765015012,29.7675012979223],[-95.4094249462655,29.7675337308964],[-95.4105590549581,29.7675154153245],[-95.4114765015012,29.7675012979223]]]]},"properties":{"SEC_NAME":"NWMO112","DAY":"MONDAY","QUAD":"NW","SERVICE_TYPE":null}},{"type":"Feature","geometry":{"type":"MultiPolygon","coordinates":[[[[-95.4134653884354,29.7735115833854],[-95.4125549162238,29.7732612654157],[-95.40952069238,29.7726949129003],[-95.4083909838943,29.7725281172064],[-95.4095223871914,29.7726949709448],[-95.4094995684017,29.771943622256],[-95.4106194250549,29.7719276282899],[-95.4106270493053,29.7722826855572],[-95.411584449482,29.7722689585021],[-95.4115898811825,29.7726340548642],[-95.4125445908718,29.7726343943046],[-95.4125055251658,29.7711721034405],[-95.4143576447337,29.7711683298673],[-95.4143814159178,29.7704824367416],[-95.4149541723411,29.7705079450152],[-95.4153622171153,29.7705267306606],[-95.4163532118834,29.7706029270513],[-95.4163571752709,29.7711667288403],[-95.4163529628648,29.7718128387178],[-95.4163468699648,29.7718875733764],[-95.4163503508878,29.7719959342081],[-95.4167377596536,29.7720023091255],[-95.4167419384642,29.7721463623153],[-95.4163551274083,29.7721450167398],[-95.4163685915255,29.7725638030903],[-95.4160068790511,29.772569281091],[-95.416012874252,29.7728731505408],[-95.4157289658805,29.7728796795296],[-95.4154453597294,29.772823376949],[-95.4154444253309,29.7740611978634],[-95.4143416835724,29.7737573907564],[-95.4134653884354,29.7735115833854]]],[[[-95.4083909838943,29.7725281172064],[-95.4061749120315,29.7721371104369],[-95.4061748625712,29.7719835250962],[-95.4061748577103,29.7719832225765],[-95.4065922190487,29.7719802634725],[-95.4065912978472,29.7719046495576],[-95.4065852285755,29.7716297006334],[-95.4070631163847,29.7716115411857],[-95.4070558843246,29.7715830445492],[-95.4070457236033,29.7712504444206],[-95.4061987391719,29.7712637889752],[-95.4061526561721,29.7712957537046],[-95.4061299854974,29.7705061456915],[-95.4061248372268,29.7702973588564],[-95.4061182173332,29.769773030106],[-95.4061194840363,29.769476261927],[-95.4061153664533,29.7690424796542],[-95.4061080866883,29.7686799764844],[-95.4072194144637,29.7686744479942],[-95.4072326444977,29.769029834221],[-95.4072506435516,29.7697614332476],[-95.4072499116094,29.7704925335549],[-95.4083510979913,29.7704784107236],[-95.4083761965116,29.7719562613044],[-95.4083909838943,29.7725281172064]]]]},"properties":{"SEC_NAME":"NWMO112","DAY":"MONDAY","QUAD":"NW","SERVICE_TYPE":null}},{"type":"Feature","geometry":{"type":"MultiPolygon","coordinates":[[[[-95.4037047431717,29.7590746740758],[-95.4032289441887,29.7590293587295],[-95.4028210737215,29.7590672201397],[-95.4023937662266,29.7591816121376],[-95.4017571559615,29.7592194866671],[-95.4003402973081,29.7593577884368],[-95.399066341481,29.759484647237],[-95.3981562707877,29.7595680442324],[-95.398124546935,29.7573375746896],[-95.3980673525932,29.7546417913367],[-95.398039457126,29.7539500280395],[-95.3980245142071,29.75323410644],[-95.4002538458879,29.7532027656971],[-95.4023007450213,29.7531882273679],[-95.4023066981837,29.754560347053],[-95.4047768625939,29.7545179031379],[-95.4047821233726,29.7547566262568],[-95.406024983456,29.754740392481],[-95.4060361515176,29.7551426588336],[-95.4083856545721,29.7550634373579],[-95.4083811265915,29.7538895165459],[-95.4107255377046,29.753843996027],[-95.4107294211208,29.7541095303577],[-95.4107263018518,29.7545691002478],[-95.4106929035311,29.7547443087702],[-95.4105916751835,29.7548712593488],[-95.4104205474818,29.7550204598981],[-95.4099103866306,29.755232490539],[-95.409307888922,29.7554991587449],[-95.4083841933038,29.7555167205509],[-95.4084096700824,29.756413496832],[-95.4084265762895,29.757141995287],[-95.404143711995,29.7572034687812],[-95.4041642527209,29.7579587467551],[-95.4045985400888,29.7579585342398],[-95.4046320654614,29.7592684919357],[-95.4041975699529,29.7591660063641],[-95.4037047431717,29.7590746740758]]],[[[-95.3982791130189,29.7524079537247],[-95.3985683178846,29.75240518277],[-95.3985736836088,29.7526583647095],[-95.3980460298425,29.7526734215809],[-95.3980464094197,29.7526635205597],[-95.3982791130189,29.7524079537247]]]]},"properties":{"SEC_NAME":"NWMO116","DAY":"MONDAY","QUAD":"NW","SERVICE_TYPE":null}},{"type":"Feature","geometry":{"type":"MultiPolygon","coordinates":[[[[-95.3896347147358,29.760732260626],[-95.388955683104,29.7605559017271],[-95.3883575353785,29.7605933873653],[-95.387930995658,29.7606512866774],[-95.387205416705,29.7608968790554],[-95.3866319805883,29.7609910235975],[-95.3858039528359,29.7610759024693],[-95.3857806681733,29.7603789939048],[-95.3857651212859,29.7596970027935],[-95.385761022171,29.7591217524206],[-95.3856339236055,29.7591111705095],[-95.3856331471759,29.7590853740231],[-95.3855367459199,29.7590870992131],[-95.3853286151136,29.7590929603174],[-95.3853185558685,29.7591433942497],[-95.3853126557099,29.7591729751255],[-95.3851616086261,29.7591760268492],[-95.3851544302768,29.7591486630341],[-95.3848452683651,29.7591549074462],[-95.3848342111774,29.7586347671469],[-95.3844097044941,29.7586432918549],[-95.3844028129601,29.7576534381978],[-95.3851892925487,29.7576351330668],[-95.3857176643369,29.757625370072],[-95.3857059142321,29.7569196893163],[-95.3857093933614,29.7562366933453],[-95.3857066579366,29.755901727685],[-95.3889343071979,29.7558233983564],[-95.3889382208381,29.756177808096],[-95.3889480731425,29.7568645803427],[-95.3889541817297,29.7575510872766],[-95.3889827554806,29.757823605707],[-95.3891007309829,29.7582567520492],[-95.3891774921019,29.7585728054027],[-95.3896287228244,29.7585655886574],[-95.3896396366084,29.7593823108144],[-95.3896347147358,29.760732260626]]],[[[-95.3769579484517,29.7577607116373],[-95.3770276988305,29.7577600818879],[-95.3770214280721,29.7580688053343],[-95.3768582257994,29.7580690177177],[-95.3768634675442,29.7577612016025],[-95.3769579484517,29.7577607116373]]],[[[-95.3798832234068,29.7579013801243],[-95.380277079716,29.7578987549418],[-95.3802713780329,29.7582419519521],[-95.3801855947193,29.7582426566637],[-95.3789168975731,29.7582530704318],[-95.3789107631096,29.758253120388],[-95.3789103478489,29.7579933989375],[-95.3789102147164,29.7579097751684],[-95.3793758586266,29.75790281732],[-95.3798832234068,29.7579013801243]]]]},"properties":{"SEC_NAME":"NWMO116","DAY":"MONDAY","QUAD":"NW","SERVICE_TYPE":null}},{"type":"Feature","geometry":{"type":"Polygon","coordinates":[[[-95.395902282062,29.7532755493558],[-95.3980245142071,29.75323410644],[-95.398039457126,29.7539500280395],[-95.39806735563,29.7546417932237],[-95.398124546935,29.7573375746896],[-95.3971543144612,29.7573695374782],[-95.396379706674,29.7573870152025],[-95.3955952929999,29.7574006663877],[-95.3947516329438,29.7574212923679],[-95.3940183559246,29.7574391211213],[-95.3934717382772,29.7574538263108],[-95.3930348426817,29.7574610030545],[-95.3922782161239,29.7574678203588],[-95.391306341116,29.7574920718855],[-95.3913728894062,29.7574240540782],[-95.3913507950693,29.7555186519509],[-95.3913270427265,29.7533588083954],[-95.3921237646759,29.7533336994679],[-95.392924617503,29.7533263278319],[-95.3937184764674,29.7533212536181],[-95.3946970934285,29.7532986465335],[-95.395902282062,29.7532755493558]]]},"properties":{"SEC_NAME":"NWMO116","DAY":"MONDAY","QUAD":"NW","SERVICE_TYPE":null}},{"type":"Feature","geometry":{"type":"Polygon","coordinates":[[[-95.3889382208381,29.756177808096],[-95.3889343113319,29.7558233984678],[-95.3857066579366,29.755901727685],[-95.3857046531155,29.7556562212503],[-95.3856833323697,29.7535474144154],[-95.3857205706626,29.7534554336538],[-95.3888948190461,29.7533954080666],[-95.3897076933442,29.7533868243375],[-95.3913270427265,29.7533588083954],[-95.3913507950693,29.7555186519509],[-95.3913728894062,29.7574240540782],[-95.391306341116,29.7574920718855],[-95.3907179472584,29.7575033046424],[-95.3897586682826,29.7575379390159],[-95.3889541817297,29.7575510872766],[-95.3889480731425,29.7568645803427],[-95.3889382208381,29.756177808096]]]},"properties":{"SEC_NAME":"NWMO116","DAY":"MONDAY","QUAD":"NW","SERVICE_TYPE":null}},{"type":"Feature","geometry":{"type":"MultiPolygon","coordinates":[[[[-95.4196594356009,29.788215481944],[-95.419639527581,29.7881508161499],[-95.4195803865586,29.788044410081],[-95.4194780504071,29.7879831532032],[-95.419268725536,29.7879271989038],[-95.4190758680257,29.7879191914743],[-95.418946429509,29.7879207889865],[-95.418696944605,29.7878730012033],[-95.4185845486417,29.7877926789928],[-95.4185439744213,29.7877044577207],[-95.4185306087175,29.7876603763169],[-95.418792133268,29.7872918599645],[-95.4191013272089,29.7868561580628],[-95.4198393015889,29.7866175191044],[-95.4198955584016,29.7865429231524],[-95.4199187513447,29.7863491113985],[-95.4198122112874,29.7856970793409],[-95.4206640545604,29.7860061317423],[-95.4208037360356,29.7861770530226],[-95.4210399991228,29.7862717240054],[-95.4213264954579,29.7860870024725],[-95.4214918045126,29.786234433455],[-95.4216806554441,29.7862483340359],[-95.4218732104724,29.7861566621],[-95.4222675625647,29.7863715792653],[-95.422426563883,29.7862644484764],[-95.4225913220099,29.7862207557616],[-95.42284728958,29.7861826627419],[-95.4230184586464,29.7858733624441],[-95.4231516374809,29.7857370703749],[-95.4236181995632,29.7857134489978],[-95.4241214692268,29.7856601812407],[-95.4250960905547,29.7855549470056],[-95.4253949815193,29.7855254201178],[-95.4258284478308,29.7854692986314],[-95.4258632791133,29.7874554963701],[-95.4258665079507,29.7875854371512],[-95.428033574529,29.7875652883784],[-95.4280537084148,29.7883173351424],[-95.4274181304484,29.7883402647817],[-95.4274212892422,29.7883964637458],[-95.4265330017088,29.7884046286866],[-95.4265335861853,29.7883464263224],[-95.4258837128231,29.7883471695769],[-95.4258988205048,29.7892764040332],[-95.42540599225,29.7892737531736],[-95.4231621350567,29.7892842497903],[-95.4226616450546,29.7893068967832],[-95.4218022720651,29.7894890310369],[-95.4211269026817,29.7897116959782],[-95.4210324976967,29.7896167460331],[-95.420722078488,29.7894392350896],[-95.4206084170837,29.7893003794565],[-95.4203710328912,29.7888995723514],[-95.4201872179083,29.7888668020348],[-95.4198272255729,29.7887982764919],[-95.4194122427028,29.7886517418859],[-95.4194611765205,29.7885699820577],[-95.4195583239776,29.7884426194142],[-95.4196163281747,29.7883536865769],[-95.4196594356009,29.788215481944]]],[[[-95.4289003872202,29.781909500253],[-95.4288943257627,29.7815472798208],[-95.4309584369252,29.7815200806856],[-95.4309579236641,29.7811584243669],[-95.4311790106295,29.7811545585666],[-95.4311619769582,29.7808112048786],[-95.431160826144,29.7807988494965],[-95.4311931733371,29.7807985518443],[-95.4312758347506,29.7808459881644],[-95.4316887513938,29.7810925569202],[-95.4317930339911,29.7811492890182],[-95.4319071157294,29.78121554577],[-95.4328816397682,29.7817916295173],[-95.4329060714512,29.7819081614624],[-95.4326584259008,29.7818733958679],[-95.4315135898471,29.7818858552668],[-95.4311874494319,29.781888581619],[-95.4311934348258,29.7825393657516],[-95.4311643064648,29.7825878565623],[-95.4311038678303,29.7826087700314],[-95.4300265075327,29.7825730585316],[-95.4289146589636,29.7825358724287],[-95.4289003872202,29.781909500253]]],[[[-95.4308407163939,29.7859736556976],[-95.4306267265154,29.7859085567395],[-95.4306301091024,29.7847064022572],[-95.4311374448164,29.7847079991318],[-95.4311272997334,29.7844147527597],[-95.4311905416355,29.7843404339497],[-95.4325100002129,29.7843409118582],[-95.4325640219404,29.785845134035],[-95.4325121890986,29.7859114852929],[-95.4324389564209,29.7859326419604],[-95.4310897473865,29.7859478702783],[-95.4308407163939,29.7859736556976]]],[[[-95.4375671100694,29.7850544093269],[-95.437658416841,29.7849554809722],[-95.4397192499053,29.7864495691519],[-95.4393186798971,29.7868551803938],[-95.4392370848756,29.7869481468164],[-95.438777766099,29.7866590785298],[-95.4380791481202,29.7861333561036],[-95.4375043279721,29.7857111733745],[-95.4375036907094,29.7855849442479],[-95.4375671100694,29.7850544093269]]]]},"properties":{"SEC_NAME":"NWTH108","DAY":"THURSDAY","QUAD":"NW","SERVICE_TYPE":null}},{"type":"Feature","geometry":{"type":"Polygon","coordinates":[[[-95.4243176364758,29.7808668720767],[-95.4243148056222,29.7805056740333],[-95.4243088942446,29.7801408788516],[-95.4243029908144,29.779776536972],[-95.4242939845599,29.7790463039497],[-95.4243155760596,29.7789718744103],[-95.4243050509619,29.7786136599451],[-95.4242977592252,29.7783655086498],[-95.4243005123657,29.7783188248889],[-95.4243254756257,29.7782756573749],[-95.4243712779381,29.7782486688849],[-95.4243739367267,29.7781758987575],[-95.4243709562724,29.777826962547],[-95.4253224177762,29.7778050162555],[-95.4260831595869,29.7781631457243],[-95.4266280673266,29.7783812706695],[-95.4277887063352,29.7789264085493],[-95.4279601885747,29.7790222422397],[-95.4279042991171,29.7790190439133],[-95.4265776637268,29.7790196868749],[-95.4265812777955,29.7797615253126],[-95.4265884611634,29.7804791937782],[-95.4265947441751,29.780843331458],[-95.4265895624562,29.7808456268394],[-95.4265947797652,29.7808454166206],[-95.4266010272633,29.7812074681977],[-95.4266186884458,29.7819343907407],[-95.4266367473339,29.782396752385],[-95.4266441046995,29.7824268406133],[-95.4265611615012,29.7824838627163],[-95.4263682164722,29.7824777253328],[-95.4253309184135,29.782446686399],[-95.4243298973222,29.782417685919],[-95.4243210334993,29.7819587445194],[-95.4243266599827,29.7818720472528],[-95.4243205274118,29.7812357423893],[-95.4243176364758,29.7808668720767]]]},"properties":{"SEC_NAME":"NWTH108","DAY":"THURSDAY","QUAD":"NW","SERVICE_TYPE":null}},{"type":"Feature","geometry":{"type":"Polygon","coordinates":[[[-95.4243298973222,29.782417685919],[-95.4240681012025,29.7824091649389],[-95.4183274464795,29.7822383795942],[-95.4183449032407,29.7820246916373],[-95.4183500265459,29.7817267962741],[-95.4183330581598,29.7812979209765],[-95.4181400881633,29.7805721876732],[-95.4181307718331,29.7802043859804],[-95.4242430479267,29.7801390986124],[-95.4243088942446,29.7801408788516],[-95.4243148056222,29.7805056740333],[-95.4243176364758,29.7808668720767],[-95.4243205274118,29.7812357423893],[-95.4243266599827,29.7818720472528],[-95.4243210334993,29.7819587445194],[-95.4243298973222,29.782417685919]]]},"properties":{"SEC_NAME":"NWTH109","DAY":"THURSDAY","QUAD":"NW","SERVICE_TYPE":null}},{"type":"Feature","geometry":{"type":"Polygon","coordinates":[[[-95.4180596293805,29.7779368623446],[-95.4190377539928,29.7779351722637],[-95.420089930173,29.7779225100123],[-95.4220081201057,29.7779026335875],[-95.4219990830194,29.7783413074653],[-95.4220014986462,29.7786510168215],[-95.4243050509619,29.7786136599451],[-95.4243155760596,29.7789718744103],[-95.4242939845599,29.7790463039497],[-95.4243029908144,29.779776536972],[-95.4243088942446,29.7801408788516],[-95.4242430479267,29.7801390986124],[-95.4181307718331,29.7802043859804],[-95.4181216276606,29.7798433515013],[-95.4180931996679,29.7791145502591],[-95.4180703791811,29.7783750262939],[-95.4180596293805,29.7779368623446]]]},"properties":{"SEC_NAME":"NWTH109","DAY":"THURSDAY","QUAD":"NW","SERVICE_TYPE":null}},{"type":"Feature","geometry":{"type":"Polygon","coordinates":[[[-95.4136943946944,29.7813207719927],[-95.4136663617584,29.7812550454618],[-95.4136480473386,29.7806384872014],[-95.4136297935418,29.7799025656768],[-95.4136196240979,29.7791721543721],[-95.4136118043706,29.7784439874967],[-95.4136037397314,29.7779894753101],[-95.4143806617935,29.7779757741737],[-95.415892588758,29.7779658798762],[-95.4180596293805,29.7779368623446],[-95.4180703791811,29.7783750262939],[-95.4180931996679,29.7791145502591],[-95.4181216276606,29.7798433515013],[-95.4181307718331,29.7802043859804],[-95.4181400881633,29.7805721876732],[-95.4181361726455,29.7817491797184],[-95.4180514651009,29.7822161365266],[-95.4177879984166,29.783229855931],[-95.4177786347258,29.7832658867454],[-95.414819054828,29.7831696691245],[-95.4148057204848,29.7828099431055],[-95.4148076951472,29.7824044569096],[-95.4148039293655,29.7813395402679],[-95.4137704673458,29.7813540943386],[-95.4136943946944,29.7813207719927]]]},"properties":{"SEC_NAME":"NWTH109","DAY":"THURSDAY","QUAD":"NW","SERVICE_TYPE":null}},{"type":"Feature","geometry":{"type":"MultiPolygon","coordinates":[[[[-95.4132195755403,29.7784452786305],[-95.4136118043706,29.7784439874967],[-95.4136196240979,29.7791721543721],[-95.4136297935418,29.7799025656768],[-95.4136480473386,29.7806384872014],[-95.4136663617584,29.7812550454618],[-95.4136943946944,29.7813207719927],[-95.4135682773438,29.7813066331072],[-95.4135705846529,29.7814473810839],[-95.4136714156487,29.781450079226],[-95.4136751331632,29.7822480459615],[-95.4132188628114,29.7822415074566],[-95.4126421166914,29.7822255650376],[-95.4123767642477,29.7821847600389],[-95.4120329487588,29.7820530774035],[-95.4118465943504,29.7819327856008],[-95.4116540845986,29.781759879281],[-95.4115791536248,29.7816389469987],[-95.4109868667371,29.7806947973817],[-95.4109144452735,29.7807093656837],[-95.4108073013117,29.7807046585847],[-95.4107831422459,29.7799290075462],[-95.4107540756484,29.7792106958377],[-95.4117016987332,29.7791982831285],[-95.4116967823695,29.7784588020489],[-95.4126472992905,29.7784471598784],[-95.4132195795898,29.7784459873203],[-95.4132195755403,29.7784452786305]]],[[[-95.4029521769346,29.7786779138986],[-95.4026393214714,29.7786826574984],[-95.4023258345954,29.7786874059855],[-95.4021666628403,29.7786898181195],[-95.4019933076885,29.7786924450409],[-95.4018028601527,29.7786654688471],[-95.4017088092964,29.7786411581733],[-95.4013891871713,29.7784873798774],[-95.4013214905938,29.7783945790813],[-95.4013183666596,29.7782571039793],[-95.4013159356016,29.7781498746656],[-95.4011583460495,29.7781525988622],[-95.4013083900418,29.7778749590944],[-95.4012502301411,29.7774583468726],[-95.4013835406331,29.7774548713773],[-95.4014159701846,29.7773979948277],[-95.4018154372309,29.7773895787393],[-95.4018138611391,29.7772517362807],[-95.4026228629468,29.7772390025847],[-95.4035296885236,29.7772297575547],[-95.4043556102806,29.7773997873134],[-95.4043555746603,29.7778618602773],[-95.4039543561143,29.7780620409959],[-95.4039280041598,29.7780231751254],[-95.4038725958972,29.7780038618689],[-95.4037744447272,29.7779755566886],[-95.4033665459826,29.7780804464921],[-95.4032612894638,29.7781321537665],[-95.4030491439661,29.7782363709496],[-95.4029638549926,29.7782789907067],[-95.4029405926628,29.7783191446534],[-95.4028690907873,29.7784425762087],[-95.4028686733203,29.7784536793824],[-95.4028659876206,29.7785252220591],[-95.4028648549187,29.7785554016801],[-95.4028940192071,29.7785963155425],[-95.4029521769346,29.7786779138986]]],[[[-95.4067474020639,29.778935952134],[-95.4062973689931,29.7789383415055],[-95.4062876236538,29.7785544760914],[-95.4062936178907,29.777997694372],[-95.4062790761749,29.7777422913346],[-95.4073862396548,29.7778430094852],[-95.4073862425218,29.7778431043407],[-95.4074092214975,29.7785266079947],[-95.4085948091964,29.7785113989957],[-95.4086046357535,29.7788386951521],[-95.4085258719526,29.7788411383607],[-95.4084471343168,29.7788456592279],[-95.4083684727963,29.7788522789507],[-95.4082898501396,29.7788609974338],[-95.4082112904215,29.7788718360836],[-95.4081327725982,29.778884834053],[-95.4080542905751,29.7789000173558],[-95.4079758677915,29.7789174254344],[-95.4078974952909,29.7789371067923],[-95.40786400555,29.7789462331385],[-95.4078179544111,29.7789062903798],[-95.4078169898162,29.7788650494033],[-95.4077382007321,29.7788664462007],[-95.4076439564285,29.7788681210198],[-95.4075806151307,29.7788692448733],[-95.4075018188038,29.7788706413378],[-95.4074230286774,29.7788720379222],[-95.40734423338,29.7788734343217],[-95.4073421472866,29.7787840789564],[-95.4072602075906,29.7787855318278],[-95.407171957157,29.7787870998072],[-95.4070837120801,29.7787886624563],[-95.4069954616411,29.7787902303196],[-95.4069952441913,29.7787903228791],[-95.4069734377016,29.7787995329487],[-95.4067457056557,29.7788983138643],[-95.4067474020639,29.778935952134]]],[[[-95.4132195755403,29.7784452786305],[-95.4126472992905,29.7784471598784],[-95.4126426736906,29.7780203155849],[-95.4132171773163,29.7779995464712],[-95.4132195755403,29.7784452786305]]],[[[-95.4067064760707,29.7803557945979],[-95.4063106050341,29.7803732085925],[-95.4063086482367,29.7798342543821],[-95.4067010060057,29.7798302120253],[-95.4067064760707,29.7803557945979]]]]},"properties":{"SEC_NAME":"NWTH109","DAY":"THURSDAY","QUAD":"NW","SERVICE_TYPE":null}},{"type":"Feature","geometry":{"type":"Polygon","coordinates":[[[-95.414008806542,29.7945969561601],[-95.4139951489169,29.7923128629638],[-95.4115611936511,29.7923365116236],[-95.4115973267206,29.7917604510491],[-95.4117757866979,29.7911370194984],[-95.4118161385873,29.7907030339163],[-95.4118072138046,29.7903843721222],[-95.4118038800694,29.7900230130347],[-95.4117457440715,29.788121697129],[-95.4117346298207,29.7862894315774],[-95.4116883432315,29.7853086862689],[-95.4116447839287,29.7848196204938],[-95.4115408302732,29.7844067109123],[-95.4117745927996,29.7843808206217],[-95.4136211387456,29.7843720850622],[-95.4142587334398,29.7843690623189],[-95.4145380763945,29.7846694082324],[-95.4142597520136,29.7849799559308],[-95.4142842218331,29.785005910943],[-95.4140600093082,29.7851986216508],[-95.413898993702,29.7852818372337],[-95.4136340931091,29.7853948793373],[-95.4135003431922,29.7854470661007],[-95.4133152569607,29.7855160222297],[-95.413242247962,29.7856475414742],[-95.4132502680508,29.7859282833528],[-95.4133050560489,29.7861525640287],[-95.4133812042176,29.7863047412358],[-95.4135637787477,29.7864294507202],[-95.4136158780019,29.7864584676649],[-95.4137952944311,29.786514005338],[-95.4140588401708,29.7866120292099],[-95.4141721570322,29.7866594631016],[-95.4142717077613,29.786709197746],[-95.4144591557074,29.7868255550346],[-95.4146880011966,29.7869745688071],[-95.4147748531123,29.7870771149497],[-95.414855281833,29.7871721335333],[-95.414889711412,29.7871826920434],[-95.4150486011867,29.7872000177093],[-95.4160697176143,29.7863161277697],[-95.4163311781757,29.786522653843],[-95.4166887487749,29.7866592282842],[-95.4171191714955,29.7867295396737],[-95.4174543271918,29.7868039458957],[-95.4176443904335,29.7868658395467],[-95.417863229359,29.7869588291555],[-95.418102781383,29.7870918014101],[-95.4183177018949,29.7872524545414],[-95.4184127503074,29.7873655471487],[-95.4185208812327,29.7876282935397],[-95.4185306087175,29.7876603763169],[-95.4185439744213,29.7877044577207],[-95.4185587479058,29.7877531829509],[-95.4185306218461,29.7878787894672],[-95.4184696286458,29.7880520756718],[-95.4183547686724,29.7883065643511],[-95.4181400337525,29.7886685106015],[-95.4179180378884,29.7890390614724],[-95.4177969172208,29.7891736921757],[-95.4176685616352,29.7892446931348],[-95.4175397991373,29.7892776942676],[-95.4172957663237,29.7893187393441],[-95.4171921639397,29.7893845712943],[-95.4171159212231,29.7894816015849],[-95.4170811821874,29.7896250623153],[-95.4170861017699,29.789974627689],[-95.4170771858603,29.7901248661303],[-95.4163539055712,29.7901304035967],[-95.4164771930138,29.7904462939055],[-95.4166325886928,29.7907429161069],[-95.4169214409463,29.7910283112924],[-95.4176957921489,29.7915840349084],[-95.4183516742115,29.7919924986883],[-95.4186979977239,29.7927854093385],[-95.4191195435386,29.7935503505494],[-95.4187972011281,29.793706802179],[-95.4186326422219,29.7937338483207],[-95.4185529769964,29.7934665963018],[-95.4183300626939,29.7933480015305],[-95.416837883808,29.7933435608839],[-95.416656612473,29.7934026260534],[-95.4163165435673,29.7932812262699],[-95.4162726027209,29.7933912449371],[-95.4162059606159,29.7936432017328],[-95.4161439712007,29.794011378608],[-95.4161235225752,29.7942126266836],[-95.4161106352326,29.7946019050466],[-95.4145364559536,29.7945993339994],[-95.4140747056041,29.7945973841007],[-95.414008806542,29.7945969561601]]]},"properties":{"SEC_NAME":"NWTH110","DAY":"THURSDAY","QUAD":"NW","SERVICE_TYPE":null}},{"type":"Feature","geometry":{"type":"Polygon","coordinates":[[[-95.4066140104343,29.7924084773666],[-95.4066084993984,29.7905623252159],[-95.4044755165036,29.7906008115623],[-95.4033618516264,29.7906234068209],[-95.4033430361634,29.7887549704977],[-95.4044487383867,29.7887489272638],[-95.4055214637035,29.7887325641779],[-95.4055293627014,29.788673283205],[-95.4054999168636,29.7869662865001],[-95.4054683584923,29.7868895614951],[-95.4061011266033,29.7868857156288],[-95.4069082023651,29.7868643669631],[-95.4076971290228,29.786854565672],[-95.4080641647806,29.7868457951562],[-95.4080753049237,29.7871961172046],[-95.4080793280358,29.7875329723052],[-95.408784165675,29.7875217125279],[-95.4093402374108,29.7875160138243],[-95.4093704518892,29.788674732663],[-95.4098594082347,29.7886671361945],[-95.4099030634526,29.7905111157519],[-95.4099313448636,29.7923683034703],[-95.4090228657189,29.7923690508071],[-95.4089551007561,29.7923658416474],[-95.4080103038834,29.7923895311396],[-95.4070661059529,29.7923973181377],[-95.4066140104343,29.7924084773666]]]},"properties":{"SEC_NAME":"NWTH114","DAY":"THURSDAY","QUAD":"NW","SERVICE_TYPE":null}},{"type":"Feature","geometry":{"type":"Polygon","coordinates":[[[-95.4033112933272,29.7869239477745],[-95.4032780909199,29.7850916798367],[-95.4032238303375,29.7834328338725],[-95.4042178026374,29.7834220390738],[-95.4055387568632,29.7834062817699],[-95.4064647481501,29.7834045096478],[-95.4064775028601,29.7840576412571],[-95.4068568176947,29.7840587734406],[-95.4068629924248,29.7843983810904],[-95.4086393219014,29.7843678424862],[-95.4086421379842,29.7845299483235],[-95.4087416783276,29.7845363551924],[-95.408784165675,29.7875217125279],[-95.4080793280358,29.7875329723052],[-95.4080753049237,29.7871961172046],[-95.4080641647806,29.7868457951562],[-95.4076971290228,29.786854565672],[-95.4069082023651,29.7868643669631],[-95.4061011266033,29.7868857156288],[-95.4054683615303,29.7868895633819],[-95.4054999168636,29.7869662865001],[-95.4055293627014,29.788673283205],[-95.4055214606656,29.7887325622911],[-95.4044487383867,29.7887489272638],[-95.4033430361634,29.7887549704977],[-95.4033112933272,29.7869239477745]]]},"properties":{"SEC_NAME":"NWTH114","DAY":"THURSDAY","QUAD":"NW","SERVICE_TYPE":null}},{"type":"Feature","geometry":{"type":"Polygon","coordinates":[[[-95.3975597274381,29.7833725401176],[-95.3975590072492,29.7833252577976],[-95.3975198530219,29.7814718902907],[-95.3974911396016,29.7796429565413],[-95.3974539844932,29.7777986835267],[-95.3974432451321,29.7769577129131],[-95.3977214694254,29.7769216474804],[-95.3979836549191,29.7769014767317],[-95.3987275122496,29.7768896676983],[-95.3987376890918,29.7777777558668],[-95.3987645767864,29.779632054021],[-95.3998560309654,29.7796396613917],[-95.3998821994902,29.7806689857994],[-95.4003963903178,29.7806542874991],[-95.4004053310849,29.7814326360545],[-95.4015395610976,29.7814162924047],[-95.4015364657508,29.7815193004532],[-95.4015463725885,29.7831847361038],[-95.4015648518762,29.7834740144225],[-95.4032238303375,29.7834328338725],[-95.4032780909199,29.7850916798367],[-95.4021776331837,29.7851042574603],[-95.4010732597272,29.7851170837812],[-95.3999727961872,29.7851287955752],[-95.3994263191379,29.7851399076168],[-95.3993814854265,29.783379809201],[-95.3975597274381,29.7833725401176]]]},"properties":{"SEC_NAME":"NWTH115","DAY":"THURSDAY","QUAD":"NW","SERVICE_TYPE":null}},{"type":"Feature","geometry":{"type":"Polygon","coordinates":[[[-95.3923062067925,29.7770997542142],[-95.3923210087013,29.7778666255936],[-95.392346839798,29.7797108747825],[-95.3923853117292,29.7815589763639],[-95.392933175587,29.7815494138926],[-95.394032122987,29.7815119375498],[-95.3951333498161,29.7814964191628],[-95.3956823913586,29.7814965166007],[-95.3956966848257,29.7815124356846],[-95.3957177680931,29.7833412845493],[-95.3951621578553,29.7833489839972],[-95.3940637536744,29.7833762648616],[-95.3929691644038,29.783390129374],[-95.3918581626357,29.7834092659525],[-95.3919012487279,29.7852556342668],[-95.3919105583291,29.7857167578416],[-95.3877590737532,29.7857672276173],[-95.38774816522,29.7852532033459],[-95.3877389488664,29.7847872621456],[-95.3877311831614,29.784378413256],[-95.3877193384562,29.7834658074083],[-95.3876987321421,29.7825450615085],[-95.3876847045616,29.7816321345586],[-95.3886200456641,29.7816145895872],[-95.3899126849789,29.7816009552717],[-95.390692114038,29.7815931475739],[-95.3918261621549,29.7815691940968],[-95.3917925884293,29.7797223513775],[-95.3917731706315,29.7778763942506],[-95.3917566706376,29.7773998680394],[-95.3917692263616,29.7771047448025],[-95.3922463602633,29.7770994195266],[-95.3923062067925,29.7770997542142]]]},"properties":{"SEC_NAME":"NWTH116","DAY":"THURSDAY","QUAD":"NW","SERVICE_TYPE":null}},{"type":"Feature","geometry":{"type":"Polygon","coordinates":[[[-95.3807342793967,29.7847727508256],[-95.3808388966734,29.7847794211578],[-95.3821312461516,29.7847755709524],[-95.3841745192355,29.7847558742736],[-95.3843626276121,29.7848416301951],[-95.3858918281531,29.7848251943085],[-95.3877389488664,29.7847872621456],[-95.38774816522,29.7852532033459],[-95.3877652257174,29.7860566340755],[-95.3877635282879,29.78663592619],[-95.3877779452535,29.7869906042766],[-95.3861134535832,29.7870157305927],[-95.3859255481344,29.7870194359917],[-95.3843933747971,29.7870344416699],[-95.3842065904868,29.7870357657165],[-95.3821518859138,29.7870556294342],[-95.3819759796545,29.7870580563912],[-95.3807673316996,29.787066221431],[-95.3807617433582,29.7867153322959],[-95.3807546276654,29.7860046234624],[-95.3807364675082,29.785287006983],[-95.3807342793967,29.7847727508256]]]},"properties":{"SEC_NAME":"NWTH123","DAY":"THURSDAY","QUAD":"NW","SERVICE_TYPE":null}},{"type":"Feature","geometry":{"type":"Polygon","coordinates":[[[-95.3807342793967,29.7847727508256],[-95.3807316689485,29.7844225457432],[-95.3807294555863,29.7836391098754],[-95.3807232107237,29.7829298835129],[-95.3820105520172,29.7829212863748],[-95.3821069824126,29.7828191224696],[-95.3823211119498,29.7827405662866],[-95.3825131668865,29.7826800800151],[-95.3834907758105,29.7826683727171],[-95.3838446959499,29.7826369136857],[-95.3842416785958,29.7825838685114],[-95.385953940276,29.7825610104915],[-95.3876987321421,29.7825450615085],[-95.3877193384562,29.7834658074083],[-95.3877311831614,29.784378413256],[-95.3877389488345,29.7847872630474],[-95.385891828185,29.7848251934067],[-95.3843626276121,29.7848416301951],[-95.3841745192035,29.7847558751754],[-95.3821312461196,29.7847755718541],[-95.3808388966413,29.7847794220596],[-95.3807342793967,29.7847727508256]]]},"properties":{"SEC_NAME":"NWTH123","DAY":"THURSDAY","QUAD":"NW","SERVICE_TYPE":null}},{"type":"Feature","geometry":{"type":"Polygon","coordinates":[[[-95.3807232107557,29.782929882611],[-95.3807093878828,29.7822051568185],[-95.3807125681391,29.7815004425198],[-95.3807231839103,29.7814442796421],[-95.3807543536322,29.7810655778267],[-95.3808138735448,29.7805751034785],[-95.3811761588832,29.7805983466704],[-95.3820015653929,29.7806456043027],[-95.3830768184009,29.7806888942227],[-95.3842251267574,29.7807361259822],[-95.385392506021,29.7807865503345],[-95.3854088355548,29.7800506829789],[-95.385458532877,29.7794190859794],[-95.3857166358599,29.7793873759702],[-95.3863046910087,29.7794151474987],[-95.386404159638,29.7793750227551],[-95.3866173639369,29.7790832543092],[-95.3868862485086,29.7791945519591],[-95.387053375314,29.7792415554916],[-95.3870356785143,29.7794391187731],[-95.3870613240625,29.7798104773792],[-95.3871139184824,29.7801221981033],[-95.3871890390275,29.7803073695812],[-95.3876797196197,29.7801700380197],[-95.3875311232124,29.7797784362989],[-95.3878516659171,29.7796867166821],[-95.3877995982796,29.7795560735887],[-95.3882726054522,29.7794194921216],[-95.3883446112175,29.7795045176557],[-95.3883984684886,29.7796298162744],[-95.3884372312076,29.7797199864957],[-95.3884897451228,29.779842142821],[-95.388549524346,29.7800132392742],[-95.3886131141914,29.7801465962818],[-95.3886218130498,29.7802359075756],[-95.3894341148815,29.7801947627048],[-95.3907449068406,29.7801891163684],[-95.3907922925243,29.779915038922],[-95.3907880034386,29.7797146889293],[-95.3908195196532,29.7797149816208],[-95.390832891295,29.7796253116551],[-95.3910430482338,29.7796215788097],[-95.3910410667394,29.7792799439684],[-95.3910656530572,29.779279625747],[-95.3910650326173,29.7792383829081],[-95.3912946905992,29.7792354356811],[-95.3912934213698,29.779160091967],[-95.3912875345733,29.7788034960273],[-95.3915218852846,29.7787984966856],[-95.3915162685867,29.7783525025741],[-95.3912482553547,29.7783559419314],[-95.3912240693468,29.7779866329881],[-95.3912761578328,29.7778771333462],[-95.3917731706315,29.7778763942506],[-95.3917925884293,29.7797223513775],[-95.3918261621549,29.7815691940968],[-95.390692114038,29.7815931475739],[-95.3899126849789,29.7816009552717],[-95.3886200456641,29.7816145895872],[-95.3876847045616,29.7816321345586],[-95.3876987321421,29.7825450615085],[-95.3859539403079,29.7825610095898],[-95.3842416785958,29.7825838685114],[-95.3838447081315,29.782636920333],[-95.3834907758425,29.7826683718153],[-95.3825131668865,29.7826800800151],[-95.3823211119498,29.7827405662866],[-95.3821069824446,29.7828191215678],[-95.3820105520492,29.7829212854731],[-95.3807232107557,29.782929882611]]]},"properties":{"SEC_NAME":"NWTH123","DAY":"THURSDAY","QUAD":"NW","SERVICE_TYPE":null}},{"type":"Feature","geometry":{"type":"Polygon","coordinates":[[[-95.3792830827245,29.7832930193834],[-95.3807263271654,29.7832844902322],[-95.3807294555863,29.7836391098754],[-95.3807316689805,29.7844225448414],[-95.3807342793967,29.7847727508256],[-95.3807364675082,29.785287006983],[-95.3807546276654,29.7860046234624],[-95.3807617433582,29.7867153322959],[-95.3807673316996,29.787066221431],[-95.380766248873,29.7870662328112],[-95.3745618557123,29.7871215528515],[-95.3745650961095,29.7873970596474],[-95.3745603458699,29.7874718806907],[-95.3741729242859,29.7874763623126],[-95.3741487083826,29.7867756693145],[-95.3741473244043,29.7860470201577],[-95.3741364933469,29.7853538316912],[-95.3741213093454,29.784720242547],[-95.3741736352489,29.7846286390809],[-95.3748477095458,29.7846243416417],[-95.3748448344393,29.7842187460719],[-95.375035088173,29.7841934858094],[-95.3753871504485,29.7841897680596],[-95.3753856201461,29.7841511271678],[-95.3763341047816,29.7841401842418],[-95.3786497739058,29.7840773948401],[-95.378734784606,29.7840784000501],[-95.3792961397381,29.7840163011847],[-95.3792830827245,29.7832930193834]]]},"properties":{"SEC_NAME":"NWTH124","DAY":"THURSDAY","QUAD":"NW","SERVICE_TYPE":null}},{"type":"Feature","geometry":{"type":"Polygon","coordinates":[[[-95.3719254941466,29.7823873606206],[-95.3723286139941,29.7809851061496],[-95.3724361756091,29.7806673572679],[-95.3728600281765,29.7809708802116],[-95.3731218913239,29.7812387454786],[-95.3734426862456,29.7815300816976],[-95.3738875763852,29.7817611822045],[-95.3741562097217,29.7817947110631],[-95.3746471280106,29.7817617028755],[-95.3749572151984,29.781771075161],[-95.3753892990078,29.7819018185059],[-95.3758926299896,29.7819028323127],[-95.3763337413512,29.7818091339112],[-95.3773741537661,29.7813537775084],[-95.3776814172633,29.7812361731649],[-95.3785860475157,29.7808767027845],[-95.3795271194901,29.7804707950959],[-95.3796609597204,29.7803672857083],[-95.3797726028148,29.7802513689193],[-95.3800172914549,29.7799071670456],[-95.3801750042508,29.7797663659148],[-95.3803691181491,29.7796517111496],[-95.3806361214696,29.7795746010705],[-95.3809441439543,29.7795576708466],[-95.3808138735448,29.7805751034785],[-95.3807543536322,29.7810655778267],[-95.3807231839103,29.7814442796421],[-95.3807125681391,29.7815004425198],[-95.3807093878828,29.7822051568185],[-95.3807232107557,29.782929882611],[-95.3807263271654,29.7832844902322],[-95.3792830827245,29.7832930193834],[-95.3792961397381,29.7840163011847],[-95.378734784606,29.7840784000501],[-95.3786497739058,29.7840773948401],[-95.3763341047816,29.7841401842418],[-95.3753856201461,29.7841511271678],[-95.3753871504485,29.7841897680596],[-95.375035088173,29.7841934858094],[-95.3748448344393,29.7842187460719],[-95.3748477095458,29.7846243416417],[-95.3741736352489,29.7846286390809],[-95.3741213093454,29.784720242547],[-95.3740835457859,29.7848495748406],[-95.3732176814966,29.7848608394486],[-95.3731110097084,29.784868910274],[-95.3721170103268,29.7848800970187],[-95.3721044617258,29.7844654455716],[-95.3720859744452,29.7837986810806],[-95.3720608425134,29.7833699088706],[-95.3719956990408,29.7830849458164],[-95.3719312841203,29.7827794840492],[-95.3719254941466,29.7823873606206]]]},"properties":{"SEC_NAME":"NWTH124","DAY":"THURSDAY","QUAD":"NW","SERVICE_TYPE":null}},{"type":"Feature","geometry":{"type":"Polygon","coordinates":[[[-95.3692954348692,29.7848296497989],[-95.3689647285929,29.7842286096645],[-95.3688054467562,29.783806322745],[-95.3687290148357,29.7835053872853],[-95.3686589196098,29.7831491982458],[-95.3687049034395,29.7826901601515],[-95.3687300198269,29.7822462854818],[-95.3688352556184,29.7815793683983],[-95.3689418779018,29.780992602616],[-95.3690955377987,29.780546081181],[-95.3692105716881,29.7802859435909],[-95.3695644927559,29.7795735039398],[-95.3696674520949,29.7794094675031],[-95.3700703185325,29.7795475547331],[-95.3704171274201,29.7796926211302],[-95.3711053271757,29.7800200892419],[-95.3724361756091,29.7806673572679],[-95.3723286139941,29.7809851061496],[-95.3719254941466,29.7823873606206],[-95.3719312841203,29.7827794840492],[-95.3719956990408,29.7830849458164],[-95.3720608425134,29.7833699088706],[-95.3720859744452,29.7837986810806],[-95.3721044617258,29.7844654455716],[-95.3721170133641,29.7848800989062],[-95.3731110097084,29.784868910274],[-95.3732176814966,29.7848608394486],[-95.3740835457859,29.7848495748406],[-95.3741213093454,29.784720242547],[-95.3741364933469,29.7853538316912],[-95.3741473244043,29.7860470201577],[-95.3741487083826,29.7867756693145],[-95.3741729242859,29.7874763623126],[-95.3741749995625,29.7885693346089],[-95.3741781148835,29.789402798869],[-95.3741843623839,29.7897741290796],[-95.3741923521321,29.7901307163306],[-95.3741961562879,29.7906326202047],[-95.3727554535915,29.7906429379155],[-95.372115871781,29.7901799010385],[-95.3721343418243,29.7897923427301],[-95.3721163075403,29.7889832197386],[-95.3721702896746,29.7885959012729],[-95.3721310040812,29.7882272500306],[-95.3718523460166,29.7879043146843],[-95.3715901296152,29.7876283341886],[-95.3703390389931,29.7862362280248],[-95.3702091220882,29.7861849400384],[-95.3697224333579,29.7854630298064],[-95.3692954348692,29.7848296497989]]]},"properties":{"SEC_NAME":"NWTH124","DAY":"THURSDAY","QUAD":"NW","SERVICE_TYPE":null}},{"type":"Feature","geometry":{"type":"Polygon","coordinates":[[[-95.3735831542813,29.7677922617012],[-95.3731902538399,29.767751977867],[-95.3731973326493,29.7673701539836],[-95.3735764587711,29.7674161400105],[-95.3735831542813,29.7677922617012]]]},"properties":{"SEC_NAME":"NOSERV","DAY":"NONE","QUAD":"NA","SERVICE_TYPE":"CR"}},{"type":"Feature","geometry":{"type":"Polygon","coordinates":[[[-95.3679465233015,29.7737755823059],[-95.3683638489696,29.7737702027384],[-95.3685985097635,29.7737800711715],[-95.3690041880128,29.7737836678181],[-95.3689808487268,29.7722860312814],[-95.3723851604898,29.7722410053682],[-95.3723892525176,29.7722441211016],[-95.3723896767747,29.7723068125913],[-95.3723850767242,29.7729925294231],[-95.3723914387358,29.7733627283175],[-95.3735969450682,29.7733612757282],[-95.3736088974181,29.7737316301939],[-95.3736271971319,29.7744721728872],[-95.3736312957186,29.7748277033206],[-95.3736353953675,29.7751832337457],[-95.3736337337414,29.7759326859465],[-95.3736427334417,29.7762579327659],[-95.3724256286187,29.7763053305511],[-95.3724415111006,29.7778261594275],[-95.3718628900621,29.777573685799],[-95.3714029474725,29.7773358126809],[-95.3709324191805,29.777122177489],[-95.3704535751732,29.7768642744835],[-95.3701137637939,29.7766419462035],[-95.3698022882557,29.776387385931],[-95.3694791420399,29.7760945896664],[-95.3692570279923,29.7757655410221],[-95.3689105525108,29.7752739514255],[-95.3687522050615,29.7750356780972],[-95.3685938583517,29.7747974045658],[-95.3683405589466,29.7744241000138],[-95.3680421511746,29.7739417068285],[-95.3679465233015,29.7737755823059]]]},"properties":{"SEC_NAME":"NWMO106","DAY":"MONDAY","QUAD":"NW","SERVICE_TYPE":null}},{"type":"Feature","geometry":{"type":"Polygon","coordinates":[[[-95.3736353953675,29.7751832337457],[-95.3736312957186,29.7748277033206],[-95.3736271971319,29.7744721728872],[-95.3736088974181,29.7737316301939],[-95.3735969450682,29.7733612757282],[-95.3737184229507,29.7733380002326],[-95.3758830571054,29.773340364359],[-95.3758868238408,29.7737056289821],[-95.375895899288,29.7740783279258],[-95.3781540462514,29.7740590547309],[-95.3781548545413,29.774429101675],[-95.3781715425095,29.7751379617911],[-95.3792711474113,29.7751336018571],[-95.3803545416811,29.7751141855163],[-95.3814867645067,29.775106529842],[-95.3814187198636,29.7755518594551],[-95.3813881725174,29.7759063125129],[-95.3813460487093,29.7763057330703],[-95.3813333711458,29.7766066795865],[-95.381248431387,29.7771999987381],[-95.3810023584509,29.7772774431252],[-95.3804337158041,29.7775287970869],[-95.3800788467301,29.777716253016],[-95.3797144798641,29.7779383609248],[-95.3792524698499,29.7781934091609],[-95.3789580059782,29.7784245237723],[-95.3779553558487,29.7786982041405],[-95.377311590431,29.7788253804765],[-95.3766143431627,29.7789029157126],[-95.375936773994,29.7788708260281],[-95.3755180916211,29.7788530632549],[-95.3743132595656,29.7786096747997],[-95.3736155412959,29.7783239906753],[-95.3724415111006,29.7778261594275],[-95.3724256286187,29.7763053305511],[-95.3736427334417,29.7762579327659],[-95.3736337337414,29.7759326859465],[-95.3736353953675,29.7751832337457]]]},"properties":{"SEC_NAME":"NWMO106","DAY":"MONDAY","QUAD":"NW","SERVICE_TYPE":null}},{"type":"Feature","geometry":{"type":"Polygon","coordinates":[[[-95.3718687017851,29.767606443644],[-95.371872648768,29.7672211814903],[-95.3721612776866,29.7672743184704],[-95.3723263856443,29.7672792413854],[-95.3723273382025,29.7676090582079],[-95.3718687017851,29.767606443644]]]},"properties":{"SEC_NAME":"NWMO106","DAY":"MONDAY","QUAD":"NW","SERVICE_TYPE":null}},{"type":"Feature","geometry":{"type":"Polygon","coordinates":[[[-95.3723369330112,29.7682861967724],[-95.3723284248588,29.7679853161773],[-95.3728094577195,29.7680328182201],[-95.3728294475007,29.7683326537171],[-95.3723369330112,29.7682861967724]]]},"properties":{"SEC_NAME":"NWMO106","DAY":"MONDAY","QUAD":"NW","SERVICE_TYPE":null}},{"type":"Feature","geometry":{"type":"Polygon","coordinates":[[[-95.4163243778738,29.7659332976451],[-95.4162932328356,29.7651524984571],[-95.4166127774609,29.7651495124103],[-95.416612793226,29.7651513018923],[-95.4166185309987,29.7655404360531],[-95.4172463658535,29.7655246647643],[-95.4172440279971,29.7651330986763],[-95.4176269569446,29.7651165789018],[-95.4176322433508,29.7651164413061],[-95.4176192007229,29.7643968940276],[-95.4184208567799,29.7643815542356],[-95.4192425753221,29.7643628751815],[-95.4201261683104,29.7643648964017],[-95.4205315224547,29.7643465140929],[-95.4209784751978,29.7643457529489],[-95.4216449645424,29.7643533993306],[-95.4217281286629,29.7658765695405],[-95.4217434453587,29.7666143184765],[-95.4217766907549,29.7673695645912],[-95.4210149618156,29.7673836373007],[-95.4201662320143,29.7673842103464],[-95.419282863635,29.7673921108322],[-95.4184533844491,29.7673964830078],[-95.4176818859095,29.7674229137333],[-95.4176547567888,29.7674238430643],[-95.4175640808392,29.7674244465181],[-95.4163326762616,29.7674326352915],[-95.41632466038,29.7666899701872],[-95.4163243778738,29.7659332976451]]]},"properties":{"SEC_NAME":"NWMO109","DAY":"MONDAY","QUAD":"NW","SERVICE_TYPE":null}},{"type":"Feature","geometry":{"type":"Polygon","coordinates":[[[-95.416612793226,29.7651513018923],[-95.4166127774609,29.7651495124103],[-95.4162932328356,29.7651524984571],[-95.4162877388117,29.764499351549],[-95.416282883002,29.764394177989],[-95.4162570821149,29.7634713577653],[-95.4162576294462,29.7630768445998],[-95.4162520194591,29.762746957476],[-95.416216785639,29.7614872735901],[-95.4169430238392,29.7614161333312],[-95.4175698985567,29.7613825820988],[-95.4183861896816,29.76137422017],[-95.4183763648922,29.7604821806619],[-95.4183721769356,29.7575812767705],[-95.4189184777672,29.7581307684306],[-95.4192255848968,29.7587025783377],[-95.419283655127,29.7588078732124],[-95.419921595147,29.7591999940655],[-95.4199575292589,29.7597259508129],[-95.4200732460917,29.7597236761565],[-95.4200845338338,29.7602296304101],[-95.4204775614508,29.7602478695203],[-95.4204975072848,29.7606528158928],[-95.4205023327007,29.7607265138333],[-95.4200956417851,29.7607280642838],[-95.4200815282378,29.7613596364433],[-95.4209268096608,29.7613641291257],[-95.4214751679259,29.761327103084],[-95.4215274835706,29.7613943560329],[-95.4215903319581,29.7628404645263],[-95.4216449645424,29.7643533993306],[-95.4209784751978,29.7643457529489],[-95.4205315224547,29.7643465140929],[-95.4201261683104,29.7643648964017],[-95.4192425753221,29.7643628751815],[-95.4184208567799,29.7643815542356],[-95.4176192007229,29.7643968940276],[-95.4176322433508,29.7651164413061],[-95.4176269569446,29.7651165789018],[-95.4172440279971,29.7651330986763],[-95.4172463658535,29.7655246647643],[-95.4166185309987,29.7655404360531],[-95.416612793226,29.7651513018923]],[[-95.4191329174294,29.7622510896672],[-95.4191244222512,29.7618326376215],[-95.4184468015449,29.7618382873493],[-95.4184549262039,29.7623886715078],[-95.4186649371703,29.7623891033015],[-95.4186612236864,29.7622517383048],[-95.4191329174294,29.7622510896672]]]},"properties":{"SEC_NAME":"NWMO109","DAY":"MONDAY","QUAD":"NW","SERVICE_TYPE":null}},{"type":"Feature","geometry":{"type":"Polygon","coordinates":[[[-95.416282883002,29.764394177989],[-95.4162877388117,29.764499351549],[-95.4162932328356,29.7651524984571],[-95.4163243778738,29.7659332976451],[-95.41632466038,29.7666899701872],[-95.4163326762616,29.7674326352915],[-95.4152460884548,29.7674521715924],[-95.4133881769248,29.7674679160456],[-95.413365220515,29.766751276431],[-95.4133708774256,29.7666377673867],[-95.4133541350326,29.766015080639],[-95.4133562206482,29.7656777683517],[-95.4114544103713,29.7656851864283],[-95.4114405785288,29.7653233567398],[-95.4114196593784,29.7638742059414],[-95.412384161885,29.7638497857532],[-95.4133083614976,29.7638306986716],[-95.4133939431572,29.7637561246304],[-95.4133837663018,29.763435393362],[-95.4133350512438,29.7631860307352],[-95.4139816484654,29.7629317830581],[-95.4145980607802,29.7625314305819],[-95.4155830251151,29.7617168679762],[-95.416216785639,29.7614872735901],[-95.4162520194591,29.762746957476],[-95.4162576294462,29.7630768445998],[-95.4162570821149,29.7634713577653],[-95.416282883002,29.764394177989]]]},"properties":{"SEC_NAME":"NWMO109","DAY":"MONDAY","QUAD":"NW","SERVICE_TYPE":null}},{"type":"Feature","geometry":{"type":"Polygon","coordinates":[[[-95.4289146589636,29.7825358724287],[-95.4277266939968,29.7824906746211],[-95.4267383998842,29.7824665798117],[-95.4266441046995,29.7824268406133],[-95.4266367473339,29.782396752385],[-95.4266186884458,29.7819343907407],[-95.4266010272633,29.7812074681977],[-95.4265947797652,29.7808454166206],[-95.4265895624562,29.7808456268394],[-95.4265947441751,29.780843331458],[-95.4265884611634,29.7804791937782],[-95.4265812777955,29.7797615253126],[-95.4265776637268,29.7790196868749],[-95.4279042991171,29.7790190439133],[-95.4279601885747,29.7790222422397],[-95.4280682694919,29.7790826440745],[-95.4289373571377,29.7795580593549],[-95.4304632028925,29.7803796493945],[-95.4311931733371,29.7807985518443],[-95.431160826144,29.7807988494965],[-95.4311619769582,29.7808112048786],[-95.4311790106295,29.7811545585666],[-95.4309579236641,29.7811584243669],[-95.4309584369252,29.7815200806856],[-95.4288943257627,29.7815472798208],[-95.4289003872202,29.781909500253],[-95.4289146589636,29.7825358724287]]]},"properties":{"SEC_NAME":"NWTH108","DAY":"THURSDAY","QUAD":"NW","SERVICE_TYPE":null}},{"type":"Feature","geometry":{"type":"Polygon","coordinates":[[[-95.3975869808908,29.7851610469704],[-95.3975597274381,29.7833725401176],[-95.3993814854265,29.783379809201],[-95.3994263191379,29.7851399076168],[-95.3999727961872,29.7851287955752],[-95.4010732597272,29.7851170837812],[-95.4021776331837,29.7851042574603],[-95.4032780909199,29.7850916798367],[-95.4033112933272,29.7869239477745],[-95.4033430300557,29.7887549676258],[-95.4022374235186,29.7887882345996],[-95.4011533604079,29.7887999992818],[-95.4000415983151,29.7888193291948],[-95.3989375166097,29.7888206190614],[-95.3987971482877,29.7888323508092],[-95.3976609920605,29.7888588740083],[-95.3976249078757,29.7870136654355],[-95.3975869808908,29.7851610469704]]]},"properties":{"SEC_NAME":"NWTH115","DAY":"THURSDAY","QUAD":"NW","SERVICE_TYPE":null}},{"type":"Feature","geometry":{"type":"Polygon","coordinates":[[[-95.3877590737532,29.7857672276173],[-95.3919105583291,29.7857167578416],[-95.3919355801011,29.7870427620641],[-95.3919491161499,29.7870970600436],[-95.3930389765603,29.7870884797306],[-95.3941400715215,29.7870596456975],[-95.3952524957309,29.7870448646781],[-95.3963412872652,29.7870294372332],[-95.3976249109135,29.7870136673224],[-95.397660998168,29.7888588768805],[-95.3963708893048,29.7888777066945],[-95.3952723967044,29.7889005248891],[-95.3941711506346,29.7889125726068],[-95.3930665828243,29.7889275566181],[-95.3919740767765,29.7889359789053],[-95.3899287215475,29.7889617170346],[-95.3884824473509,29.7889729719004],[-95.3878840171785,29.7889885942199],[-95.3878096354603,29.7888984228625],[-95.3877944392015,29.7880501675643],[-95.3877884618831,29.7872496067741],[-95.3877779452535,29.7869906042766],[-95.3877635282879,29.78663592619],[-95.3877652257174,29.7860566340755],[-95.3877590737532,29.7857672276173]]]},"properties":{"SEC_NAME":"NWTH116","DAY":"THURSDAY","QUAD":"NW","SERVICE_TYPE":null}},{"type":"Feature","geometry":{"type":"Polygon","coordinates":[[[-95.3919105583291,29.7857167578416],[-95.3919012487279,29.7852556342668],[-95.3918581626357,29.7834092659525],[-95.3929691644038,29.783390129374],[-95.3940637536744,29.7833762648616],[-95.3951621578553,29.7833489839972],[-95.3957177680931,29.7833412845493],[-95.3956965012766,29.7814965187479],[-95.3962314329339,29.7814966108884],[-95.3975198469148,29.7814718874186],[-95.3975590072492,29.7833252577976],[-95.3975869808908,29.7851610469704],[-95.3976249109135,29.7870136673224],[-95.3963412872652,29.7870294372332],[-95.3952524957309,29.7870448646781],[-95.3941400715215,29.7870596456975],[-95.3930389765603,29.7870884797306],[-95.3919491161499,29.7870970600436],[-95.3919355801011,29.7870427620641],[-95.3919105583291,29.7857167578416]]]},"properties":{"SEC_NAME":"NWTH116","DAY":"THURSDAY","QUAD":"NW","SERVICE_TYPE":null}},{"type":"Feature","geometry":{"type":"Polygon","coordinates":[[[-95.3923062067925,29.7770997542142],[-95.3928443591036,29.7771027598662],[-95.3939524868154,29.7770758327205],[-95.394643261325,29.7770670175354],[-95.3950517441642,29.7770627780792],[-95.3961571932135,29.7770611280238],[-95.3969042362469,29.7770296321323],[-95.3974432451321,29.7769577129131],[-95.3974539844932,29.7777986835267],[-95.3974911396016,29.7796429565413],[-95.3975198469148,29.7814718874186],[-95.3962314329339,29.7814966108884],[-95.3956965012766,29.7814965187479],[-95.3956966848257,29.7815124356846],[-95.3956823913586,29.7814965166007],[-95.3951333498161,29.7814964191628],[-95.394032122987,29.7815119375498],[-95.392933175587,29.7815494138926],[-95.3923853117292,29.7815589763639],[-95.392346839798,29.7797108747825],[-95.3923210087013,29.7778666255936],[-95.3923062067925,29.7770997542142]]]},"properties":{"SEC_NAME":"NWTH116","DAY":"THURSDAY","QUAD":"NW","SERVICE_TYPE":null}}]}