{"type": "FeatureCollection", "features": [{"type": "Feature", "id": 1, "geometry": {"type": "LineString", "coordinates": [[-95.3735414889884, 29.7412492325214], [-95.3726840361451, 29.7407365198141]]}, "properties": {"OBJECTID": 1, "Id": 0, "BLOCK": "1300", "STREET": "ANITA (SOUTH SIDE)", "TIME": "8AM-6PM", "DAYS": "MON-FRI", "zip": "77004", "APP_": " ", "Type": "Existing", "CHKD": "OK", "AREA": null, "Shape__Length": 329.8479773960089}}, {"type": "Feature", "id": 2, "geometry": {"type": "LineString", "coordinates": [[-95.3660494166311, 29.7267604647897], [-95.3643550079759, 29.7257155818518]]}, "properties": {"OBJECTID": 2, "Id": 0, "BLOCK": "2800-2900", "STREET": "CLEBURN", "TIME": "9AM-8PM", "DAYS": "MON-FRI", "zip": "77004", "APP_": " ", "Type": "Existing", "CHKD": "OK", "AREA": null, "Shape__Length": 658.4607261971018}}, {"type": "Feature", "id": 3, "geometry": {"type": "LineString", "coordinates": [[-95.4013610598753, 29.723987091285], [-95.403331870832, 29.7239674639172], [-95.4034251956213, 29.7239747764925]]}, "properties": {"OBJECTID": 3, "Id": 0, "BLOCK": "1700", "STREET": "ALBANS", "TIME": "9AM-4PM", "DAYS": "MON-FRI", "zip": "77005", "APP_": " ", "Type": "Existing", "CHKD": "OK", "AREA": null, "Shape__Length": 655.2991398580202}}, {"type": "Feature", "id": 15, "geometry": {"type": "LineString", "coordinates": [[-95.4007862107438, 29.7257058706516], [-95.4007620010799, 29.724633360734], [-95.4007433542319, 29.7239888078234], [-95.4007295485245, 29.7231955393854]]}, "properties": {"OBJECTID": 15, "Id": 0, "BLOCK": "5300", "STREET": "CHEROKEE", "TIME": "9AM-6PM", "DAYS": "MON-FRI", "zip": "77005", "APP_": "03151128172", "Type": "Existing", "CHKD": "OK", "AREA": null, "Shape__Length": 913.019856381387}}, {"type": "Feature", "id": 19, "geometry": {"type": "LineString", "coordinates": [[-95.3994463406442, 29.7257308359941], [-95.3995329319538, 29.7256927519937], [-95.3995914633824, 29.7256468440269], [-95.3995423677915, 29.7231985295636]]}, "properties": {"OBJECTID": 19, "Id": 0, "BLOCK": "5300", "STREET": "MANDELL", "TIME": "9AM-6PM,9AM-8PM", "DAYS": "MON-FRI, MON-SUN", "zip": "77005", "APP_": "050511-28-175", "Type": "Existing", "CHKD": "OK", "AREA": null, "Shape__Length": 946.1717716098598}}, {"type": "Feature", "id": 28, "geometry": {"type": "LineString", "coordinates": [[-95.3859366995945, 29.7434970887789], [-95.3872255216304, 29.7434653405422]]}, "properties": {"OBJECTID": 28, "Id": 0, "BLOCK": "400", "STREET": "LOVETT (NORTH SIDE)", "TIME": "12PM-12AM,6PM-12AM", "DAYS": "SUN, MON-SAT", "zip": "77006", "APP_": " ", "Type": "Existing", "CHKD": "OK", "AREA": null, "Shape__Length": 409.14601379349557}}, {"type": "Feature", "id": 31, "geometry": {"type": "LineString", "coordinates": [[-95.3977738427668, 29.7441790352788], [-95.398754936368, 29.7437167980388]]}, "properties": {"OBJECTID": 31, "Id": 0, "BLOCK": "1700", "STREET": "MISSOURI", "TIME": "6PM-12AM", "DAYS": "MON-SUN", "zip": "77006", "APP_": " ", "Type": "Existing", "CHKD": "OK", "AREA": null, "Shape__Length": 353.8063074308938}}, {"type": "Feature", "id": 32, "geometry": {"type": "LineString", "coordinates": [[-95.398754936368, 29.7437167980388], [-95.3995806140514, 29.7433265114694]]}, "properties": {"OBJECTID": 32, "Id": 0, "BLOCK": "1800", "STREET": "MISSOURI", "TIME": "6PM-12AM, 9AM-12AM", "DAYS": "MON-FRI, SAT-SUN", "zip": "77006", "APP_": "021214-24-231", "Type": "Existing", "CHKD": "OK", "AREA": null, "Shape__Length": 297.9806369407104}}, {"type": "Feature", "id": 33, "geometry": {"type": "LineString", "coordinates": [[-95.3991664028186, 29.7443773539722], [-95.398754936368, 29.7437167980388]]}, "properties": {"OBJECTID": 33, "Id": 0, "BLOCK": "2600", "STREET": "RIDGEWOOD", "TIME": "6PM-12AM", "DAYS": "MON-SUN", "zip": "77006", "APP_": " ", "Type": "Existing", "CHKD": "OK", "AREA": null, "Shape__Length": 273.3950222791193}}, {"type": "Feature", "id": 35, "geometry": {"type": "LineString", "coordinates": [[-95.3859366995945, 29.7434970887789], [-95.3859409331952, 29.7424270795138]]}, "properties": {"OBJECTID": 35, "Id": 0, "BLOCK": "3300", "STREET": "TAFT(WEST SIDE)", "TIME": "12PM-12AM, 6PM-12AM", "DAYS": "SUN, MON-SAT", "zip": "77006", "APP_": " ", "Type": "Existing", "CHKD": "OK", "AREA": null, "Shape__Length": 389.0936344926299}}, {"type": "Feature", "id": 85, "geometry": {"type": "LineString", "coordinates": [[-95.3685233122946, 29.723634581168], [-95.3668305317901, 29.722607776863]]}, "properties": {"OBJECTID": 85, "Id": 0, "BLOCK": "2800-2900", "STREET": "RUTH", "TIME": "9AM-8PM", "DAYS": "MON-FRI", "zip": "77004", "APP_": "3210767109", "Type": "Existing", "CHKD": "OK", "AREA": null, "Shape__Length": 654.2782400998744}}, {"type": "Feature", "id": 86, "geometry": {"type": "LineString", "coordinates": [[-95.3680541076086, 29.7242423652543], [-95.3663495959925, 29.7232200348208]]}, "properties": {"OBJECTID": 86, "Id": 0, "BLOCK": "2800-2900", "STREET": "ROSEWOOD", "TIME": "9AM-8PM", "DAYS": "MON-FRI", "zip": "77004", "APP_": "4040767111", "Type": "Existing", "CHKD": "OK", "AREA": null, "Shape__Length": 656.4139028463464}}, {"type": "Feature", "id": 87, "geometry": {"type": "LineString", "coordinates": [[-95.3665642423253, 29.7261271480244], [-95.3648496743943, 29.7251062444859]]}, "properties": {"OBJECTID": 87, "Id": 0, "BLOCK": "2800-2900", "STREET": "EAGLE", "TIME": "9AM-8PM", "DAYS": "MON-FRI", "zip": "77004", "APP_": "260767107", "Type": "Existing", "CHKD": "OK", "AREA": null, "Shape__Length": 658.7462405339819}}, {"type": "Feature", "id": 90, "geometry": {"type": "LineString", "coordinates": [[-95.3963705800611, 29.7440827373914], [-95.3963667517231, 29.744033130504], [-95.3963811877593, 29.743978125909], [-95.3973490266022, 29.7435172609629]]}, "properties": {"OBJECTID": 90, "Id": 0, "BLOCK": "1600", "STREET": "CALIFORNIA", "TIME": "5PM-5AM", "DAYS": "MON-SUN", "zip": "77006", "APP_": "1090823125", "Type": "Existing", "CHKD": "OK", "AREA": null, "Shape__Length": 388.4710906560824}}, {"type": "Feature", "id": 92, "geometry": {"type": "LineString", "coordinates": [[-95.393684522048, 29.7335936957622], [-95.3946648315236, 29.7335819985324]]}, "properties": {"OBJECTID": 92, "Id": 0, "BLOCK": "1200", "STREET": "BONNIE BRAE", "TIME": "4PM-7AM", "DAYS": "MON-SUN", "zip": "77006", "APP_": "1020824123", "Type": "Existing", "CHKD": "OK", "AREA": null, "Shape__Length": 311.14175550676316}}, {"type": "Feature", "id": 115, "geometry": {"type": "LineString", "coordinates": [[-95.3670463355196, 29.725515263847], [-95.3653312458298, 29.7244810907828]]}, "properties": {"OBJECTID": 115, "Id": null, "BLOCK": "2800-2900", "STREET": "BARBEE", "TIME": "9AM-8PM", "DAYS": "MON-FRI", "zip": "77004", "APP_": "04010867127", "Type": "Existing", "CHKD": "OK", "AREA": null, "Shape__Length": 661.6163990278052}}, {"type": "Feature", "id": 204, "geometry": {"type": "LineString", "coordinates": [[-95.3801408831692, 29.7250137992333], [-95.378368613014, 29.7239429429036]]}, "properties": {"OBJECTID": 204, "Id": null, "BLOCK": "1800", "STREET": "PALM (SOUTH SIDE)", "TIME": "5PM-3AM", "DAYS": "WED-SUN", "zip": "77004", "APP_": "10151066167", "Type": "Existing", "CHKD": "OK", "AREA": null, "Shape__Length": 684.1326907723148}}, {"type": "Feature", "id": 208, "geometry": {"type": "LineString", "coordinates": [[-95.3975445749341, 29.742017831161], [-95.3993607303191, 29.7420005635723]]}, "properties": {"OBJECTID": 208, "Id": null, "BLOCK": "1500", "STREET": "HAWTHORNE", "TIME": "11PM-6AM", "DAYS": "WED-SUN", "zip": "77006", "APP_": "042911-24-174", "Type": "Existing", "CHKD": "OK", "AREA": null, "Shape__Length": 576.3648069238146}}, {"type": "Feature", "id": 210, "geometry": {"type": "LineString", "coordinates": [[-95.4012865898945, 29.7437778227446], [-95.4020928456582, 29.743769648027]]}, "properties": {"OBJECTID": 210, "Id": null, "BLOCK": "1800", "STREET": "MISSOURI", "TIME": "5PM-5AM", "DAYS": "MON-SUN", "zip": "77006", "APP_": "081711-24-184", "Type": "Existing", "CHKD": "OK", "AREA": null, "Shape__Length": 255.86643199021333}}, {"type": "Feature", "id": 211, "geometry": {"type": "LineString", "coordinates": [[-95.4004609088496, 29.7437283393388], [-95.4011998670346, 29.7437332991365], [-95.4012865898945, 29.7437778227446]]}, "properties": {"OBJECTID": 211, "Id": null, "BLOCK": "1800", "STREET": "MISSOURI", "TIME": "5PM-5AM", "DAYS": "MON-SUN", "zip": "77006", "APP_": "081711-24-184", "Type": "Existing", "CHKD": "OK", "AREA": null, "Shape__Length": 266.4296885775617}}, {"type": "Feature", "id": 212, "geometry": {"type": "LineString", "coordinates": [[-95.3739865874826, 29.7406814391306], [-95.3731356165273, 29.7401621183256]]}, "properties": {"OBJECTID": 212, "Id": null, "BLOCK": "1300", "STREET": "ROSALIE", "TIME": "7PM-7AM", "DAYS": "MON-SUN", "zip": "77004", "APP_": "120121-62-357", "Type": "Existing", "CHKD": "OK", "AREA": null, "Shape__Length": 329.52555591449016}}, {"type": "Feature", "id": 229, "geometry": {"type": "LineString", "coordinates": [[-95.3714762160503, 29.7263083559643], [-95.3700829483815, 29.7254761363669], [-95.3697586244432, 29.7252787140517]]}, "properties": {"OBJECTID": 229, "Id": null, "BLOCK": "2400-2500", "STREET": "ROSEWOOD", "TIME": "5PM-2AM", "DAYS": "MON-SUN", "zip": "77004", "APP_": "120512-67-209 ", "Type": "Existing", "CHKD": "OK", "AREA": null, "Shape__Length": 661.3361899882906}}, {"type": "Feature", "id": 232, "geometry": {"type": "LineString", "coordinates": [[-95.3869206435187, 29.7334299786771], [-95.3869557607056, 29.7334077967431], [-95.3870004390777, 29.7334047953266], [-95.3878641045532, 29.7334058418705]]}, "properties": {"OBJECTID": 232, "Id": null, "BLOCK": "600", "STREET": "OAKLEY", "TIME": "11AM-11PM", "DAYS": "TUE-SUN", "zip": "77006", "APP_": "041713-24-218", "Type": "Existing", "CHKD": "OK", "AREA": null, "Shape__Length": 302.073799529768}}, {"type": "Feature", "id": 234, "geometry": {"type": "LineString", "coordinates": [[-95.3957611956472, 29.7412888914345], [-95.3975300653758, 29.7412693920377]]}, "properties": {"OBJECTID": 234, "Id": null, "BLOCK": "1400", "STREET": "HAROLD", "TIME": "11PM-6AM", "DAYS": "WED-SUN", "zip": "77006", "APP_": "061913-24-223", "Type": "Existing", "CHKD": "OK", "AREA": "WAMM CIVIC CLUB", "Shape__Length": 561.373982261615}}, {"type": "Feature", "id": 235, "geometry": {"type": "LineString", "coordinates": [[-95.3957717844031, 29.7423169027794], [-95.3957611956472, 29.7412888914345]]}, "properties": {"OBJECTID": 235, "Id": null, "BLOCK": "3400", "STREET": "YUPON", "TIME": "11PM-6AM", "DAYS": "WED-SUN", "zip": "77006", "APP_": "061913-24-223", "Type": "Existing", "CHKD": "OK", "AREA": "WAMM CIVIC CLUB", "Shape__Length": 373.8344430813026}}, {"type": "Feature", "id": 236, "geometry": {"type": "LineString", "coordinates": [[-95.394792920865, 29.7423248643693], [-95.3957717844031, 29.7423169027794]]}, "properties": {"OBJECTID": 236, "Id": null, "BLOCK": "1300", "STREET": "HAWTHORNE", "TIME": "11PM-6AM", "DAYS": "WED-SUN", "zip": "77006", "APP_": "061913-24-223", "Type": "Existing", "CHKD": "OK", "AREA": "WAMM CIVIC CLUB", "Shape__Length": 310.64070668130745}}, {"type": "Feature", "id": 237, "geometry": {"type": "LineString", "coordinates": [[-95.3957717844031, 29.7423169027794], [-95.397547804675, 29.7423075460175]]}, "properties": {"OBJECTID": 237, "Id": null, "BLOCK": "1400", "STREET": "HAWTHORNE", "TIME": "11PM-6AM", "DAYS": "WED-SUN", "zip": "77006", "APP_": "061913-24-223", "Type": "Existing", "CHKD": "OK", "AREA": "WAMM CIVIC CLUB", "Shape__Length": 563.6029030596561}}, {"type": "Feature", "id": 242, "geometry": {"type": "LineString", "coordinates": [[-95.3878728114413, 29.7344791358871], [-95.3878704630182, 29.7343141369458], [-95.3878641045532, 29.7334058418705]]}, "properties": {"OBJECTID": 242, "Id": null, "BLOCK": "4300", "STREET": "GREELEY (WEST SIDE)", "TIME": "11AM-11PM", "DAYS": "TUE-SUN", "zip": "77006", "APP_": "011414-24-230", "Type": "Existing", "CHKD": "OK", "AREA": null, "Shape__Length": 390.2955904361409}}, {"type": "Feature", "id": 255, "geometry": {"type": "LineString", "coordinates": [[-95.4016945856044, 29.7246623944961], [-95.4033877027609, 29.7246466045457], [-95.4034155906924, 29.724682896786], [-95.4034350207016, 29.724737657064]]}, "properties": {"OBJECTID": 255, "Id": null, "BLOCK": "1700", "STREET": "WROXTON", "TIME": "9AM-6PM", "DAYS": "MON-FRI", "zip": "77005", "APP_": "090414-28-238 ", "Type": "Existing", "CHKD": "OK", "AREA": null, "Shape__Length": 574.1443653555679}}, {"type": "Feature", "id": 261, "geometry": {"type": "LineString", "coordinates": [[-95.3721794729888, 29.7267198123549], [-95.3714762160503, 29.7263083559643]]}, "properties": {"OBJECTID": 261, "Id": null, "BLOCK": "2300", "STREET": "ROSEWOOD", "TIME": "5PM-2AM", "DAYS": "MON-SUN", "zip": "77004", "APP_": null, "Type": "Existing", "CHKD": "OK", "AREA": null, "Shape__Length": 268.7099059857573}}, {"type": "Feature", "id": 286, "geometry": {"type": "LineString", "coordinates": [[-95.3820885374541, 29.722529472208], [-95.3821864107752, 29.7224398355267], [-95.3822715855394, 29.7223321381347], [-95.3827892702082, 29.7216794304489]]}, "properties": {"OBJECTID": 286, "Id": null, "BLOCK": "5500", "STREET": "CHENEVERT", "TIME": "10AM-10PM", "DAYS": "MON-SUN", "zip": "77004", "APP_": "061616-66-270", "Type": "Existing", "CHKD": "OK", "AREA": null, "Shape__Length": 381.2852229011488}}, {"type": "Feature", "id": 289, "geometry": {"type": "LineString", "coordinates": [[-95.3709739635675, 29.7269468191941], [-95.3700509797311, 29.7263747206748], [-95.3692636664734, 29.7259046213163]]}, "properties": {"OBJECTID": 289, "Id": null, "BLOCK": "2400-2500", "STREET": "WHEELER", "TIME": "6PM-3AM", "DAYS": "MON-SUN", "zip": "77004", "APP_": "102516-67-278", "Type": "Existing", "CHKD": "OK", "AREA": null, "Shape__Length": 662.0507078085078}}, {"type": "Feature", "id": 296, "geometry": {"type": "LineString", "coordinates": [[-95.374714765999, 29.7253770047603], [-95.373018950565, 29.7243500884204]]}, "properties": {"OBJECTID": 296, "Id": null, "BLOCK": "2200-2300", "STREET": "WENTWORTH", "TIME": "6PM-3AM", "DAYS": "MON-SUN", "zip": "77004", "APP_": "032717-66-284", "Type": "Existing", "CHKD": "OK", "AREA": null, "Shape__Length": 655.0852592851942}}, {"type": "Feature", "id": 301, "geometry": {"type": "LineString", "coordinates": [[-95.3791416951552, 29.7262872901441], [-95.3778295297219, 29.7255139282549]]}, "properties": {"OBJECTID": 301, "Id": null, "BLOCK": "1800", "STREET": "ROSEDALE", "TIME": "5PM-3AM", "DAYS": "THUR-SUN", "zip": "77004", "APP_": "022318-66-299", "Type": "Existing", "CHKD": "OK", "AREA": null, "Shape__Length": 502.51875514145706}}, {"type": "Feature", "id": 306, "geometry": {"type": "LineString", "coordinates": [[-95.3735586049093, 29.7236804373999], [-95.3719044912802, 29.7226724884602], [-95.3718491605367, 29.7226800083593], [-95.371789140445, 29.7227135147092]]}, "properties": {"OBJECTID": 306, "Id": null, "BLOCK": "2400-2500", "STREET": "ARBOR", "TIME": "6PM-3AM", "DAYS": "MON-SUN", "zip": "77004", "APP_": "0501118-67-308", "Type": "Existing", "CHKD": "OK", "AREA": null, "Shape__Length": 680.6752231717101}}, {"type": "Feature", "id": 307, "geometry": {"type": "LineString", "coordinates": [[-95.3751984504786, 29.7246596861351], [-95.3735586049093, 29.7236804373999]]}, "properties": {"OBJECTID": 307, "Id": null, "BLOCK": "2200-2300", "STREET": "ARBOR", "TIME": "6PM-3AM", "DAYS": "MON-SUN", "zip": "77004", "APP_": "0501118-67-309", "Type": "Existing", "CHKD": "OK", "AREA": null, "Shape__Length": 630.6254701316535}}, {"type": "Feature", "id": 329, "geometry": {"type": "LineString", "coordinates": [[-95.3675428427515, 29.724883910913], [-95.3658374108426, 29.7238531661782]]}, "properties": {"OBJECTID": 329, "Id": null, "BLOCK": "2800-2900", "STREET": "WHEELER", "TIME": "9AM-8PM", "DAYS": "MON-FRI", "zip": "77004", "APP_": "101819-67-330 ", "Type": "Existing", "CHKD": "OK", "AREA": null, "Shape__Length": 658.3889398375409}}, {"type": "Feature", "id": 378, "geometry": {"type": "LineString", "coordinates": [[-95.3719596167224, 29.7257019262387], [-95.3702402308769, 29.7246665646639]]}, "properties": {"OBJECTID": 378, "Id": null, "BLOCK": "2400-2500 ", "STREET": "RUTH", "TIME": "5PM-2AM", "DAYS": "MON-SUN", "zip": "77004", "APP_": "10212024-67-386", "Type": "Existing", "CHKD": "OK", "AREA": null, "Shape__Length": 662.9832423770131}}, {"type": "Feature", "id": 381, "geometry": {"type": "LineString", "coordinates": [[-95.3704636890669, 29.727574042484], [-95.3700177675, 29.727307898575], [-95.3687616201649, 29.7265382863193]]}, "properties": {"OBJECTID": 381, "Id": null, "BLOCK": "2400-2500", "STREET": "Barbee", "TIME": "6PM-6AM", "DAYS": "FRI-SUN", "zip": "77004", "APP_": "03202058-67-389", "Type": "Existing", "CHKD": "OK", "AREA": null, "Shape__Length": 658.5501871105249}}, {"type": "Feature", "id": 382, "geometry": {"type": "LineString", "coordinates": [[-95.3699867816762, 29.7281788222566], [-95.3682825276594, 29.7271558389474]]}, "properties": {"OBJECTID": 382, "Id": null, "BLOCK": "2400-2500", "STREET": "Eagle", "TIME": "6PM-6AM", "DAYS": "FRI-SUN", "zip": "77004", "APP_": "091225-67-388", "Type": "Proposed", "CHKD": "PROPOSED ADDED ON 10-30-25", "AREA": null, "Shape__Length": 656.4640532423181}}]}